Origin Time       2024/01/01 16:10:00
Lat.              37.495
Long.             137.270
Depth. (km)       16
Mag.              7.6
Station Code      ISKH01
Station Lat.      37.5266
Station Long.     137.2844
Station Height(m) -152.5
Record Time       2024/01/01 16:08:27
Sampling Freq(Hz) 100Hz
Duration Time(s)  300
Dir.              2
Scale Factor      2942(gal)/8224139
Max. Acc. (gal)   405.373
Last Correction   2024/01/01 16:08:11
Memo.             
[...]
 -263830  -108530    73241   156875    94378    -2724    39241   119522 
   37858  -111419   -66329   153106   280268   210240    24852  -102293 
  -82360   -67001   -81149     9123   126863   106451   -86814  -334659 
 -458608  -430293  -380782  -382360  -333597  -199947  -170576  -268996 
 -284153  -228582  -238609  -321185  -470902  -554538  -462619  -381902 
 -366703  -281701  -209398  -246057  -314948  -344864  -265890   -64015 
  118304   194213   194482   106587    17720    86310   171676    58742 
 -117958  -176104  -182024  -218317  -224193  -156150  -126627  -212091 
 -263224  -146851       24     1151   -56444    -9329    58112   -46977 
 -222724  -213381  -113678  -112985  -102382   -39406   -33440   -89297 
 -188990  -272083  -225436   -82039    15566    -4781   -75244  -102365 
  -97078   -65534   -39406  -150067  -321437  -332887  -254464  -234998 
 -231211  -237999  -285415  -331032  -358434  -392160  -435240  -426595 
 -344430  -236097   -94284    -2910   -91258  -200061  -141312   -28142 
   21352    18820   -59778  -171278  -172030   -56262    33431    38159 
   42429   100282   162164   204952   241859   245964   204299   122490 
  -19167  -176797  -247795  -248192  -274993  -342994  -392831  -364223 
 -313726  -370743  -494614  -507089  -379568  -319459  -450878  -583236 
 -539102  -389078  -243935  -168706  -208402  -298611  -303879  -195898 
  -84461   -30470    25871    95467   157324   234643   270202   230737 
  203401   197915   179784   193558   252085   297554   262326   110083 
 -131360  -400840  -630332  -760923  -739305  -539167  -294310  -156033 
  -58085    71213   161133   134995   -23895  -220453  -323215  -322085 
 -246852  -138650  -126746  -207033  -171605    22729   186051   208558 
  145408    87841    93668   128097    78348   -49673  -133037  -156717 
 -167512  -151870   -88520    22777   118845   114196    43848   -22164 
  -96462  -156644  -128410   -54831   -55918  -140109  -261593  -384563 
 -421163  -351067  -253964  -173508  -129335  -131949  -155069  -168245 
 -173114  -204453  -269280  -320468  -299856  -198672   -97619   -50066 
    2258    74318   107131    84738     9794   -73688   -68490     9173 
   54210    66486    87951    67818   -43374  -192777  -286411  -295092 
 -265870  -234543  -189348  -123711   -62271   -31745   -45615   -80171 
  -75675   -35267   -15232   -27978   -73853  -129647  -125086   -64989 
  -25567   -28741   -65979  -124541  -166706  -212584  -293664  -325775 
 -259521  -181471  -149380  -152525  -170964  -170704  -157185  -180476 
 -220480  -216013  -213115  -263711  -295794  -286688  -293110  -280903 
 -222613  -184115  -150923   -75648   -33929   -49813   -32463    11759 
    8006   -34597   -86512  -130208  -108373   -30689     2631   -19213 
  -33284   -45585   -73618   -97609  -124930  -159763  -195211  -251345 
 -288512  -239141  -146553   -69506    -5675    10786   -46816  -128865 
 -190834  -231101  -248231  -217615  -142798   -94865  -127889  -206047 
 -240263  -190956  -122115  -104265  -123179  -129589  -115198  -100020 
  -82189   -57817   -42079   -30893   -22013   -40524   -84234  -124437 
 -148281  -148351  -108577   -47578   -33141   -73149   -99743   -87798 
  -67695   -81195  -127491  -140166  -110686  -108967  -132800  -129408 
 -105634   -81689   -61338   -51117   -19570    32753    28366   -28455 
  -77346  -121375  -141389  -125770  -119308  -122894  -125734  -146431 
 -176513  -187488  -168867  -148346  -156355  -163678  -128043   -62240 
   -3092    13602   -28354   -88967  -109015   -80195   -49887   -61018 
 -118068  -194567  -246316  -257796  -246483  -226098  -212984  -211009 
 -218695  -245114  -255756  -235877  -223063  -184667  -113113   -99416 
 -142537  -155214  -115094   -67437   -68438  -107820  -117466   -86783 
  -64301   -75091   -99692  -100009   -70567   -54487   -70040   -77380 
  -55008   -23909    -8642   -24840   -51320   -55098   -49578   -45158 
  -25470   -11723   -28834   -50684   -72900  -111844  -139395  -152397 
 -168872  -158025  -113167   -66067   -39337   -50685   -69475   -59900 
  -67211  -112757  -142431  -139633  -128358  -136026  -187783  -232308 
 -198228  -138514  -133266  -154437  -162330  -169366  -174166  -158924 
 -123650   -88531   -87123  -146110  -247877  -341359  -398177  -399496 
 -325773  -221495  -167381  -162004  -141012   -92083   -49725   -38388 
  -71551  -129708  -147853  -100847   -36196    21182    71645    82188 
   45409    22237    49022    75112    72350    90404   130129   115321 
   24102   -67913  -100234   -93496   -76338   -54336   -42907   -40193 
  -46750  -104475  -197179  -247614  -255766  -263237  -260621  -238396 
 -212735  -181650  -145625  -136043  -166321  -207702  -229308  -228181 
 -210535  -168745  -121082  -112546  -136358  -151051  -157339  -171142 
 -184563  -187586  -171921  -152874  -177233  -229317  -234705  -193440 
 -149017   -99731   -55259   -45519   -62102   -78979   -92083  -101425 
  -99260  -103435  -109429   -51061    51264    72420    -5751   -82059 
 -106772  -120506  -168627  -228707  -258300  -278148  -320909  -365079 
 -355648  -261813  -151403  -115221  -110488   -59281    -3350      888 
  -23577   -48566   -62587   -49266   -13786    12016    -5790   -85878 
 -206612  -301403  -330457  -323941  -329117  -360873  -380683  -351379 
 -320973  -335596  -348854  -321528  -265759  -217607  -242415  -322764 
 -347340  -299535  -248595  -216607  -184985  -134573   -73786   -37991 
  -33874   -43692   -60527   -73535   -73425   -60118   -29663    17116 
   60779    66482    28397   -12152   -35035   -73836  -143128  -193838 
 -183853  -127704   -59486      178    53110    95590    96950    50548 
  -16413   -93280  -177288  -244925  -269414  -258279  -245628  -238333 
 -227091  -228270  -249253  -258676  -244842  -246165  -272309  -276849 
 -235377  -180694  -159314  -176500  -199650  -210447  -218452  -217891 
 -187724  -155617  -155239  -153326  -129992  -100491   -48276    21895 
   63876    66552    48613    33342    37987    37120    10234   -20522 
  -41476   -46330   -36194   -38445   -67697  -105169  -118003   -98131 
  -81629   -97960  -132714  -152055  -143789  -123820   -98232   -65924 
  -42439   -32967   -17344    16451    41659    31837     6218   -20101 
  -55128   -86306   -99368   -98739  -101841  -130966  -175720  -214929 
 -249532  -259379  -224621  -180279  -162984  -150565  -114405   -89276 
 -106145  -126648  -136757  -157292  -160537  -136895  -119977  -114111 
 -119711  -123912   -95867   -65508   -65514   -68345   -63709   -63837 
  -58415   -42533   -37561   -57748   -84597   -90069   -70607   -53505 
  -61331   -76189   -82044   -97877  -123951  -137046  -137332  -134478 
 -129834  -120919  -105024   -92974   -90996   -92298  -103990  -128810 
 -143008  -133389  -121385  -121147  -117072  -101687   -84343   -76276 
  -88042  -107318  -111326  -115169  -142703  -170230  -167174  -144927 
 -123816  -117298  -134249  -150226  -138352  -116317  -111820  -129887 
 -160984  -186436  -189221  -169780  -147771  -144165  -156520  -165153 
 -162135  -152938  -145520  -149743  -153029  -124303   -79374   -64417 
  -72180   -63366   -33548    -3403    14986    19700    12086    -7545 
  -42703   -86186  -117865  -131890  -136753  -134064  -127427  -127093 
 -134728  -146627  -156143  -158041  -164057  -187228  -219354  -238855 
 -234250  -217661  -206520  -202953  -199508  -189388  -171069  -150352 
 -137065  -134509  -131537  -120958  -113179  -116868  -135396  -164273 
 -177915  -170359  -175662  -205429  -235946  -253924  -256721  -245785 
 -230818  -213779  -191872  -168943  -148975  -136167  -134499  -138427 
 -138987  -139336  -142998  -143371  -146622  -160492  -161433  -131874 
 -100836   -97418   -97602   -70599   -48336   -64920   -89181   -98874 
 -105335   -98464   -80596   -76665   -78912   -71901   -66764   -72925 
  -85905  -100884  -117783  -128187  -126989  -140871  -183097  -214708 
 -210065  -192179  -180112  -167665  -149966  -135959  -131496  -129548 
 -127607  -118319   -96719   -95737  -127028  -141521  -122532  -107944 
 -108654  -110332  -110548  -109405  -116082  -135707  -154375  -161373 
 -150349  -130630  -120839  -118085  -116067  -104881   -73421   -43734 
  -35854   -39425   -46067   -44795   -32695   -38724   -60081   -60018 
  -57499   -84859  -113262  -117598  -119929  -129334  -125752  -113934 
 -105887   -83812   -62432   -80955  -111073  -114948  -118118  -133155 
 -137809  -131548  -126063  -122931  -130827  -154209  -168137  -164060 
 -166567  -168453  -151162  -131529  -124214  -135226  -159749  -166411 
 -149338  -134854  -126975  -125514  -141617  -158121  -153326  -141139 
 -133947  -115465   -86584   -93663  -145891  -179601  -170514  -153345 
 -147464  -162858  -182098  -162032  -131392  -137805  -139722  -112708 
  -93833   -83452   -75608   -83107   -86348   -87102  -127510  -183991 
 -187421  -151267  -146005  -172505  -167443  -122659   -81130   -55803 
  -54830   -72561   -70999   -67628  -100614  -138061  -151455  -148254 
 -118802   -69682   -39594   -43572   -77762  -127136  -144213  -104919 
  -42669    -2776      380    -5991   -14256   -50427   -85533   -76009 
  -56974   -63194   -82077  -102265   -99018   -56289   -15854   -27715 
  -69406   -73727   -61888  -106947  -162009  -155916  -135054  -136709 
 -151949  -195276  -232455  -212309  -185188  -211102  -249509  -232691 
 -148420   -41953    21045    18979    -1740    -3396   -31170  -114110 
 -173946  -179961  -207868  -275535  -333093  -349564  -318655  -276612 
 -266816  -261245  -225613  -214100  -267372  -295787  -219882  -123601 
 -102906  -115464  -108251  -117563  -153046  -155093  -146716  -188099 
 -196569  -108700    -8783    37777     7321   -68913   -71489    -5078 
   10837    -5911    26327    88342   105914    25747  -106733  -177450 
 -164412  -144138  -164083  -191188  -197424  -205800  -200045  -173622 
 -186521  -209401  -166151  -129802  -173781  -220126  -248108  -309656 
 -345223  -310626  -250813  -199619  -218659  -304836  -325526  -243527 
 -156961  -106790   -42919    30449    51935    38292   -10794  -135195 
 -237660  -248671  -287872  -363598  -314625  -187888  -132557   -99743 
  -77410  -113733  -119007   -50967    30090   129687   254057   320631 
  286193   183955    87941   109786   176960    98086   -54850  -137511 
 -230851  -407361  -579773  -666523  -663385  -564854  -403050  -284030 
 -215956  -140595   -71231    14388    58333   -83046  -263439  -248200 
 -132804   -91174  -109593  -124160   -82629    36564   111456    69226 
  102411   288288   376060   299614   241913   194297   103580    35037 
  -40109  -158639  -257065  -365318  -563861  -734653  -751732  -712763 
 -659934  -501318  -286632  -143433  -107630  -165403  -212218  -148161 
  -49624    17512    56880    47105    31128     -147  -110349  -202340 
 -182877   -90269    -1918     -571   -30122    44382   181750   248233 
  256019   297013   300982   139172  -137500  -346219  -339915  -178139 
  -88804  -188735  -335989  -342100  -268740  -277091  -280503   -89025 
  167486   199149    78775    92206   208780   190690    53273   -54854 
 -152401  -253505  -316980  -362317  -316618  -100110   113243   142341 
   79660    31797   -68126  -233620  -361883  -376601  -235516   -25637 
  -10577  -287319  -593586  -661900  -519831  -372730  -361677  -382843 
 -287204  -179348  -122987   -35483     7258    -4943    23994   -77099 
 -316030  -337427  -234512  -353555  -531578  -575640  -550656  -378645 
  -98821   -18199  -157701  -284951  -369612  -402528  -268177   -40818 
   80511    75003     3933  -153146  -292805  -252261  -110926    -2060 
   69298    87219    34593   -45689  -100646   -62707    78217   129562 
  -91235  -409882  -483013  -248899    32498    74096   -59031    27943 
  326826   390133   217015   162274   185228    61693  -131926  -324816 
 -572209  -783085  -848724  -759090  -589632  -417136  -351533  -622844 
-1024813 -1009161  -630979  -302165   -81849    91023   102921  -135753 
 -488833  -726359  -772000  -710914  -630323  -436523   -23085   383026 
  578627   697374   731988   525013   314828   392432   570065   592294 
  389815    42336  -181737  -162765   -12309    78644   -97212  -401322 
 -515404  -558104  -765896  -964133  -903903  -685169  -570964  -568182 
 -413471    38527   522896   722464   682705   480477   246353   247509 
  348310   357093   372892   288019    21444  -246515  -388071  -352930 
 -248252  -202532   -88912   193943   470880   452166   145882   -64692 
  -14578   107878   165703   119772   -65897  -362873  -643735  -828463 
 -871786  -698539  -395903  -150406   -69018  -104626   -58349   124251 
  326436   498380   594249   600408   625622   639474   490703   214821 
  -61527  -219283  -181091   -39626    36370  -113444  -447114  -667248 
 -735023  -841449  -954672  -932508  -643549  -247784  -210428  -446831 
 -542033  -418246    17552   545552   566343   192404    40686   232129 
  481995   495690   218397   -86490  -226860  -215921  -203679  -325894 
 -376392  -308626  -448252  -640076  -480810  -136239    90085   278507 
  503088   497870   113904  -316232  -519556  -597596  -657333  -686524 
 -633135  -457654  -204911    32800   225898   426355   599935   648886 
  599502   479291   378515   480683   582796   393059   140066    57092 
   -9432  -162621  -326833  -500993  -626287  -514803  -241845  -142705 
 -367542  -684755  -666006  -211581   228758   337752   358308   448877 
  398467   160412   -69900  -160928  -137812  -256664  -697315 -1150141 
-1255329 -1041326  -712308  -517383  -554762  -629951  -615228  -553560 
 -504087  -568579  -759545  -941963  -956751  -745197  -540133  -611101 
 -733737  -585179  -407597  -432103  -397056  -236121  -172523  -126814 
   48573   137332     3994   -41443   129019   246616   316264   457891 
  475762   392184   434936   410788   179672    46473   116814   275292 
  493265   586268   377812    -7025  -399143  -741903 -1004236 -1142638 
-1066861  -780880  -550405  -594899  -748579  -799619  -766505  -660649 
 -539991  -479723  -325424    18226   408059   662883   695034   530196 
  210375  -105873  -215033  -181527  -110363   -15923     4882     8095 
  133369   261925   284770   310589   420128   529490   509985   437975 
  467545   439094   187097   -79793  -228712  -394228  -573296  -652901 
 -710703  -862141  -971716  -875442  -705403  -637441  -610654  -535387 
 -455920  -431870  -421968  -290819   -23130   161761   128787   -13949 
 -157007  -255484  -276598  -234585  -195214  -243965  -306389  -204160 
     652   146453   225606   294219   393840   444468   323596   130612 
   71599   156613   261181   357832   459519   556505   668974   738489 
  693598   544010   285734    33332   -37998    19337    84280   142086 
  135395    19157  -111063  -219226  -375044  -484423  -376354  -145003 
  -23491   -18982   -27742   -72256  -139368  -189982  -283780  -345996 
 -238138   -57754    56444    96672    45335  -113613  -303305  -425331 
 -473675  -459869  -336754  -157303   -35002    50103   110150    95835 
   47155     5594    -6455    48949   100862    93171    80866    49042 
  -35392  -102471  -145130  -219565  -263443  -290960  -406377  -473438 
 -385566  -291028  -207820   -65793    56452   137729   144782   -70692 
 -371680  -437892  -326883  -296823  -314086  -197995    72723   333378 
  382328   271200    80600  -253700  -473022  -341197   -99982    14863 
  -75980  -289354  -331122  -177934  -149895  -334237  -494077  -470836 
 -233986   127327   303808   159938   -76385  -197780  -169593   -99403 
 -111322  -194486  -324360  -479691  -533250  -395956  -228594  -265432 
 -450476  -586129  -577569  -399556  -226959  -276860  -521749  -829121 
-1016775  -961842  -804386  -710931  -639427  -549929  -505202  -490698 
 -474588  -474722  -420927  -242257    -8942   191050   368961   500081 
  503247   428357   374704   399564   543565   620357   346962  -153349 
 -478703  -440679  -170550    28444    41285    25735    -5501  -113956 
 -198281  -243240  -286429  -260219  -168891   -97386   -72357   -95824 
 -193854  -327100  -358784  -254763  -178235  -278209  -465219  -496986 
 -348673  -196925   -86864     5868    68863   105880   141301   216934 
  280246   241371   148554    82201    80314   164400   248059   183797 
  -21452  -216982  -347394  -407443  -278502   -17752   113998    81369 
  -78985  -413101  -767480  -963038  -971754  -778735  -502768  -348252 
 -257867   -51444   211096   407878   521908   526833   513669   594958 
  634173   510358   316569   176050   167844   278071   392662   437594 
  382124   205314     3640   -88291   -49445   110749   326386   421735 
  338771   224062   184160   137625    -3721  -182564  -298251  -357316 
 -455040  -547705  -534192  -516287  -569057  -595208  -523937  -370182 
 -259351  -320731  -446369  -415999  -177606   147459   400941   528331 
  533335   402607   256238   208553   182340   142699    48122  -215349 
 -509673  -595458  -531631  -507340  -541533  -517963  -351777  -161308 
 -124156  -148633  -124968  -143073  -192337  -193637  -228064  -373562 
 -500868  -504303  -486040  -553892  -724924  -833657  -740271  -709250 
 -914049 -1105462 -1100071  -979838  -897345  -864436  -787168  -668428 
 -548919  -373878  -137226     2448   -20402  -124911  -328918  -582051 
 -671070  -592716  -533247  -460927  -253640   -49617   -17663  -103990 
 -174904  -126099    46651   266043   476973   616867   640205   501795 
  141080  -275270  -445809  -389364  -375190  -481160  -583617  -628107 
 -601736  -484131  -389337  -355110  -195191    59867   182605   178818 
   83258  -138369  -303396  -258753  -155316   -94571    19457   139861 
  136809    92767    87733    28096  -101131  -194032  -233807  -270822 
 -290329  -292646  -318269  -308523  -208024  -103334   -44047    -3564 
  -25660   -89928   -88776   -48301   -13937    56413   124488   102972 
   33484    41040   120186   147336    80628   -16125   -97509  -131974 
  -35552   172065   326575   370314   334729   167992   -86529  -224252 
 -182660   -55440    74228   105671    16108  -122462  -275439  -383080 
 -417757  -427970  -370606  -215770   -14357   242091   487162   551961 
  469033   447291   486132   408550   252833   221422   338540   442045 
  439875   339057   130929   -84643  -175166  -200627  -214991  -168300 
  -57076   116699   300235   379270   381890   391948   359617   244074 
  127921    19873  -175031  -363276  -384359  -336861  -378005  -516886 
 -679086  -732307  -609421  -423288  -333617  -331392  -288408  -206442 
 -200175  -329865  -528732  -631751  -557571  -367937  -188696  -117690 
 -102487   -36621   123858   352757   470129   353235   160902    49936 
   61326   233944   407204   328993    40963  -271541  -481802  -494977 
 -383802  -348300  -406533  -400368  -344572  -339475  -289583  -183411 
 -110336    15506   181897   230832   188411   142240    78483     8213 
  -52474   -96762   -64527   -16657  -112336  -301683  -422149  -398783 
 -206396    26464   120397   105590    70914    64299   114439   146075 
  107113    51069    25435    39923    79336   104461    99198   105320 
  125674   123815   113205    72752   -17906  -102386  -164740  -206514 
 -193133  -121232    -7531   123267   220375   267846   305862   318747 
  249679   156266   137293   168654   157786    75413     4303    19603 
   53921    32817     -319     4217    57361   142099   189538   196284 
