Origin Time       2024/01/01 16:10:00
Lat.              37.495
Long.             137.270
Depth. (km)       16
Mag.              7.6
Station Code      ISKH01
Station Lat.      37.5266
Station Long.     137.2844
Station Height(m) 48
Record Time       2024/01/01 16:08:27
Sampling Freq(Hz) 100Hz
Duration Time(s)  300
Dir.              5
Scale Factor      7845(gal)/8223790
Max. Acc. (gal)   747.724
Last Correction   2024/01/01 16:08:11
Memo.             
[...]
   -8847   -33366   -39691    -7203      174   -27124   -34898   -11932 
   26341    79413   139307   181192   178768   117508    12029   -80646 
 -116901  -123053  -118280   -83128   -52219   -64011   -77143   -70891 
  -70822   -52972    13814    85639   112363   113436   122450   124418 
   93363    42147    -1123   -23992   -32070   -43644   -60552   -71294 
  -78875   -92502  -120487  -146765  -124573   -46472    31978    59698 
   45133    34052    33251    12923   -12826   -11124    -1848    -3816 
   -1904    -2999   -21134   -63089  -140543  -219253  -250414  -253930 
 -260379  -238940  -160177   -57430    31818   113024   185673   238820 
  289873   345722   370452   338852   271830   200369   139368    93179 
   49626   -12125   -87678  -139110  -144224  -127610  -106405   -63213 
    1579    52296    72373    88155   105309    97335    74640    63161 
   55912    47413    45756    47815    40186    22642    12934    10049 
   -5791   -29870   -45698   -61846   -84682   -99580  -125293  -194231 
 -267169  -285947  -263626  -245848  -247221  -248690  -229832  -196487 
 -166622  -139931  -105773   -63451   -23085    -7500   -36693   -93860 
 -131938  -134360  -133856  -139445  -119479   -74638   -33835     7123 
   68204   136229   189869   239754   291806   310184   265233   185805 
  122423    85094    52463    26426    41852   103092   163877   198555 
  214893   209355   183570   159341   144922   131712   123993   140093 
  182684   222956   235480   235345   242535   240602   214424   188275 
  185325   187897   169774   129354    79531    34099     -758   -30105 
  -60469   -83883   -84280   -67350   -53824   -50078   -57303   -83309 
 -131889  -197102  -262008  -311632  -346711  -372124  -390371  -399397 
 -387563  -355919  -330168  -319264  -294366  -238704  -174530  -126436 
  -90540   -39459    29920    82614   112113   143160   181997   220221 
  235369   212861   182113   161454   120525    47387   -31160   -94741 
 -125273  -105625   -57032   -24385   -22597   -33386   -43490   -54643 
  -52277   -12129    48312    96882   140323   181674   193727   165366 
  113136    49644   -19804   -79610  -117521  -137791  -140173  -118481 
  -85390   -65880   -68104   -82895  -111071  -165449  -228549  -251761 
 -215944  -143337   -69188   -24645    -2288    24232    35286     5219 
  -45202   -96657  -142892  -166131  -161050  -141219  -116989   -89068 
  -63236   -46099   -15010    49937   124491   186135   248886   323620 
  383595   397813   382946   375208   372163   359950   349373   339642 
  312334   272394   228557   162664    71529   -16370   -90900  -165689 
 -227635  -244316  -227357  -224980  -249714  -266527  -256030  -239103 
 -221977  -189737  -163065  -170210  -186794  -174488  -138680  -103698 
  -53804    47385   182717   302553   396841   470065   504615   503284 
  496466   487163   443605   344505   201328    42774   -90382  -151163 
 -146318  -136976  -131467  -101719   -80207   -89654   -94811   -91976 
 -105385  -135600  -170812  -196275  -214355  -237166  -245937  -217453 
 -162252  -108711   -76368   -54067   -19067    19809    44859    63880 
   79516    76962    57785    40190    43227    84339   159505   241467 
  306136   343473   358639   356320   321644   245211   147684    57152 
  -11246   -56826  -100198  -158901  -212191  -241672  -270121  -311053 
 -345265  -359922  -357999  -349058  -337594  -308518  -252184  -185963 
 -128401   -78804   -29350    16717    54367    93349   136467   166445 
  174754   173043   174186   177083   171886   163876   174834   207141 
  231484   222278   178060   107435    25205   -47922   -96669  -122075 
 -143915  -167428  -168064  -140448  -107883   -79126   -45052     1317 
   60124   120907   168725   193684   183099   124333    23571   -81477 
 -143738  -155071  -135437   -94622   -44163    -7277     -253   -15734 
  -32559   -39379   -35576   -28004   -23325   -14041     1140     5648 
   -1605    -2702     5069     8554     4369     -471   -10269   -35889 
  -67891   -88875   -98632   -99438   -85934   -58807   -27980    -1163 
   25809    59152    98008   141342   184847   219152   237632   234488 
  201808   136493    52914   -25694   -88593  -128957  -140884  -131022 
 -110556   -95594   -98275  -103572   -91808   -69502   -50581   -33662 
  -16954    -8016    -6110    -3356     3859    22755    56797    94417 
  127003   155632   177692   186939   180485   163358   150172   152736 
  164096   169431   167535   162179   145577   110288    65857    28593 
    6150     -675     3280     7387     1433   -20317   -55752   -96086 
 -130509  -146510  -139434  -121231  -104757   -87609   -63452   -42030 
  -37274   -40254   -39047   -43353   -54299   -56142   -46992   -34074 
  -19310    -5382     4232     5684    -3892   -20889   -36755   -42009 
  -35388   -27430   -22983   -14509     1320    19889    33937    34487 
   25215    21162    21566    12619    -9175   -36440   -60667   -78368 
  -93641  -110806  -126031  -136522  -148105  -159949  -164115  -161882 
 -155100  -141345  -126068  -111504   -89149   -58483   -25402    13176 
   58247   101034   137462   167231   181884   172627   144864   114385 
   91612    79624    82514    99766   120243   135182   145690   155088 
  167031   184118   201236   208172   198490   174753   147098   123457 
  103459    84025    63560    41574    21159     6183    -4581   -12459 
  -12526     2405    28524    50095    62961    75200    80936    65942 
   34439     5487   -13726   -31696   -54299   -77078   -89750   -91986 
  -97259  -106000  -104356   -91673   -81351   -84269   -97102  -111994 
 -130577  -149107  -158448  -162877  -168770  -173119  -176295  -181550 
 -183203  -174931  -158753  -136452  -105583   -67328   -30396     3600 
   45458    91725   125806   148471   165693   173442   178301   192037 
  209814   218440   212106   194765   169919   136086    98766    71359 
   59749    57500    56407    51808    41465    26090     7808    -6077 
   -8224    -8498   -21941   -44147   -63900   -85897  -118623  -154338 
 -176968  -179455  -167143  -148709  -128256  -106482   -83682   -61763 
  -41742   -17780    10458    28285    29076    22476    14080     1634 
  -14638   -25527   -18495     1572    12641     7912     1387    -3661 
  -16128   -28333   -19553    11526    42488    62943    86377   113533 
  127118   128220   133185   144398   148122   127074    75440     5633 
  -63629  -120285  -162660  -189953  -194317  -175564  -145827  -112653 
  -79417   -52479   -32867   -19518   -15094   -13602    -6134     4402 
   15126    31351    55242    77834    82721    60014    17744   -29235 
  -76651  -126983  -182425  -241886  -291832  -315200  -312820  -299073 
 -279400  -245978  -197267  -144090   -92303   -40208    10984    56790 
   95467   132196   164825   177535   170865   164216   161901   150380 
  116538    64076    18966    -1138    -3794     7798    40855    88580 
  130361   151775   156965   158095   160836   166510   173086   179994 
  188238   190444   184239   176814   164340   136530    94502    48963 
    6597   -36504   -81033  -115970  -134275  -141292  -145662  -151096 
 -155090  -152301  -139206  -120391  -102967   -81175   -48694   -18675 
   -5869    -6203    -8024    -7885    -7971    -5764     3902    23259 
   50940    79151    99509   111543   118802   121128   113410    95570 
   77137    65615    61685    67009    83157   101394   109912   110536 
  110328   106197    91818    69519    47441    27418     3369   -26203 
  -51360   -58536   -45609   -23782     -641    24086    47175    62644 
   67903    63034    49950    32938    15531    -5412   -34547   -68835 
 -103596  -134600  -153237  -157532  -156934  -156829  -154629  -147550 
 -131500  -104251   -70214   -36598   -11281     5728    21114    32536 
   37481    44963    60700    76543    82142    77317    63668    37949 
    5498   -18445   -24688   -14966     4604    30883    62376    91341 
  110490   122769   131602   133775   128430   121146   114986   103995 
   84407    64204    48123    30024     7354   -17112   -42363   -64257 
  -74925   -74668   -74297   -81044   -92672  -104326  -112652  -116527 
 -113979  -102281   -85210   -70443   -61048   -54689   -46796   -37666 
  -32813   -30618   -22464    -9171    -2326    -5560    -9366    -7253 
   -3086     -637     4455    16978    31444    36826    29203    16015 
    6756     1447    -3191    -2926     6660    20833    31796    37420 
   39415    39413    38934    38863    41284    49206    58611    59778 
   52517    46795    43951    34021    17011     7101     6736     2725 
   -6562   -11912   -14237   -19344   -26558   -34443   -44478   -55543 
  -64546   -72287   -80523   -86227   -85357   -80171   -76921   -75141 
  -69196   -61884   -59755   -57123   -44513   -27861   -20023   -19182 
  -15612   -13454   -22612   -35351   -35962   -26326   -18928   -16484 
  -15414   -14283   -10324      128    15140    27345    31557    30017 
   29396    31657    32355    31857    35279    39460    36431    25635 
   13475     6845     6400     6481     6930    14069    25955    32132 
   28641    22809    21270    22073    24551    32058    44680    62060 
   82031    97410   105800   110673   111472   105763    95157    81949 
   66213    47228    27561    13532     4931    -5906   -20645   -33497 
  -40795   -45821   -53187   -56675   -45769   -25917   -14069   -16152 
  -19228   -10048     2766     3442    -3292    -4167    -2447    -9903 
  -24147   -32533   -35298   -42660   -49987   -43484   -27602   -16202 
   -5367    13119    27945    26454    15444     5356    -4966   -16686 
  -23492   -23336   -20115   -15812   -13016   -14898   -20991   -28139 
  -30789   -22756    -6108     6952    11288    15010    21609    23294 
   13752      602    -3462    -1744    -5726   -16402   -29413   -40501 
  -46078   -47278   -44224   -33542   -17602    -5424    -2400    -1597 
    7746    21161    26898    29635    39939    52110    56826    57310 
   56425    47497    30981    21523    24687    30595    37413    47150 
   47472    31953    14976     7800     6524     9346    26755    63180 
   98307   112625   116363   119496   104673    62347    17385    -2922 
   -2809       85     4652    12546    11381    -7778   -39179   -75967 
 -110272  -123562  -112784   -99513   -88819   -67610   -42176   -36131 
  -52863   -64673   -54969   -43773   -46813   -43923   -17359    12056 
   25039    38195    56651    58941    52524    62070    79944    89664 
   93425    98774   106625   108612    98934    81206    59638    39448 
   28382    32498    48007    58668    57632    53771    45601    22869 
   -7627   -26904   -30154   -33786   -49828   -68544   -82377   -98319 
 -117100  -127172  -121151  -105281   -85079   -56656   -22589     6675 
   26215    37918    46553    54625    55113    30497   -25224   -83236 
 -111454  -120286  -135122  -144925  -128497  -106855  -116699  -158296 
 -207112  -247295  -270456  -263908  -221193  -158595  -102274   -61681 
  -31646     -927    43726    91152   118368   137447   166098   182802 
  162602   123469   106996   119894   136467   149837   169782   201060 
  236650   253833   235170   184941   131325   105259    93440    63394 
   26067     7967    -4492   -38959   -80041   -99670  -113741  -138107 
 -149631  -133142  -110714  -116280  -153557  -189830  -201463  -194085 
 -171796  -127521   -77043   -48678   -24819    23406    62764    59146 
   48215    59248    64420    57917    68439    81233    66876    47279 
   46215    43927    24395    19791    54614    71996    25157   -25587 
  -19210    20305    54976   102705   195747   296805   354638   383941 
  393049   374260   357650   343025   294320   227591   170617    99409 
   -3723  -114494  -212611  -305830  -396102  -447909  -438662  -415106 
 -425233  -441135  -411389  -342222  -279063  -224229  -141982   -40751 
   46105   117730   179073   227909   266261   291344   301766   299000 
  275711   230875   192465   179898   153285    80769    19508    29666 
   61580    18007   -91451  -159520  -173588  -228366  -329913  -399058 
 -412182  -403420  -398879  -376655  -302503  -191421   -85569   -10451 
   26816    27562     7855    -4288    13369    62222   112943   142533 
  160396   176292   185315   167049   116410    81924   102679   154712 
  208237   253775   279428   284044   259719   177178    52712   -38996 
  -48605    -2914    27845    18149     7708     9325     6922    30372 
   91245   132613   128143   112720   109387   115732   132850   151892 
  155413   159699   188553   219626   225539   219520   225288   235365 
  209598   139236    78713    55903    35523    -6789   -67046  -122234 
 -142622  -159786  -210366  -245124  -257885  -309838  -373497  -391397 
 -377180  -352428  -329336  -322813  -316656  -281950  -224891  -170874 
 -122625   -68909   -11770    36620    58430    34114   -32283  -108480 
 -166546  -195912  -192989  -170445  -155279  -163323  -187288  -200146 
 -190436  -187301  -209784  -229744  -211945  -149089   -57538    27094 
   67814    65736    41320    -1547   -34754   -31104   -27990   -20191 
   74486   224284   307023   323437   286733   117715   -94352  -162850 
 -150606  -177673  -188882  -143630   -65886    42087   167482   274456 
  351946   401349   346272   145405   -53920  -135286  -162692  -207601 
 -262271  -294614  -319380  -390594  -512821  -635386  -687924  -633249 
 -515010  -376768  -237072  -122821   -11738   120561   238292   304433 
  301013   268375   295550   380434   453363   519180   614730   719518 
  785660   777768   703463   607282   500794   365389   212095    76636 
  -20676   -87840  -141578  -177454  -167335  -102986   -33511   -26072 
  -65603   -72173   -57438   -81332  -110377   -99538   -31321   105663 
  250777   349682   414439   423002   357586   282160   242612   221927 
  235997   310535   362372   287795   168678   182378   299058   320735 
  198605    33534  -133336  -290865  -371945  -344730  -270274  -211769 
 -141652   -10305    91890    61789    -4078   -32281   -93218  -161077 
 -154611  -103972   -65588   -21076    68962   155048   170203   152570 
  131105    71863     7175    -4013     5842   -31645  -130924  -247074 
 -317586  -332550  -346280  -396744  -480856  -570632  -604859  -571660 
 -534435  -508848  -455911  -365575  -261862  -164239   -64476    38994 
  120977   171396   208947   255918   309453   349888   386209   429332 
  461871   486067   508234   500987   425503   271707   115852    44779 
   21915   -40036  -181093  -362217  -458939  -430633  -350659  -244405 
 -171078  -187238  -187724  -140544  -139846  -159111  -138105   -86120 
  -10509    58707    94996   107543    85895    31486   -14019   -29895 
  -29469   -23739   -17724   -19680   -34708   -68582  -114322  -129685 
  -87123   -21342    18995    25753    17969    20619    56663   105996 
  124437   124050   128198   115929    91732    91045   112338   119065 
   86003    26122   -29060   -64462   -86069  -117377  -177732  -249400 
 -310247  -365096  -411748  -445062  -473928  -489362  -467934  -411212 
 -352312  -325013  -332025  -352691  -366973  -370140  -370264  -356471 
 -307466  -234571  -166471  -117590   -91627   -87311   -92840   -88966 
  -67072   -32031     9067    54645   109991   168839   215703   257688 
  312446   376876   438124   490712   534304   574236   625064   689476 
  731868   720775   674693   601655   460269   236308   -20398  -268886 
 -496991  -660684  -719568  -702018  -645263  -523233  -318662  -135986 
  -70686   -35652    56430   142048   186831   230565   260548   249628 
  208732   158184   118589    90277    60466    24495   -12213     -172 
  112415   267763   359214   382681   384660   341586   250219   204394 
  236569   262105   205838    68420   -46348   -56141   -43740   -90186 
 -165511  -237219  -296873  -355210  -420421  -481387  -537819  -543807 
 -437883  -275942  -161357  -110650   -93899   -98405  -105441   -89545 
  -44771    14382    73434   149582   256775   381480   520722   643018 
  696697   695135   673186   634143   585989   538234   479973   399990 
  316541   267278   247010   189913    63312   -49959   -56330      -62 
   26219     5452   -38610   -56570   -21797    21928    46819    56943 
   52180    50166    62623    82051    96908    85837    43424   -13864 
  -81303  -154197  -220750  -276189  -305820  -301495  -270156  -213965 
 -175581  -196028  -216626  -191712  -171139  -176740  -177044  -157303 
 -121933   -87566   -56353     7495   112351   212715   297033   369906 
  357223   233806   119650    65885     8995   -50861  -101522  -170721 
 -236325  -257756  -234219  -222755  -268423  -289749  -225671  -150584 
  -99558   -39476    21408    51304    37516     9096     7912    19056 
   -1588   -58091  -101767   -77974    -4287    43946    42444    37158 
   49127    48573    16479   -59614  -184428  -295240  -312693  -234551 
 -121883   -37257     5892    36478    76559   129456   186298   225497 
  229643   205460   172581   130223    58641   -38449  -128422  -190879 
 -230382  -250080  -247792  -239317  -234081  -206971  -152988  -109093 
  -88655   -71394   -62430   -87085  -139068  -196165  -250516  -292245 
 -310809  -315509  -314766  -292657  -253964  -230470  -206760  -148524 
  -79276   -28441    24019    98122   180365   252157   302877   340966 
  401390   487962   552757   559776   508662   421811   335858   280917 
  248713   183327    68941   -28356   -73353   -86174   -83180   -89962 
 -111990  -109840   -71633   -26904     3534     7134    -8849   -12594 
  -16452   -57847  -111897  -138307  -140468  -134613  -135835  -136366 
 -105711   -50403     5394    66846   129536   177935   221316   260821 
  272976   254403   234099   230027   224406   194320   135760    59405 
  -18951   -95751  -158943  -162992  -106049   -74140  -113972  -173857 
 -216855  -244382  -241073  -202963  -143079   -67991      -35    40690 
   63468    78868    91281   114158   165149   248116   336861   387927 
  382642   354160   351768   377946   385522   315387   158531     4725 
  -64453   -70862   -56328   -65322  -125370  -140996   -39607    67971 
   78341    40806    24066     9946   -19105   -23079     -774     8540 
    3407    -8506   -28985   -49935   -68492   -77751   -59070   -19718 
    5262      831   -15889   -36782   -73049  -111199  -118737   -96805 
  -76879   -72805   -70841   -68864   -77422   -90413  -101471  -114401 
 -129701  -146674  -159730  -157230  -135097  -103407   -81724   -80604 
  -92803  -111933  -135707  -156282  -168582  -163309  -129470   -93788 
  -95453  -129747  -179856  -237872  -285687  -320106  -345497  -341797 
 -302374  -266323  -266191  -280625  -289299  -309595  -338393  -349809 
 -336835  -300349  -247244  -203547  -194472  -217069  -245905  -259357 
 -262290  -274689  -281573  -249756  -191771  -140402  -103481   -80088 
  -63057   -31001    23013    84497   144370   199494   241884   259641 
  242685   200368   157539   121316    80559    35181     3550    -3546 
   -7146   -33897   -76411   -97911   -67473     3925    70686   106357 
  131457   166753   185211   158440   106949    72428    83810   132092 
  167702   157746   122381    87150    53266    27500    15407    18999 
   54880   111908   153004   178231   209185   231098   196277   104291 
   35214    36761    66995    91540   114156   136445   169897   210620 
  221294   202786   196261   213171   233320   237082   222376   208414 
