Origin Time       2024/01/01 16:10:00
Lat.              37.495
Long.             137.270
Depth. (km)       16
Mag.              7.6
Station Code      ISKH01
Station Lat.      37.5266
Station Long.     137.2844
Station Height(m) 48
Record Time       2024/01/01 16:08:27
Sampling Freq(Hz) 100Hz
Duration Time(s)  300
Dir.              6
Scale Factor      7845(gal)/8223790
Max. Acc. (gal)   1005.613
Last Correction   2024/01/01 16:08:11
Memo.             
[...]
   63397    88227   127010   118554   104434   119907   124453    81234 
  -25687  -171373  -257473  -209907   -63969   107815   263474   367405 
  370244   240570    24401  -153639  -209266  -194134  -200306  -221451 
 -187392   -83509    19560    52320    39379    36489    27352    -1269 
  -15773   -14177     7314    55883    57343   -34956  -123429  -118111 
  -74081   -67950   -69364   -27151    23272    18515   -17076    -8025 
   40416    70637    76208    64326    12995   -55310   -73813   -51540 
  -48591   -50959   -36774   -49917   -72902   -11377   131109   218983 
  161441    47915     6324     3896   -21493       72    97202   148814 
   90096     6516   -44976  -102189  -151509  -109966    16924   126405 
  164079   157477   149809   163015   178800   142696    29986  -110694 
 -206562  -214110  -141242   -36751    69129   169649   225057   176646 
   32470  -111699  -171963  -143785   -68966    -3742    14850    -4315 
  -39482   -91481  -147560  -145920   -71293   -17888   -39029   -58221 
  -12507    60223   103549   109522   106564   103866    76104    24938 
  -17604   -33735   -14014    32907    79425   124744   176017   195340 
  135436    14319   -94869  -141651  -123483   -61900     5724    51676 
   91071   150079   195286   155885    48712   -20796   -15122     4410 
   -4379   -19699   -13212    -7554   -40913   -91579  -117348  -124468 
 -127075  -104753   -55545   -33187   -70287  -123673  -146203  -143773 
 -137095  -118142   -61948    26832    93430    76634   -20120  -119013 
 -152219  -124212   -59138    36359   117323   129258   101641    83798 
   57345     6400   -35421   -44899   -21741    43070   134005   199752 
  224613   225074   185714    99484    11439   -44828   -71833   -57824 
   10123    91935   128781   121572   111898   111588   101328    57902 
  -14499   -65961   -69155   -60311   -66586   -67795   -45423   -13192 
   10377    20834    10552   -29274   -82169  -113000  -109389   -85822 
  -50267   -11859     5945    -3096   -22121   -34303   -31641   -18399 
    5371    45477    81888    87054    66326    38160     7595   -16711 
  -21253   -14022    -1765    26599    42525    -8114   -99264  -139467 
  -94718    -4232    88187   148722   157111   123472    61564   -20090 
  -84924   -96826   -67370   -21147    30974    70960    81646    57520 
    1845   -62572  -101707   -98693   -66259   -29052     4727    35510 
   45466    16978   -30653   -57951   -47567    -9543    38180    80416 
  102784    97407    79699    71829    72507    80244   105314   120765 
   86108    38966    41492    65330    59713    45153    47695    46726 
   29370    19394    27531    30129    25371    36321    50539    38865 
    5314   -26443   -40324   -34543   -21863   -27924   -65191  -100205 
  -90119   -45323    -6632     8968     6683     1876     3601   -13788 
  -70538  -125304  -124108   -75293   -26326      309    12463    23955 
   39977    47391    34884    14723      -32    -9713   -18758   -39310 
  -77689  -117630  -136408  -117861   -58002    21246    84528   116996 
  120869    95810    53607    21662    10562    11260    25729    54452 
   69016    45511     6648     -510    37203    89518   125346   122436 
   66492   -10687   -52185   -47919   -20008    21801    63640    79566 
   61400    26199   -15765   -66796  -106798  -107628   -84030   -72273 
  -66182   -26420    47906   103766   100980    57524    13579   -17807 
  -39969   -42360   -12114    39845    77045    72918    56466    75728 
  113105   110648    63397     9228   -40821   -80407   -75820   -28586 
   18840    59624   102357   108627    45473   -51320  -129938  -169568 
 -154579   -89379   -23195     9354    28539    46961    29686   -30669 
  -76339   -79358   -66691   -38966     7090    29446     7859   -20579 
  -25597   -22721   -32937   -42070   -30986    -7890     8645     7458 
   -9238   -29982   -42959   -38461   -17259     6669    22661    35989 
   52880    59165    32972   -15522   -38367    -6431    49319    74536 
   54777    21748    -4720   -34977   -60427   -50037     2079    59822 
   75972    48242    17015    -4540   -31563   -46526   -11839    64689 
  126974   136263   103692    50826   -14563   -68342   -65836     -978 
   68463    93823    87457    72304    40567    -6332   -26721     6635 
   61985    96203    92809    56153    10747   -26109   -56917   -67446 
  -31760    41404   109090   142020   137556    97579    39384    -6264 
  -29619   -33386   -17027     2832     2142   -19309   -49315   -84932 
 -124133  -152964  -151039  -109470   -41912    22198    55452    51474 
   30939    21990    24919    12465   -19049   -40409   -41072   -39819 
  -47264   -52636   -42851   -18480     6228    17415     9386   -20048 
  -52111   -46078     4985    55015    60675    22465   -23282   -37135 
  -14910    18709    54369    94323   119037   104475    63151    37940 
   47333    62685    57443    37909    13795   -16017   -43564   -42724 
    2143    59270    80584    64373    37727     7063   -24582   -28171 
   10493    51129    56601    41173    22260      338   -16225   -28907 
  -49439   -64238   -51186   -24653   -17443   -26499   -23222   -10073 
  -15955   -41928   -58429   -49493   -19747    19651    47447    55908 
   63612    74567    72158    52481    27283     9193     2269     3678 
   12008    21028    15958    -3391   -12841    -2968      633   -15500 
  -29088   -26898   -25687   -39056   -54753   -49555   -22580    -4033 
  -16529   -46429   -71447   -87586   -94104   -86219   -64712   -30457 
   12305    45318    49353    25691    -2421   -15202    -6359    27376 
   68656    84138    72511    58183    45828    31749    28075    37145 
   43740    45364    52246    60081    53833    43524    53069    73576 
   81849    78336    72207    61960    42759    21743    13257    17977 
   22720    19631    16249    20560    24557    21096    18454    17311 
    4109   -18007   -31244   -37933   -50143   -55078   -34060    -4661 
    3786    -1848    -7199   -17404   -20734      124    24981    28019 
   16359     5560    -1796    -8259   -14052   -11785     3535    16359 
   10260    -3190    -5525      920     3391    -3349    -6606    10478 
   34068    34967    19442    13626    12595    -2909   -24125   -26835 
   -6868    13288    12630    -3246   -16455   -22018   -27573   -35588 
  -38043   -29597   -17730   -18254   -31391   -38480   -35580   -33567 
  -33355   -28032   -16305   -11259   -19948   -18698     7051    28086 
   25613    23863    37822    50919    51732    52531    66144    83300 
   90819    89576    78781    57322    39170    34107    34695    41856 
   64609    91206    99027    84753    65426    53609    40225    19089 
   10033    21817    26804    13501    10889    22503     8135   -36798 
  -60372   -37454    -5850    -1634   -17984   -35795   -40728   -19095 
   21060    48172    42292    11461   -20105   -37845   -50876   -61334 
  -49176   -14712    11784    13537    -2112   -20794   -27306   -20058 
  -15430   -15142     -627    21600    25524    16573    16659    21636 
   13238    -9040   -30280   -40616   -37073   -26009   -21932   -20804 
   -7535     7850     8727      133   -11672   -25178   -26927    -6114 
   26280    48319    46604    26393     4873    -7685   -15900   -20534 
   -3469    35966    55561    27703   -12982   -15372    15070    25436 
    1502   -13676     3145    24835    28393    29928    42692    42816 
   16551    -7578   -11041   -13784   -22987   -14901     8062    12216 
   -5791   -21892   -30481   -37615   -37045   -19900     8550    40126 
   70019    83461    71582    43772    13312    -4517    -5625    -4627 
  -11306   -16422    -1911    24601    31950    21119    21884    39942 
   49063    26001   -17038   -48625   -57989   -55200   -51938   -47046 
  -23880    15788    37432    22532    -4860   -21354   -38835   -60913 
  -51310    -3663    36632    55038    64719    48390    -1217   -49050 
  -70833   -74394   -57527    -3477    65469    99412    95073    78123 
   39656   -35436  -113695  -137641   -98895   -34900    47321   145424 
  190310   123657    -3711   -97343  -128179  -118099   -69438    18235 
  106640   159250   160632    97683     4577   -43672   -29864    -2809 
   12260    42276    99912   138662   107939    41007    20205    31284 
  -12804   -89182  -103750   -69951   -52207   -38882    -8104     5805 
  -12096   -18478    -5208   -20451   -56118   -55143   -16617    23053 
   44132    37281    14359     1813     4584    19060    43108    54939 
   40458    20025     2891   -26022   -51468   -40193      857    34943 
   29222   -13154   -50201   -69140   -76430   -46953     7040    35338 
   45220    64168    57919   -11041   -94529  -122405   -84321    17408 
  152986   210108   118368   -31639  -108525  -108769  -103018   -88805 
  -28734    45100    66193    14254   -72451  -139205  -147672   -85391 
   16231    88393    82671     5412  -102118  -166815  -116671    18528 
  126908   179579   222914   202698    53871  -110222  -156821   -98390 
   -5809    69345   116629   140633   126345    67655   -21555   -96034 
  -97356   -27029    56096    90729    67794    49002    69067    67177 
    9151   -19754    24958    61480    75991   142159   226368   227662 
  135395    19236   -59626   -93698   -93093   -46753    18871    22788 
  -27004   -15789    41104    20780   -19413    42576   134617   153463 
  124406    65850   -59586  -205050  -253373  -211667  -162317   -69519 
   99117   196225    72123  -165181  -282514  -278870  -290316  -242136 
  -12253   267883   390433   316678   141440    -6932   -57276   -55489 
  -53862   -14856    93181   209221   242605   207581   176652   126651 
   31290   -32125   -11465    17520   -52290  -188238  -234203  -131309 
   -4176    27109    19784   104496   215118   140918   -71250  -189291 
 -199916  -176625   -85240    47580   139279   174279   158338    85294 
  -45862  -201717  -264317  -159111   -39328   -71624  -129969   -12696 
  179255   164413   -83505  -287286  -272835  -152416   -85610   -93249 
  -84609    31405   193459   216255    44328  -147150  -188335  -145033 
 -115929   -23734   152672   304450   385780   388243   282854    89120 
 -117250  -244255  -237632  -139361   -37362    35897    84362    65568 
  -37890  -129807  -163753  -152690     9320   315361   498993   412337 
  180088   -20850   -95011   -41956    73746   168145   180588   109385 
   -1729   -85264   -90216   -46851   -12218    19885    71556   101893 
   73889    68702   174852   335416   420458   353118   188821    29824 
 -176377  -493900  -760155  -812951  -682878  -423381   -80473   243403 
  464825   538319   465428   344054   265137   199543    80210  -104055 
 -297259  -401962  -381854  -299050  -187550    -6770   220702   359332 
  316087   134936   -86584  -254626  -281028  -134836   130416   400219 
  541385   489495   291872    53689  -159366  -383755  -620661  -731299 
 -649170  -429748   -70378   367906   643283   563855   196966  -202770 
 -483422  -669849  -736028  -594035  -203868   368158   797160   751831 
  414756   189368   111438    98788   167745   152158   -53504  -237292 
 -285581  -268876  -151893    87824   274233   229076    43150   -52909 
  -29577     2220    42188   142275   266739   316591   229404     8645 
 -317426  -577465  -495991  -116568   207787   287992   244098   275744 
  342805   245627   -17490  -328658  -568100  -567270  -323775   -39366 
  159948   300562   422770   459537   340683   197748   190267   293766 
  397554   367912   189232    -3202  -181232  -378724  -501832  -450949 
 -262674   -46014   119897   211327   254476   294163   315459   217464 
   23059   -31320   120312   259224   293471   380821   597127   736699 
  642309   459137   266070   -35212  -379471  -616666  -733102  -727620 
 -522566   -89093   430281   776301   828777   723471   561166   271571 
  -93660  -353149  -452540  -381673   -86632   322834   551666   445821 
  180531    -8545  -114924  -199477  -185855   -48591    78279   188388 
  389780   521187   383597   169048    44320  -126176  -296158  -270076 
 -140304  -111645  -205190  -248926   -78644   153395   142415  -142987 
 -458792  -572775  -482807  -340301  -234968  -174131  -127974   -62353 
     446    22829    14828   -13176  -110269  -289774  -414283  -381682 
 -284976  -210593  -142242   -88635   -86655  -139870  -223739  -308524 
 -357909  -324060  -187658    13702   186880   214520   116064   102930 
  288832   528064   619714   486918   241783    81600    43741    38662 
   20665   -27683   -67815    -1255   168701   316264   301564   107117 
  -75795  -127421  -141702  -114864    12282   153382   244239   253442 
  113556  -121302  -286923  -271960   -87889   109009   136791    20606 
  -16159   117679   214224    68809  -215786  -381666  -350805  -275104 
 -281275  -320931  -325567  -303405  -258915  -172594   -13591   220990 
  432645   483570   345594   119356   -82077  -211057  -242164  -157005 
  -42444   -19381   -34906    28474   116445    72688  -123523  -298201 
 -332676  -315288  -326870  -320882  -230085   -51551   102018    94662 
  -69840  -263067  -344569  -298505  -251866  -244109  -174220   -34929 
   83012   149764   166774   129501    60223   -34588  -159640  -250681 
 -230739  -124908   -20902    24534    19256    21882    74866   152483 
  173018   110338    93926   225310   370271   353080   205308    56330 
  -34491   -64469   -76873  -110511  -120641   -82872   -33376    52230 
  221445   437395   588054   581083   469944   390307   313845    77639 
 -293616  -573319  -626891  -458947   -87253   409866   849028  1060546 
  933585   494741    46269  -189292  -374313  -591008  -645237  -449736 
  -74356   335997   523449   368209   108421    17140    37193    -7311 
 -114781  -201811  -185033    18496   357624   637221   698348   498626 
  114841  -245265  -457655  -617904  -731824  -669423  -451365  -181543 
   67772   237967   326396   309893   186371    87559    65835    39172 
    9823    -6111   -68492  -174344  -265702  -321818  -348190  -341802 
 -238505    44668   445655   715535   641436   383714   325293   471517 
  542096   487016   377460   237865    92512   -36440   -35997   128098 
  274170   306117   295240   301135   283485   164092    19400    14322 
  183959   421174   507895   357918   223898   234312   128938  -191431 
 -456591  -531072  -580693  -674322  -703831  -642841  -503020  -256756 
   85299   488208   785154   654945   134724  -188369   -49304    59063 
 -216556  -609558  -751995  -563020  -296572  -266206  -431898  -450334 
 -193464    10854   -62236  -157014   -22985   207091   267545   147002 
   66820   132258   177965    11259  -254685  -350303  -237759   -66626 
   49508   101189   163439   284369   443257   563878   464976    76404 
 -303720  -369810  -221846   -69214    61303   120722    33889  -122233 
 -219283  -202382   -95432    58525   239453   396469   465652   426234 
  276357    34450  -226018  -406648  -456819  -415656  -371034  -350090 
 -300669  -189044   -44108   104440   284489   510892   689801   707586 
  569223   359301   139661   -72906  -243764  -268232  -114955    45216 
   30763   -87018   -86270    24888    57298    32898    83556   166402 
  193361   212329   315331   474826   560602   453934   140178  -195651 
 -302761  -177460   -22972    41148    46360    64141    70738    -3192 
  -92414  -140678  -209661  -273186  -262935  -204364  -137116  -100164 
  -92281    -9867   186799   383709   483451   459438   344717   262256 
  226199   104708   -71890  -124850     2126   183141   230524    99835 
  -52816   -87498   -37968      828    18625    76789   219709   375915 
  376359   160833  -124515  -309908  -382162  -411934  -394841  -269843 
  -48012   146348   181495    67169   -69304  -141096  -138348   -93143 
  -64091   -70244  -110732  -219919  -360659  -426188  -402827  -327439 
 -189619   -40994    -4835   -80315  -116777   -19651   120071   127622 
  -47371  -242196  -244156   -44197   146496   100410  -171092  -355328 
 -249237   -26851    96033    80373     5023    -7596    11149   -63092 
 -162040  -134180    13011   156735   213040   204036   139666   -25994 
 -176281  -116009    72603   164689   138658   116472   117013    41639 
  -89144  -126694   -63202    -2180    45134    93873   107986    89436 
   74123    59737     6782  -116367  -251579  -309717  -311233  -274461 
 -148417    17555   110847   109949    37777   -94070  -253643  -372937 
 -365719  -197280    53346   241984   261523   106677  -124402  -300173 
 -350634  -300550  -204628   -91088    30627   151529   218582   164431 
   26883   -92724  -183659  -288287  -339778  -222426    15724   179401 
  143397     1128   -39521    59578   132004    87856    37790    88271 
  169365   143563    -6043  -163614  -211792  -122173    38510   156944 
  159151    73333    16167    61927   157854   247990   348729   430605 
  420969   340406   249493   142581      -54  -152628  -243787  -205549 
  -65637    58149    99574   112765   145119   127480     8559  -113125 
 -138030   -69811    82744   272635   362310   272207    61858  -143634 
 -259560  -317703  -357118  -312074  -156388     6600    85302   105246 
  128439   124433    35986   -80704  -124479   -90833   -71374  -115601 
 -132894   -44432    54784    38942   -64647  -125481   -72135    30936 
   68774    13470   -42118   -10388    55127    64309    56404   101537 
  161828   156911    75682    -4919   -32468   -63944  -130891  -170680 
 -176490  -207021  -250079  -228920  -110154    38068   101814    49099 
  -54332  -165410  -284339  -353571  -287968   -93021   140385   297305 
  300107   177681    13803  -148491  -269989  -276204  -140157    27132 
   50089   -71739  -146848  -142240  -207056  -292789  -230318   -38750 
  149054   223084   191531   173043   150547    18982  -142130  -189615 
 -126319   -18328    83398   118135    67042   -25883  -117101  -171063 
 -171022  -144805  -131221  -144351  -155112  -108521   -10627    41189 
     508   -27330    49103   151019   173488   132426    74713    14823 
  -30326   -54226   -73963  -110504  -145886  -125745   -53461     6369 
   32802    38928    -1370   -81645  -103520   -19688    88593   133411 
  104558    58112    57855    97927   113062    66609     7587    13914 
   79373   129294   114733    49549    13460    70753   162271   168858 
   74294   -15695   -31284   -23241   -42755   -50620    16256   156411 
  260944   199431    17965   -89187   -62293   -25339   -46993   -83114 
 -102276  -105926  -115535  -157913  -211746  -219179  -132321    41733 
  209785   270469   223785   148398    86400       18  -139432  -260483 
 -259152  -138663    -1971    71134    96844   139830   194707   203825 
  163721    70502   -81535  -177685  -126597   -37108   -40167  -115734 
 -149720   -72230    40952    76416    45844    35491    85978   157642 
  175751   108013    -5906   -98371  -144178  -168160  -182464  -148876 
  -13994   208371   401376   446478   339259   153616   -42260  -195691 
 -277577  -291261  -239257  -145426   -73313   -30807    32328   100444 
   99589    15577   -82233  -133104  -147964  -159969  -163875  -135076 
  -79501   -22879    44857   131522   182455   182515   200566   240034 
  226129   145727    53959    -5035   -11006    37620    92928    91794 
   54326    59105   123934   190551   203739   160429   117787   149208 
  244144   311403   287477   174167    29261   -72088  -114835  -129529 
