Origin Time       2024/01/01 16:10:00
Lat.              37.495
Long.             137.270
Depth. (km)       16
Mag.              7.6
Station Code      NIGH18
Station Lat.      36.9425
Station Long.     138.2594
Station Height(m) 240
Record Time       2024/01/01 16:08:45
Sampling Freq(Hz) 100Hz
Duration Time(s)  300
Dir.              5
Scale Factor      7845(gal)/8223790
Max. Acc. (gal)   379.483
Last Correction   2024/01/01 16:08:46
Memo.             
[...]
  -56967   -61699   -63231   -60747   -55741   -49509   -41183   -28629 
  -12083     5736    22617    37750    51274    62765    70023    70637 
   65210    56644    45974    33107    18935     4766    -7002   -14511 
  -18111   -18384   -15236    -7842     2986    13257    22901    37073 
   54452    67543    76079    84318    91743    96970    97815    90255 
   75212    55684    31806     6918   -11658   -21543   -26476   -30098 
  -34130   -38777   -42429   -42314   -37412   -29610   -19282    -4822 
   11121    22032    26341    29207    32994    33581    28606    19955 
    7561    -9402   -28209   -45474   -60143   -72698   -82503   -86404 
  -81152   -65573   -40277    -7634    27477    59818    87563   110538 
  126364   134194   138551   141939   139629   128071   111090    93796 
   76539    59063    44377    33566    24075    14993     8510     7018 
   10628    17263    24583    31037    36074    39434    39807    35480 
   25477     9541    -9714   -25092   -30685   -28939   -25764   -22010 
  -16556   -11735    -9701    -9869   -11835   -15067   -17724   -18646 
  -18381   -18436   -19454   -20191   -19660   -18797   -18967   -19600 
  -18316   -13662    -5721     4988    16617    27229    37875    50145 
   62122    70922    77267    84288    93955   105587   115206   118655 
  115821   108494    97241    82363    64089    42741    20677       31 
  -20399   -41341   -60635   -75760   -84337   -84699   -78055   -67780 
  -56146   -43459   -31301   -23873   -23305   -27302   -33754   -41365 
  -46992   -50117   -53866   -56660   -53519   -45577   -36136   -24160 
   -9255     6939    22995    36254    44783    50495    57520    68393 
   82410    97371   111038   122195   131928   141324   148809   152251 
  151318   146275   136653   122103   103590    82933    61412    40239 
   20186     -907   -25060   -49523   -71547   -91791  -109036  -120201 
 -125898  -127900  -123759  -111630   -95200   -76022   -51197   -26410 
  -13884   -12988   -16690   -28476   -49519   -72280   -93687  -111746 
 -121792  -123884  -118134   -99870   -67209   -22806    31206    90042 
  142982   181549   205233   216918   218176   208606   187438   153574 
  107532    56752     8086   -37616   -73348   -92452  -102147  -107426 
 -102367   -82979   -50749   -10574    30115    66560    98620   123944 
  134819   128852   114833    99546    79104    50170    18185   -10485 
  -34416   -54116   -69849   -80419   -84330   -84202   -82567   -76287 
  -63386   -44126   -16868    13846    37558    51175    57974    57859 
   51281    43966    38250    32178    27896    28651    33110    39017 
   47637    59528    70538    77272    78952    76607    74704    75452 
   78241    83956    89326    89097    83862    73458    56494    39843 
   28868    16796    -1116   -20088   -36724   -52199   -66573   -76140 
  -78274   -76192   -73020   -67932   -60401   -52122   -44358   -35517 
  -25155   -17470   -15935   -18731   -23121   -28125   -30033   -26682 
  -23485   -23483   -22762   -19730   -15087    -5996     9628    28231 
   45721    61488    75340    86609    95219   101798   106344   105903 
   98143    83976    63995    40050    17317    -2178   -22216   -43582 
  -61615   -75271   -86575   -94724   -98770   -97209   -87439   -70835 
  -49786   -24430     3289    31195    58374    82651   103527   121463 
  134014   140706   143745   142063   133959   121618   107712    90931 
   68767    42844    15931   -12317   -41276   -68162   -92155  -112234 
 -123429  -120217  -101765   -71726   -33077    12760    57117    86233 
  103755   126530   153296   173639   188466   195531   191353   180428 
  161801   134057   102180    67559    31561    -1185   -29289   -53859 
  -74380   -88453   -95476   -98963  -101244  -101514  -101264  -101520 
  -99715   -96701   -96627  -100693  -107555  -113185  -112595  -106123 
  -96187   -81419   -60218   -33462    -3161    26748    49839    62425 
   68345    72135    71952    67018    62587    60940    58847    55767 
   53227    49941    46267    44857    45154    45208    44658    44439 
   45212    45338    43522    40819    38905    38993    40697    43159 
   47379    54056    63568    79053    99451   114612   117896   112869 
  101163    77013    41008     3919   -29987   -63640   -92990  -112214 
 -124009  -131372  -131926  -125933  -117420  -109669  -102564   -90566 
  -70227   -45042   -17285    12478    38993    55549    58099    46892 
   30670    19329    10716     1269      251    13093    30985    47918 
   63127    72085    70663    57272    34182    10319    -8876   -25841 
  -39379   -42828   -33124   -14430     5973    25324    45978    68361 
   91295   114987   135627   147619   151729   148574   136061   117647 
   96167    70406    43910    18804    -9531   -42333   -75716  -105038 
 -124897  -132742  -131741  -125226  -111862   -91100   -68639   -49744 
  -34495   -24722   -23745   -28081   -31395   -32752   -32445   -26874 
  -14859     -315    15407    32725    49347    65442    81839    94423 
  100228   100403    97148    93330    90715    90015    90990    90610 
   87696    86171    89613    97414   106529   115337   123993   127781 
  116522    87508    50589    12499   -32058   -82147  -123460  -149420 
 -163641  -167549  -162974  -151656  -133159  -108499   -80023   -52570 
  -30740   -12707     4602    20835    36780    52525    65958    77803 
   87683    92261    92110    90078    87336    83498    76524    65776 
   53532    44072    42240    47663    54464    58725    60673    61491 
   59705    52050    38637    22615     7628     -932      622     8457 
   14623    15377    13265    11441    10971    14173    21068    27252 
   32502    39866    47981    53271    54510    53596    51687    45601 
   32671    14818    -4783   -23441   -38547   -49353   -56362   -59514 
  -59980   -59170   -54459   -42600   -26705   -13509    -6151    -4167 
   -6397   -10906   -14673   -15144   -11453    -1987    15572    38159 
   60296    82445   104812   123307   137789   149462   156363   157738 
  151497   134800   110166    81468    50294    17261   -17178   -50905 
  -81880  -109112  -131168  -148759  -162935  -169979  -167161  -159601 
 -153054  -147733  -143079  -139662  -137921  -138842  -140859  -137290 
 -122615   -97564   -63903   -21726    25710    72875   116276   153049 
  178726   190664   194773   201164   209942   210972   198215   176588 
  152059   123742    93240    67518    48239    32981    21559    12614 
    4068    -2687    -7053   -11508   -16723   -21351   -25362   -29767 
  -35048   -41287   -47293   -50433   -51441   -54396   -59487   -64440 
  -71061   -81511   -93575  -104660  -115184  -126076  -134072  -132525 
 -118689   -94953   -64224   -29633     5274    38441    68682    94859 
  117049   134692   144895   147492   146001   141748   133373   120363 
  105193    89838    70950    46672    22500     4549    -5682   -10557 
  -13811   -17736   -22069   -25058   -26048   -24927   -19849   -11331 
   -3146     4982    14881    23862    29816    33034    33525    32718 
   32641    34114    36876    38831    38724    37480    33486    23808 
    9175    -8642   -29452   -51349   -70224   -84380   -94250   -99046 
  -99619   -98130   -94263   -86980   -74532   -54824   -28996      606 
   33440    68843   104271   136776   163166   179242   184239   181418 
  173144   162548   152409   139888   122002   101252    80262    58398 
   35818    14231    -6767   -29342   -54083   -78167   -97308  -110041 
 -117602  -121166  -120517  -113961  -100862   -82273   -58850   -31032 
     399    33183    62527    85577   103333   114732   117454   112287 
   99748    81897    64469    48390    30978    14148     1273    -5471 
   -4056     3352     9448     9217     5987     4239       86    -8912 
  -16128   -18085   -16541   -11313    -3094     6496    16862    25255 
   30508    36810    44733    49378    51756    57380    65978    73460 
   75801    68747    51845    28941     3330   -23967   -51857   -75772 
  -91033   -97222   -94892   -83963   -63501   -32124     6795    47723 
   89540   129290   158904   176311   185827   188115   183213   173308 
  159634   144340   127233   106149    82937    57229    24899   -13848 
  -55250   -94899  -128903  -156220  -176391  -188202  -191712  -186216 
 -169391  -140702  -101614   -55366    -9283    28674    56608    75361 
   83434    83070    80476    74344    60563    48458    46816    42959 
   26401     7473    -7368   -24140   -42438   -54564   -59636   -60982 
  -60119   -63343   -74070   -83983   -86948   -83579   -70263   -42731 
   -4974    37781    82351   121454   147806   157289   147931   127646 
  110739    99835    89889    82242    74029    54399    23244    -8359 
  -35955   -60444   -77157   -82301   -76185   -57728   -29185     4206 
   39255    71518    96558   115724   132629   145052   150232   152996 
  152888   136520   103172    71693    44724    12101   -17662   -38101 
  -56332   -70688   -78538   -84528   -89395   -90570   -88076   -84034 
  -78675   -71122   -62854   -55086   -48304   -44539   -43962   -43156 
  -38531   -30075   -22956   -20970   -19812   -15688   -11853    -7038 
    5273    22428    38699    56497    77719   100452   123373   144069 
  161033   175055   184522   186571   181603   171134   156411   140008 
  122382   101910    80134    58908    37570    16891    -2435   -22465 
  -44018   -66112   -89344  -113953  -136441  -151887  -158685  -158639 
 -152334  -137697  -113498   -82185   -49291   -19170     6743    26181 
   36749    39123    33583    19492     -198   -21251   -41886   -61611 
  -78727   -89642   -92936   -90570   -83936   -72558   -55039   -31488 
   -4554    23201    49823    72430    89714   104186   117424   127144 
  131136   129370   123924   120032   121275   123039   119736   112118 
  100506    83041    61105    39186    20931     5625    -8980   -22123 
  -32086   -36950   -33219   -18242     6999    37935    69835    99258 
  121261   130866   126882   111065    85121    51198    14488   -19978 
  -50674   -75847   -91189   -95247   -94810   -95461   -91085   -78102 
  -66044   -60220   -56135   -55221   -64215   -80418   -95563  -110317 
 -126091  -136792  -142163  -147606  -154197  -160872  -165160  -162884 
 -150766  -126355   -89341   -42842     7176    53914    97424   143954 
  188974   215981   221617   222874   233531   250611   262322   263146 
  260248   258164   259359   271444   261658   181907   101645   111869 
  124722    72482    45270    40072    -8151   -57632   -89098  -131086 
 -168335  -186727  -198958  -208476  -206296  -188617  -162626  -136993 
 -115375  -103761  -107107  -111635  -103277   -97497  -104476  -101856 
  -81531   -61404   -47883   -38712   -31260   -18075      128    19449 
   45954    82722   122488   157688   184756   202556   212494   216676 
  214868   207069   197274   190810   187178   178962   164930   154072 
  149029   144575   139163   127329   102556    78123    68195    58124 
   29397    -8606   -36286   -56220   -83218  -113204  -131862  -139814 
 -146418  -148392  -141340  -137922  -136626  -125379  -116569  -114455 
 -110633  -115037  -129209  -129794  -102153   -72485   -61630   -32406 
   32034    85723   105493   113066   120926   126528   139249   163798 
  179926   177002   166453   152323   135488   122266   112963   108067 
  109958   115438   120741   125660   130842   132564   127863   120945 
  113510   102960    88638    72015    56506    42302    26929    10793 
   -7568   -31695   -61211   -93174  -125344  -155764  -178764  -180928 
 -156294  -128058  -123153  -132803  -138877  -146323  -154113  -150672 
 -141860  -130493  -109120   -83749   -58386   -29108     1077    30901 
   62237    88607    99115    96819    96483    99254    96649    89071 
   77981    61843    41878    18139    -6686   -26026   -43569   -66907 
  -90410  -104332  -104764   -92314   -74861   -60118   -44972   -23167 
    2138    23164    40468    56775    69838    81963    96080   106346 
  107585   100737    85564    62063    35888    13678     -278    -2363 
    8527    30165    59533    90856   115038   132343   152714   172956 
  181592   182455   182271   177001   162055   136371   104553    69773 
   26173   -23055   -67775  -107441  -139989  -162781  -180501  -195389 
 -204518  -200391  -174893  -129833   -76069   -22312    30442    78403 
  110014   123036   127332   126137   116421   101734    86887    72940 
   62835    58625    57275    51815    39093    25081    10527   -12997 
  -45559   -75390   -95574  -113661  -137041  -160573  -176035  -181724 
 -178568  -163695  -133513   -90421   -42381     5977    55634   101808 
  132800   141026   128418   103864    73275    38772     9734    -2594 
     -40     8567    22403    41974    58579    68189    77615    88609 
   93127    82958    63148    46201    29398     6647   -16221   -38568 
  -63558   -87342  -108009  -126723  -141239  -148266  -146569  -136501 
 -118739   -90607   -48014     4591    55788    98655   133554   164192 
  189920   203160   199489   181183   154128   125999    98923    71130 
   43837    17666    -7742   -31430   -54009   -76594   -97617  -115225 
 -129810  -141466  -147259  -143779  -131044  -111553   -88882   -68102 
  -51885   -37362   -21303    -5027     8252    17493    24244    30105 
   35770    43108    54216    67892    79459    87515    97800   114261 
  135265   159818   188056   219769   253739   287165   316283   334551 
  336509   323843   298965   258422   201137   137555    77923    18013 
  -47688  -115582  -182362  -242994  -289716  -325849  -360756  -384663 
 -375899  -332201  -259389  -163520   -68990    15407    91157   117045 
   97148   109505   134168   109225    81436    67652    39722    23566 
   18635     8175     -407    -8672    -7118    10328    30734    50059 
   71840    96371   119666   133266   131499   117189    90431    48555 
    1837   -40652   -83624  -125972  -160540  -185946  -200560  -201798 
 -189276  -162608  -123151   -76454   -26206    29439    87858   143587 
  192986   223940   230887   226592   214057   183762   139185    96052 
   63441    35874     6551   -20136   -37867   -47270   -51359   -52675 
  -54541   -58479   -61632   -61528   -59340   -55516   -49951   -43306 
  -31320    -9490    17787    45808    74729   102666   128297   152042 
  170552   181874   188407   190804   188407   182860   177340   171377 
  160601   145998   132081   116442    94644    67016    33070    -8496 
  -53222   -94475  -128999  -154634  -172667  -187874  -199656  -203126 
 -194838  -174205  -145736  -115464   -85919   -55989   -21551    19911 
   63977   102123   128571   140236   131626   101077    60604    23017 
  -12604   -49250   -83898  -111948  -125028  -121351  -112611  -102045 
  -85810   -71064   -64347   -67109   -77728   -87264   -93032   -99017 
 -103059  -101479   -92612   -75521   -51079   -20349    15481    55459 
   98840   138229   161879   169214   168319   163586   159776   163969 
  175923   179597   164259   146052   130284   100707    58599    18230 
  -10675   -26026   -33548   -36598   -31341   -13828    10315    34974 
   58974    76496    83378    79612    65286    44242    22072     1386 
  -18095   -35041   -46488   -52105   -51663   -43128   -25960    -1733 
   27248    57240    84480   113934   152680   186827   199628   200670 
  196241   173597   130144    77242    22281   -38645  -102041  -150654 
 -182520  -207808  -230355  -250882  -261621  -249347  -210022  -152116 
  -90732   -34003    19121    68636   117667   169582   212951   232796 
  227341   204140   170426   129550    88248    52627    21180    -2149 
  -14436   -27020   -43706   -53998   -55543   -53842   -48367   -36015 
  -19433    -5292     -307   -10700   -33758   -52717   -59478   -65963 
  -76476   -81808   -81005   -76944   -68285   -57346   -45288   -29305 
  -12726    -2459     1177     2914     6407    13907    23491    29571 
   36494    49689    61489    74189    92472   106131   116279   122380 
  111869    88531    62171    34920     6002   -25224   -54008   -76207 
  -91802  -100777  -102772   -95951   -77845   -49879   -17045    18362 
   57469    98100   132914   156151   168447   172045   165493   148690 
  128949   115144   109062   106893   104264    98820    92568    87199 
   78124    63209    46422    28606    10570    -5328   -21355   -37725 
  -48915   -50994   -44582   -31727   -13603     7017    26901    46224 
   63455    70001    59709    40342    20403    -2342   -23430   -37917 
  -56236   -77811   -90355   -95283   -95759   -88938   -74353   -52802 
  -24505    13373    62573   117738   168777   204219   217574   208664 
  181430   147044   112410    71386    24661   -17444   -54665   -91632 
 -128679  -165613  -199018  -224737  -241887  -246217  -231838  -198688 
 -149350   -89920   -35179     2763    28659    57708    92292   112657 
  107964    94223    80712    61522    39891    22326     7145    -8943 
  -24769   -34587   -32607   -18040     4796    32933    65992   101966 
  135345   156536   161373   158012   152436   140633   122457   103149 
   83686    63015    39152    11615   -15317   -40574   -66843   -93453 
 -116721  -134376  -147649  -157921  -164438  -166384  -163672  -156181 
 -143479  -124036   -96584   -63263   -28877     1637    26161    47058 
   66166    82193    93614    98653    96439    89445    81552    74669 
   67617    58723    48389    38661    30906    23622    15908    10245 
    7913     7472     7743     8262     8135     6903     5967     6906 
   10355    16268    24417    35101    45879    52506    53742    48286 
   36957    27147    22547    20031    20931    29733    43819    57098 
   68856    80705    90817    93895    83706    60119    33268    12563 
   -5551   -28340   -52721   -72789   -88400   -99823  -107878  -114192 
 -114980  -105173   -84450   -54256   -17099    22243    59256    90936 
  115685   134742   149454   157752   158024   150407   135059   114581 
   90720    62083    31182     3593   -19842   -42372   -64677   -83909 
  -99246  -111180  -115585  -106228   -82229   -51063   -23087     1460 
   30172    59859    79893    86988    80129    57470    24792    -7115 
  -35332   -63707   -90247  -108884  -116586  -113208  -102640   -88935 
  -71015   -48442   -25313    -2728    23430    54841    84422    95170 
   81822    67644    62926    49696    30075    13478   -10146   -36374 
  -53703   -64049   -65592   -56423   -40095   -19363     5680    40502 
   86644   133277   168521   189677   200485   203373   195376   176175 
  152437   127989   103569    80590    56903    31496     8189   -12039 
  -31260   -46823   -53272   -49588   -39669   -31779   -31851   -34059 
  -29400   -17907    -7738    -4819    -3322     4908    18397    32030 
   44432    55000    62058    66758    71143    75648    79852    82432 
   84102    86165    86547    81618    71074    57592    42093    25030 
    6575   -12991   -29714   -41276   -49744   -55850   -57742   -52898 
  -41291   -28094   -16148      391    23286    42745    51478    51695 
   46820    36054    19110      357   -15955   -28521   -38600   -48047 
  -54280   -53792   -47142   -36046   -22663    -8870     5331    19097 
   30052    36427    37382    33529    27317    18615     4050   -13728 
  -27491   -35924   -39545   -35388   -21388     1485    29226    58147 
   87192   113433   134013   151810   168436   178951   182875   184350 
