Origin Time       2024/01/01 16:10:00
Lat.              37.495
Long.             137.270
Depth. (km)       16
Mag.              7.6
Station Code      NIGH18
Station Lat.      36.9425
Station Long.     138.2594
Station Height(m) 240
Record Time       2024/01/01 16:08:45
Sampling Freq(Hz) 100Hz
Duration Time(s)  300
Dir.              4
Scale Factor      7845(gal)/8223790
Max. Acc. (gal)   336.037
Last Correction   2024/01/01 16:08:46
Memo.             
[...]
  -28501   -39777   -50333   -58768   -63544   -64681   -63888   -62787 
  -61138   -56770   -47933   -35915   -24394   -15565    -8403    -1938 
    2431     3283      734    -4544   -11187   -17417   -22599   -26524 
  -28291   -27442   -24244   -18823   -11497    -3276     4386    10120 
   12757    11263     5636    -2698   -12217   -21801   -29613   -32981 
  -30059   -21826   -12355    -5791    -3242    -3497    -5367    -8195 
  -11500   -14874   -17911   -20852   -24786   -30338   -37119   -44490 
  -51676   -57377   -60077   -58822   -53740   -46221   -38534   -32476 
  -28603   -26925   -26681   -25741   -22050   -15060    -5634     4577 
   13869    20800    24440    24578    21026    13274     1915   -10358 
  -20501   -27193   -30530   -31004   -29515   -27153   -24698   -22727 
  -21409   -20216   -18804   -17905   -18542   -20673   -23242   -25018 
  -25435   -24715   -22654   -18608   -13043    -7481    -2956      459 
    2273      954    -4463   -13306   -23683   -33228   -40072   -43430 
  -43221   -40074   -36143   -34269   -35314   -37891   -40586   -42215 
  -41276   -37084   -30249   -21770   -12268    -2605     5155     9215 
    9073     4534    -3489   -12642   -20884   -27554   -33154   -37783 
  -40950   -42969   -44483   -45549   -45125   -40996   -31901   -19111 
   -5471     5784    12128    12864     9335     3915    -1356    -5150 
   -7381   -10112   -16254   -26998   -40509   -52763   -59962   -60446 
  -55089   -46741   -38435   -31093   -24563   -20823   -21551   -23580 
  -22137   -15807    -6185     3466    10282    13795    13991    10858 
    6736     4465     4815     7488    11839    16808    21087    23303 
   22372    17614     8673    -4108   -18751   -32906   -45866   -56556 
  -62063   -60701   -53661   -43565   -33548   -25546   -18855   -12552 
   -7261    -3460    -1498    -3375   -11232   -24354   -39210   -51614 
  -58622   -59259   -53794   -43708   -33054   -26906   -26318   -28065 
  -30036   -32379   -35498   -40099   -46140   -52103   -56590   -58804 
  -57929   -53495   -46610   -40162   -37222   -39483   -45932   -52429 
  -53739   -46368   -30169    -7452    18455    42591    60058    69669 
   72666    70231    64048    55304    43756    29727    14411     -970 
  -15716   -30302   -43545   -51236   -50760   -43368   -31541   -17074 
   -1738    12177    22813    28433    27256    19392     6809    -7194 
  -17817   -21578   -18690   -12225    -6389    -3777    -5074   -11792 
  -24939   -42743   -61692   -77437   -87413   -92697   -94640   -92634 
  -85561   -72692   -54413   -33323   -12583     5648    19098    26674 
   30357    33177    36950    42259    48305    51984    49229    38020 
   19160    -4291   -29192   -54962   -78918   -92322   -91280   -84262 
  -80666   -82597   -88362   -91849   -85980   -73390   -60818   -48759 
  -36022   -21625    -4378    13023    28489    43236    54225    56404 
   51644    45735    41292    35456    21747    -2745   -33826   -65705 
  -93895  -112702  -118208  -113224  -102357   -87282   -71429   -59019 
  -49046   -38075   -24044    -6543    12129    28733    41669    50720 
   55399    54396    48412    41783    39017    41720    48705    56790 
   62897    65726    64339    57325    43652    23796      603   -22612 
  -43236   -58168   -66125   -69326   -71178   -74560   -80057   -85602 
  -88588   -86771   -79085   -66484   -50896   -34805   -21424   -13255 
  -11302   -15970   -26546   -40149   -53327   -63833   -70424   -72497 
  -69765   -63070   -55606   -50103   -46793   -45295   -44172   -41424 
  -38026   -36285   -35395   -32363   -25786   -16286    -4361     9117 
   20873    27693    30032    29983    28503    26337    24329    22173 
   18505    12494     5170    -1806    -8490   -16470   -27009   -38497 
  -47182   -52521   -56697   -59946   -61813   -61734   -57564   -49948 
  -42817   -37698   -35256   -35962   -36162   -31750   -22185    -9027 
    5238    18199    27465    30481    27353    22049    18268    16148 
   13694     7661    -5194   -24088   -46367   -71880   -98239  -119103 
 -129277  -126476  -113015   -94803   -76152   -58923   -43247   -27576 
  -10724     7114    24310    37752    44517    44030    38549    31423 
   25713    24194    27812    34053    39640    42888    40667    30088 
   12555   -11222   -40849   -70734   -94887  -109741  -113331  -109841 
 -105389   -98680   -85226   -65931   -47379   -33936   -21236    -6492 
    2895     4743     8055    15468    22657    28370    29093    21085 
    7123    -8976   -24057   -35708   -45040   -51367   -49963   -38612 
  -19410     3537    23753    34414    34496    29516    24636    19973 
   11955     -720   -12777   -18570   -18426   -13756    -3420    12154 
   30835    51190    68585    76011    71910    58503    36983    10493 
  -16486   -41782   -64737   -86213  -105459  -118457  -126191  -132213 
 -133901  -129675  -122235  -113039  -102953   -92210   -81992   -75658 
  -71982   -64412   -50369   -34365   -19499    -3951    10434    19368 
   25146    30192    32088    31245    30377    28425    21227     8808 
   -1340    -6315   -13740   -27766   -41771   -47753   -43133   -30045 
  -15169    -3501     7213    16476    17362     7319    -9259   -26246 
  -38511   -43908   -43569   -39170   -32030   -24317   -17969   -14283 
  -15943   -23774   -34469   -45307   -53902   -58814   -62100   -64133 
  -63329   -59729   -54020   -47360   -40054   -30693   -18891    -7896 
   -2123     -715      -99     -387    -1607    -2627    -6586   -17525 
  -33770   -50479   -62349   -63281   -50874   -27764     1641    32745 
   61904    84751    98053   103167   101881    94452    81839    64725 
   42500    16075   -12312   -42550   -73086   -98408  -114462  -119938 
 -114955  -103754   -91860   -81108   -71664   -63331   -55777   -49551 
  -43795   -35900   -24248    -9305     7210    24510    43182    62903 
   81756    97951   111288   121844   128628   131197   128922   119484 
  100923    71595    30707   -18908   -73857  -130011  -175713  -198844 
 -200202  -189271  -173430  -156732  -141421  -126694  -110099   -90876 
  -70607   -51830   -35109   -18835    -3115     9636    17288    18067 
   11986     5741     7788    19356    38272    60524    78213    87550 
   88770    79840    62433    43401    26347    10667    -4380   -19619 
  -37350   -59080   -83083  -106138  -125228  -138160  -143974  -142659 
 -135676  -125404  -113204   -99133   -85098   -74580   -66602   -57775 
  -46631   -30994   -11045     9124    26161    36055    36097    29817 
   22867    19341    21139    26838    34601    45158    60255    78520 
   94270   103123   105798   104638   100792    94587    86320    77434 
   67397    50699    24468    -7669   -43038   -81326  -120583  -154611 
 -175861  -183990  -183169  -176058  -167260  -161446  -158377  -155225 
 -149245  -139294  -126050  -108824   -87647   -65797   -46616   -32512 
  -21536    -8873     4792    19144    37269    54369    63382    66745 
   67132    62221    52812    42657    36306    37273    42746    48095 
   51584    51748    48034    40157    26349     4849   -22894   -48717 
  -64839   -73543   -78734   -77693   -70272   -61933   -56403   -55112 
  -56986   -56079   -47204   -31016   -11090     6971    18728    26824 
   34230    37840    33986    22351     6573    -8660   -22589   -35662 
  -45300   -47960   -43536   -36058   -28494   -20939   -12201     -490 
   11065    16659    17351    15650     9683      351    -8302   -15408 
  -22808   -30585   -36324   -38592   -37678   -34128   -30060   -28622 
  -31055   -36567   -44493   -54816   -66298   -77206   -86363   -90645 
  -89289   -86977   -84397   -78489   -69114   -56490   -42541   -28039 
   -7191    21991    52516    77280    92988    98755    96174    89174 
   81661    73981    63196    49009    33891    17587     -788   -20390 
  -40316   -58908   -74591   -87021   -96426  -103809  -110805  -118584 
 -126657  -134631  -142441  -146269  -142913  -134315  -119453   -95698 
  -67589   -39545   -11295    14962    36787    55463    71101    81646 
   85988    83396    73269    57319    39484    24807    18061    18308 
   20625    25084    29621    24698    10728    -2164   -14862   -33077 
  -53137   -71702   -89178  -101382  -105382  -104305   -99787   -91382 
  -81668   -73911   -66671   -55791   -42068   -31074   -25173   -22677 
  -22268   -22920   -23352   -22990   -21355   -17678   -10579     2763 
   22788    42377    54209    59314    58158    47132    29258    10038 
  -11037   -33292   -51875   -63864   -71385   -77187   -77951   -71730 
  -63373   -55048   -47097   -40443   -32630   -24633   -22041   -26384 
  -36470   -52470   -72149   -90412  -104872  -114520  -116853  -111396 
  -98375   -76442   -47815   -17571    10320    30956    42844    51420 
   60421    69398    79550    91970   101846   103484   100103    97794 
   94428    85758    72928    58765    46853    38211    25624     4904 
  -17234   -35919   -51424   -61909   -67315   -71509   -76277   -82255 
  -91455  -102443  -110462  -114255  -116757  -121082  -127912  -134742 
 -139762  -145203  -151744  -154491  -148599  -132985  -109173   -80983 
  -53609   -31039   -13343     1418    13814    24634    35216    46548 
   60674    77766    92858   101262   102315    95705    81367    61908 
   44074    36734    41493    51619    60939    66140    66869    64552 
   57653    44139    26091     6525   -12945   -30781   -47358   -65080 
  -84172  -102305  -116348  -122956  -120453  -108699   -88155   -61526 
  -33404    -7137    17080    39895    59062    71105    74255    69164 
   60750    53620    44702    29290     8611   -14285   -37399   -59154 
  -78583   -92601   -97591   -95057   -88605   -79331   -68594   -59595 
  -53974   -49723   -44706   -40004   -37964   -40398   -48343   -61038 
  -76142   -90899  -102343  -108112  -107423  -101255   -92739   -84046 
  -73538   -60632   -47407   -33346   -16351     3715    26289    50053 
   72133    89692   101194   106741   106974   101328    89856    75388 
   61118    48277    36467    24381    12280     3403      120      189 
   -2205   -11642   -27668   -48115   -71860   -94053  -106494  -105929 
  -95307   -77411   -55071   -35025   -20726    -7557     4657     9721 
    9501     8533     4278    -4093   -16348   -34403   -54704   -71882 
  -84473   -91465   -92244   -86684   -74779   -58915   -41003   -21490 
   -3950     8383    16830    22485    24119    20225    10242    -4584 
  -22022   -40556   -60860   -82752  -101464  -112476  -114135  -105867 
  -90197   -69408   -44058   -19452     -656    13992    26277    36948 
   48340    59517    66629    68405    65596    58712    48775    37264 
   25064    14391     8997     9363    12021    12552     6224   -10150 
  -36691   -70946  -107558  -139085  -158236  -159848  -143421  -115442 
  -86703   -63030   -41943   -20844    -1841    13414    28972    45987 
   53300    42735    20653    -4538   -28989   -49983   -65257   -72719 
  -70737   -64133   -63599   -69198   -65739   -43826   -14867     5977 
   17869    23500    25342    32088    44116    50410    48602    47623 
   54112    65971    76701    83131    86859    89506    87876    78327 
   65703    54225    39177    21830     8341    -4757   -21217   -38323 
  -52354   -58749   -56886   -51414   -43860   -33496   -25177   -28109 
  -43818   -59485   -65848   -69507   -71228   -65632   -62613   -67564 
  -72351   -76671   -79814   -79817   -83274   -90220   -94990   -99222 
 -106141  -113024  -115264  -112079  -104257   -92662   -79797   -68351 
  -61658   -63937   -75590   -90919  -104373  -115299  -122899  -123934 
 -117709  -106207   -90069   -68998   -43748   -15515    14179    43028 
   68449    88618   103624   113956   118893   118713   115809   111861 
  106242    97251    82705    61777    36876    10797   -14827   -36871 
  -52014   -61211   -67991   -73164   -75501   -75319   -73422   -69392 
  -63850   -58584   -51888   -39118   -21405    -5887     5391    16156 
   27777    39333    48443    50128    42560    28667    10380   -10775 
  -32595   -54522   -74881   -90127   -98940  -102212   -99819   -89625 
  -70731   -47015   -23488    -1323    20309    42090    63655    82456 
   96130   103428   103655    98621    90717    80473    68297    54850 
   43117    37717    36873    33119    22258     4858   -17008   -41575 
  -67462   -91490  -110015  -121545  -123211  -110740   -83960   -47393 
   -8680    24706    51381    74591    95727   113895   127730   133309 
  124393    97660    54367    -1711   -64301  -127435  -183378  -217344 
 -224814  -219854  -209641  -195008  -185052  -180415  -175890  -175508 
 -179930  -186806  -198367  -211815  -221913  -227819  -228545  -221655 
 -203548  -171300  -126902   -76111   -26002    18364    60239   107817 
  161424   210933   247043   268033   275278   273022   270711   272812 
  273221   268516   257829   230816   197370   192051   188968   140818 
  101216    93757    55395    18056    13582   -18495   -68114   -99222 
 -128806  -159062  -184982  -203786  -215019  -229491  -242308  -245971 
 -243788  -239045  -244560  -263108  -274063  -273311  -275301  -271958 
 -240729  -183892  -128626   -91241   -60651   -26169     4888    30451 
   58163    84670   103198   114318   117844   116561   116473   119523 
  127931   145200   171925   203845   234420   261388   284932   300271 
  297826   269539   218708   166066   130873   111555    99503    86201 
   60393    26978    -2593   -37971   -78260  -102814  -120070  -148576 
 -182596  -220564  -268192  -316743  -350441  -367351  -372864  -356917 
 -318027  -284866  -275919  -269337  -235070  -191922  -180746  -177769 
 -137532   -84869   -60224   -50677   -34681   -18979    -4315    29030 
   78754   117013   142481   168758   184981   183541   171462   147297 
  109050    62683    16193   -25475   -60381   -83130   -91022   -87427 
  -74734   -56625   -35012    -8738    18654    42815    60874    68962 
   65758    54152    41253    33594    30109    24309    11693    -7241 
  -29698   -50062   -63309   -73688   -86059   -99906  -116455  -129926 
 -131780  -130488  -136742  -147232  -157628  -164559  -157481  -128004 
  -81058   -29052    17566    55383    90402   126674   156955   174820 
  181148   176521   160532   134032    97816    54608     9900   -32441 
  -68528   -91008   -96192   -87748   -70681   -46997   -16339    16968 
   44809    65411    78904    84581    87008    87484    81333    69215 
   55699    43524    33199    23225    16480    18353    27145    38526 
   49391    55125    52010    39052    19981       63   -22007   -48627 
  -76862  -104774  -132476  -158314  -179301  -189758  -187213  -177772 
 -166816  -159875  -162777  -171913  -181348  -187405  -186710  -179703 
 -166733  -147306  -123897   -99585   -77549   -61986   -54075   -50095 
  -45354   -36400   -22337    -6845     7418    23545    41027    52988 
   60481    72684    88959   101613   113761   128725   136242   131488 
  120081   101262    75288    49118    24551     2542   -12811   -20763 
  -21737   -16113    -5691     5675    11570     7163    -9894   -39216 
  -74833  -109772  -141030  -165658  -179039  -178443  -162267  -131847 
  -95231   -60035   -28695    -3561    15965    37046    61539    80202 
   83933    73858    63900    68821    86603   104944   119686   132676 
  140910   141203   137974   134569   125487   106679    79456    44867 
    7051   -28185   -59583   -87211  -108880  -120712  -118964  -105822 
  -89642   -77078   -72067   -78127   -96246  -121941  -147268  -168787 
 -188154  -205781  -219491  -226891  -227917  -223612  -213491  -196493 
 -172006  -140401  -103215   -61130   -13392    38034    85692   121663 
  142840   151247   152505   150925   145936   134829   115146    84708 
   44982     3815   -30896   -56911   -73913   -81691   -80418   -68301 
  -45844   -18399     9408    33799    52016    65989    78448    90251 
  103422   118935   133475   141389   137204   119496    94240    67323 
   37623     5107   -26785   -56947   -84026  -106496  -126658  -149273 
 -173179  -187285  -184958  -168183  -141031  -116168  -103929  -102674 
 -107339  -104006   -88030   -79196   -86182   -98095  -104032   -97879 
  -84586   -69580   -49738   -27085    -7998     8590    29793    56157 
   79813    97815   113094   127001   137249   138364   129251   114836 
   97262    76943    57284    40670    26703    13745    -1787   -22275 
  -44766   -64960   -83056  -101285  -120401  -139338  -154049  -163007 
 -168154  -167274  -159749  -148803  -132721  -109802   -83884   -59698 
  -39353   -20318     1968    30341    63764    95176   119277   138098 
  152848   160859   159636   148842   131145   109830    85666    58710 
   32152     9614   -10798   -31253   -48324   -61084   -73795   -87189 
  -99364  -112008  -125995  -136671  -139050  -132916  -121474  -106790 
  -86589   -58676   -27853    -1772    17119    32494    50440    69547 
   78837    75423    66783    54870    41326    30488    18247     -187 
  -22657   -45594   -65713   -82054   -95692  -106358  -113763  -118137 
 -119643  -120530  -124495  -131796  -139220  -147321  -159418  -173168 
 -184797  -192607  -193099  -190536  -196076  -206150  -206343  -192825 
 -169055  -137924  -104166   -70340   -37975    -8896    20471    52780 
   86049   118917   149364   174964   194547   206806   210994   207316 
  195902   177543   153758   125725    97594    74518    58471    53007 
   56906    63267    70873    75732    72898    64288    50018    31683 
    9724   -20833   -58873   -97297  -129682  -146708  -136857  -105232 
  -72173   -43569   -14246    10638    24734    29637    25474    10963 
  -11011   -36198   -61416   -84477  -101596  -108631  -107832  -102718 
  -90686   -71979   -52582   -33033   -12181      745    -1521    -6141 
    1883    14318    16135     6648    -9899   -31723   -55999   -78923 
  -98590  -115103  -127747  -136767  -142017  -139290  -123838   -95183 
  -59827   -24244    10669    42653    70784    98594   126231   150940 
  165343   156266   120259    64690     3009   -38978   -49553   -48643 
  -52026   -53840   -46823   -35850   -26631   -13621     6081    24999 
   37346    43676    45701    42040    30665    14976     3739      723 
    -861    -6960   -14553   -18814   -19808   -20918   -24526   -31472 
  -42712   -57208   -71640   -83654   -92634   -99110  -101790  -101216 
 -106150  -113676  -105813   -87208   -74437   -65442   -59463   -60903 
  -67756   -75269   -79078   -79959   -77469   -69792   -59065   -44942 
  -26624    -5795    14809    31830    43317    47460    42898    31214 
   16672     3451    -6832   -13567   -18247   -26086   -36868   -41177 
  -36574   -38943   -62212   -92458  -105657  -102655  -101717  -110281 
 -120874  -124754  -118191  -100318   -74317   -44369   -12744    17560 
   47368    80226   113938   143966   168913   188283   202026   212387 
  221113   227499   231333   231759   224731   204680   168400   122967 
   80995    43896     5825   -35031   -77295  -116313  -146943  -163651 
 -157407  -125944   -80396   -38232   -13753   -11165   -26053   -47930 
  -65449   -77287   -90228  -108020  -127511  -143000  -151762  -156325 
 -160679  -163854  -163911  -160485  -149116  -125307   -90169   -49404 
  -10813    19136    35280    36976    32524    25971     7911   -20957 
  -41879   -50340   -61368   -79043   -90576   -90501   -85367   -77188 
