Origin Time       2024/01/01 16:10:00
Lat.              37.495
Long.             137.270
Depth. (km)       16
Mag.              7.6
Station Code      NIGH18
Station Lat.      36.9425
Station Long.     138.2594
Station Height(m) 130
Record Time       2024/01/01 16:08:45
Sampling Freq(Hz) 100Hz
Duration Time(s)  300
Dir.              2
Scale Factor      3923(gal)/8224838
Max. Acc. (gal)   46.333
Last Correction   2024/01/01 16:08:46
Memo.             
[...]
  -16946   -18893   -19548   -18021   -14747   -10241    -6215    -5791 
   -8935   -12224   -14418   -17051   -19693   -19807   -17643   -16402 
  -17173   -18315   -18854   -18686   -18166   -18905   -21265   -23307 
  -24397   -25361   -25508   -23330   -19394   -15697   -12406    -8710 
   -5657    -3507     -461     2151      596    -4328    -8233   -10025 
  -11429   -11232    -7267     -955     5520    11311    16181    20227 
   22333    21844    20229    17570    12167     4498    -2180    -5313 
   -5350    -3901    -1027     4228    10829    16599    21984    27238 
   29197    26310    20719    14598     9405     5279      962    -3358 
   -6932   -10241   -13143   -15283   -17000   -17622   -16312   -13792 
  -11705   -11696   -13713   -15140   -13983   -11412    -9352    -8406 
   -8814    -9234    -6650    -1107     3927     6266     6377     5655 
    4806     4554     6863    12000    16903    18978    17639    13446 
    8891     6889     8622    14021    21649    28684    32448    31607 
   26589    19869    15192    15009    18592    22788    24212    21448 
   15556     8734     3095     -789    -4556    -9359   -13890   -17181 
  -20328   -23098   -22941   -19656   -16114   -13270   -10158    -6978 
   -3376     -237    -2008    -9358   -17582   -23984   -29224   -34603 
  -39361   -40234   -34709   -22797    -7512     5352    11578    13374 
   16170    20754    24339    26670    28332    27695    23450    16723 
    9764     2876    -5017   -12240   -15826   -15796   -13783   -10935 
   -9151   -10578   -14746   -17992   -16857   -12031    -7959    -8617 
  -13848   -19812   -23384   -24723   -24764   -22898   -19978   -19417 
  -21527   -23629   -26045   -29497   -30923   -28634   -25972   -25728 
  -26102   -26397   -30036   -37031   -42552   -44101   -41227   -33632 
  -24163   -15628    -7457     -661     2627     5744    12136    16907 
   15531    10972     5383    -1939    -9649   -15295   -17064   -14362 
   -8263    -1038     4526     7692    10131    11823    11043     8083 
    4534     1113    -2254    -5266    -5921    -2894     1806     5121 
    4989      272    -8363   -17428   -22091   -20541   -16155   -13741 
  -14855   -17782   -20991   -24821   -29436   -33465   -35575   -35617 
  -34867   -35834   -39187   -41459   -39059   -32162   -23230   -15647 
  -12645   -15091   -21143   -27576   -32310   -35305   -36081   -34141 
  -31120   -28109   -24066   -19288   -16051   -16055   -18655   -20125 
  -17235   -11103    -4662      310     3206     5271     8121    10207 
    8595     3971     -236    -2257    -1452     3871    13500    22627 
   26260    24497    21204    19742    20509    21348    20561    18526 
   16411    14860    13138     9428     2747    -6073   -14839   -21497 
  -26265   -30704   -34801   -38979   -45781   -53835   -57634   -55726 
  -49690   -39559   -26423   -11588     4715    18117    22281    17936 
   12401     9995     8110     5439     4738     3834    -1359    -6112 
   -3011     7331    19614    31436    41087    44070    40117    34981 
   31129    26763    22728    22330    25690    29527    32305    35055 
   37369    36672    31850    25208    18964    12440     5217    -1768 
   -8283   -13166   -14690   -13512   -10945    -7342    -3889    -2956 
   -5680   -10050   -12726   -12013    -8606    -5945    -8095   -14281 
  -19565   -21546   -20800   -17028   -10169    -1753     7641    19190 
   33129    46342    54708    57997    59090    59036    56655    51629 
   44350    35085    26137    20721    18499    16181    12251     8626 
    6910     6292     7338    11785    17348    19356    16582    10633 
    2068    -8444   -18291   -26158   -33554   -41254   -47618   -51750 
  -55048   -58657   -62264   -63903   -61646   -56910   -51683   -45334 
  -37224   -28597   -21232   -14709    -6878     2485    12218    22304 
   32136    39299    42890    44624    45295    43418    38290    32328 
   27683    22223    13578     3786    -3753    -7184    -6174    -2975 
    -638     -145    -2112    -6575   -10424   -11608   -12609   -14912 
  -16572   -17139   -18234   -19575   -19276   -16729   -12305    -6899 
   -3335    -4045    -7373   -11310   -17413   -25976   -33253   -35874 
  -33172   -26476   -17714    -6709     7720    22623    31394    30055 
   19541     3956   -11263   -22674   -29479   -30898   -27630   -22682 
  -17524   -12968   -11875   -14777   -18328   -21675   -27568   -37080 
  -48109   -56917   -59863   -56033   -47601   -37638   -28659   -22430 
  -20245   -22384   -26794   -30072   -30416   -28356   -25331   -23093 
  -22455   -21745   -19577   -17675   -17698   -18507   -18542   -17631 
  -14864    -8588     -449     6187    10935    14122    15199    15755 
   18416    23584    29582    33895    35117    34357    32674    29201 
   23865    19199    16927    15007    12360    12382    16143    19904 
   22832    26453    28282    25976    21822    18424    16787    17967 
   22341    29006    35770    40543    43783    46226    45968    40852 
   30865    17691     3747    -9085   -19552   -26682   -31379   -34773 
  -34788   -31124   -28933   -30140   -31050   -30820   -30427   -27660 
  -21579   -15277   -11622   -10673   -10346    -7811    -2326     3460 
    6875     7161     4372      410    -1528     -797      180     -919 
   -4360    -9418   -15934   -23338   -29554   -32548   -32161   -29937 
  -27649   -25570   -22746   -19483   -17325   -16563   -16200   -15745 
  -15620   -16714   -19811   -24167   -28293   -32647   -37014   -37751 
  -32638   -23544   -13321    -4340     2262     6917     9121     7662 
    4104      407    -4742   -11762   -17756   -20656   -20468   -17544 
  -13109    -9298    -6579    -3272     2393    10897    19692    24919 
   27037    29971    35471    42138    48045    52254    54032    52735 
   49168    44637    39757    35945    35064    36356    37417    38615 
   41818    45478    46103    42576    35900    28159    22041    18103 
   13477     4187   -11730   -31491   -47930   -54949   -51723   -41465 
  -29076   -18495   -10106    -3514     -334     -573    -1154     -172 
     238    -3705   -12564   -23226   -32802   -39819   -43183   -42580 
  -38689   -32510   -25806   -21550   -21643   -24864   -28694   -31695 
  -33392   -32618   -27297   -17464    -5574     6708    16695    19354 
   15072    12386    16633    23225    25201    20545    11719     1314 
  -10442   -22160   -30369   -34358   -34742   -31110   -25550   -21469 
  -21155   -25429   -31206   -35098   -36967   -35749   -30200   -22150 
  -13228    -3168     6925    14380    18528    20023    16980     7146 
   -5184   -10602    -6438      459     4159     3549     -346    -4422 
   -7146   -10535   -15199   -20625   -27897   -36504   -43829   -47748 
  -46056   -38184   -27095   -14682     -228    13957    24144    32575 
   42093    48386    47561    43060    39263    34310    24808    14354 
    8530     5563      913    -5514   -13257   -24372   -37800   -47798 
  -51505   -52110   -52423   -50599   -44510   -35924   -26820   -16787 
   -7744    -3048    -1545    -1166    -3080    -6789    -8475    -5998 
   -1185     2898     5487     7587     7743     2637    -6154   -12216 
  -12839   -11318   -10196    -8438    -6967    -8336    -9225    -5293 
     584     5760    13220    23876    33407    38433    39661    37690 
   30828    19696     9131     1737    -5173   -12586   -17641   -19591 
  -19371   -15931    -8348      895     6770     6493     2465     -963 
   -1938    -1470    -1028    -1016     -627     1641     5537     8571 
   10139    11492    11070     5779    -3495   -12036   -16476   -16826 
  -13076    -3701    10459    24617    34477    39366    38861    31791 
   23089    21014    24250    26214    27141    29678    32429    32535 
   28952    23020    16479    10613     7134     7133    10168    14831 
   18608    18786    15897    14536    17744    22378    23915    23279 
   23207    21398    15228     7886     2338    -2355    -5659    -5485 
   -1750     3500     6930     6489     3010    -1521    -4762    -5586 
   -6339    -9271   -12132   -11090    -4575     6858    20526    32805 
   41914    47622    50275    51208    51034    49333    47191    45018 
   39564    28881    16538     6797     -797    -9088   -18447   -28213 
  -38527   -46612   -49238   -48860   -48752   -49113   -51821   -58626 
  -66271   -69566   -66282   -58864   -52157   -48354   -45935   -42789 
  -37773   -32290   -30129   -31332   -32046   -31419   -30146   -27328 
  -23355   -18901   -12297    -3134     4495     6705     5235     4384 
    5649     8078    10343    10401     6512      396    -3716    -4041 
   -2289     -662     -531    -2340    -5589    -9703   -14007   -17826 
  -21678   -26423   -32782   -41430   -50091   -55660   -59306   -62469 
  -64350   -65614   -67144   -68129   -67443   -64682   -60689   -56095 
  -50157   -42326   -32790   -22686   -15087   -11967   -11219    -9478 
   -4193     5402    16033    23828    28849    32757    36020    38349 
   39429    38993    36514    32082    27822    25479    22315    14359 
    3234    -6822   -15148   -21748   -24703   -23993   -22974   -24691 
  -28282   -30828   -31364   -31000   -31564   -34067   -37457   -39901 
  -40034   -37114   -31666   -25431   -20078   -16301   -14355   -14666 
  -16946   -19417   -19610   -16336   -11777    -9737   -10825   -12229 
  -11465    -8286    -4055      271     5247    11839    20034    28178 
   33805    36004    35953    34047    28676    19724    10948     6154 
    4738     3771     2560     1952      958    -2343    -7211   -10756 
  -12591   -15412   -20476   -26638   -32632   -36464   -35201   -27602 
  -15469    -2069    10030    20042    29069    38800    49752    60821 
   69940    75359    76577    73487    64802    49601    31101    14029 
   -1136   -15006   -25161   -28848   -25134   -17061   -11016    -9863 
  -11711   -15142   -19728   -24316   -28429   -31973   -33635   -32093 
  -26770   -17273    -3447    13019    26812    32938    32356    30041 
   28973    27469    22806    15785     8869     3257    -1383    -6505 
  -11410   -13508   -13675   -14625   -15669   -14339   -10746    -7978 
   -7958    -8149    -4193     4325    13100    19947    26948    33760 
   37971    41010    45198    49989    54753    59593    63506    64120 
   59552    50974    41003    29606    15777     2261    -6625   -10579 
  -12858   -16286   -21232   -26030   -28451   -27341   -23738   -18756 
  -11279     -936    10366    21604    32474    40713    42718    36703 
   25785    16657    12379     9601     5287      226    -5015   -11206 
  -17624   -22246   -24625   -26659   -30153   -34992   -40227   -44729 
  -46665   -45405   -43228   -42275   -41611   -39598   -36521   -32541 
  -26130   -16968    -7796    -1904     -604    -2346    -3051     -629 
    1134    -2581   -11666   -22381   -31399   -37940   -42531   -45010 
  -45243   -44533   -44464   -44082   -40510   -33288   -25196   -18372 
  -11570    -2288     9502    21845    32676    39370    39854    34080 
   24093    14197     7770     3971      654    -2093    -2820    -1460 
    -302    -1445    -4699    -8980   -13211   -15958   -16492   -15171 
  -12198    -7348    -1004     4931     8675    11048    12916    12603 
    9926     7790     7843     9630    12433    14918    15876    16021 
   17189    19739    21991    22863    23132    23072    21930    20052 
   18069    15871    14755    16040    18247    20110    21956    23147 
   22844    21076    18300    15982    15468    16183    16964    17637 
   17805    16286    12592     7808     4054     2313     1919     2770 
    4337     4430     2374     -687    -4374    -8051   -10629   -13613 
  -20598   -32328   -44393   -51867   -54507   -54815   -54328   -53450 
  -51605   -48500   -44847   -40300   -35181   -32144   -31602   -31291 
  -30642   -30311   -30279   -30354   -30219   -29092   -26196   -21362 
  -15149    -8667    -3605    -1190     -884    -2843    -9485   -20653 
  -31912   -40095   -45543   -49860   -53734   -55237   -51884   -43262 
  -29806   -12479     6505    24556    38759    45555    43696    36830 
   29007    20347    10598     1632    -5274   -10012   -11472    -7734 
    1364    13239    23697    28556    26086    18677    10222     2247 
   -5356   -11809   -16665   -21402   -27305   -33866   -40826   -49277 
  -57955   -61238   -55548   -44270   -33185   -25803   -22577   -20541 
  -16232    -9790    -3616      851     3248     4004     4854     7817 
   13404    20054    25332    27562    26207    22006    17051    13848 
   14219    17221    18719    16195    10841     4207    -2704    -8865 
  -13699   -17139   -20020   -23398   -26879   -29833   -33006   -36150 
  -36751   -33498   -28516   -24678   -22465   -21915   -25181   -32695 
  -40819   -46978   -51468   -53050   -50025   -45131   -43027   -44925 
  -48948   -53320   -57434   -59502   -55517   -43791   -27315    -9051 
   10237    29049    44853    56415    64827    72050    78494    82904 
   84079    81980    77846    73865    72959    77140    84388    89156 
   87754    80843    70592    58419    45250    32248    20642    10598 
     600   -10889   -22986   -33623   -42484   -49978   -54618   -53468 
  -45439   -34307   -26250   -23745   -25200   -29662   -36849   -43989 
  -47664   -47069   -42581   -34092   -21367    -4999    12024    26049 
   36309    43590    47818    48293    44226    36861    29884    24860 
   20995    20383    26076    36020    46078    55809    66109    75951 
   84604    91338    93634    91525    87855    82075    72188    59930 
   48957    41686    37871    35175    32173    29556    27841    25525 
   20684    13612     6925     2486    -1463    -8008   -16753   -24050 
  -27772   -29373   -31272   -34106   -35812   -32837   -24000   -12617 
   -2201     8181    19820    28695    30375    26927    23523    22842 
   25339    29199    29781    23808    12251    -1856   -15793   -28568 
  -40562   -51678   -61319   -69365   -75897   -80701   -84306   -88582 
  -94346   -99312  -100225   -96148   -88807   -80678   -73498   -67693 
  -62954   -59848   -59838   -63086   -67629   -70988   -71482   -68423 
  -62066   -53632   -44969   -37440   -31261   -26122   -21682   -17108 
  -11145    -3300     5000    10818    12093     9452     5085      903 
   -1741    -2200     -503     3700    10459    18384    26453    34114 
   38700    37480    32049    27097    25701    27314    29155    29069 
   27171    24324    20656    16641    14224    15788    21344    27919 
   33205    37608    42768    50222    58329    61659    58099    51343 
   44027    35260    25324    17462    13857    12928    11913    10098 
    7776     3406    -3935   -11329   -16063   -17732   -15159    -8067 
     237     4935     2868    -5255   -15746   -25512   -33575   -39168 
  -40336   -37415   -35279   -36320   -36907   -35942   -36244   -37071 
  -36423   -33866   -28058   -21185   -18330   -19962   -23467   -26975 
  -30294   -34996   -40988   -45643   -47409   -46774   -44829   -42816 
  -42203   -44038   -47521   -50017   -49832   -47869   -45404   -42365 
  -38850   -35818   -33709   -32097   -30447   -28782   -27778   -27938 
  -29447   -32428   -36420   -40892   -46116   -52099   -57605   -60963 
  -60809   -56662   -50220   -44879   -42951   -44220   -46912   -49083 
  -49501   -47451   -42315   -34519   -25483   -16683    -9988    -6289 
   -4401    -3064    -1017     3279     9987    18137    25625    30121 
   33104    37949    43245    44432    41119    37918    37886    39997 
   45291    56463    69188    75340    73255    67177    60727    53005 
   41636    28865    18767    12073     7925     6419     8074    10775 
   10376     7963     9517    16777    26948    38288    49167    56366 
   57507    52164    41237    26924    11631    -3600   -18370   -31264 
  -39864   -43206   -43641   -43398   -41239   -36634   -32189   -27359 
  -17753    -2982    13059    26511    34403    36652    35808    33758 
   31193    28368    25458    21446    13153     -523   -16056   -29961 
  -40829   -47194   -47210   -40213   -29373   -19156    -9594      112 
    8029    14169    19067    20175    16200     9571     3726     -444 
   -4592    -8282    -8810    -6309    -4083    -4295    -6759   -11071 
  -16669   -22339   -28032   -34939   -43150   -50826   -55728   -57748 
  -58212   -57138   -54394   -50761   -45970   -38979   -30061   -20798 
  -12474    -5211     1709     9386    18370    27054    32282    33474 
   34053    37162    43602    52897    62218    68308    71022    70681 
   66075    57392    47113    37415    28494    20409    15492    16637 
   23473    32215    39672    46359    54332    62962    69588    72877 
   72817    69543    63633    56312    48876    41743    34574    27413 
   20614    13454     4055    -8225   -21528   -33336   -41986   -45852 
  -43760   -37882   -32522   -29268   -28185   -30909   -37542   -44969 
  -51121   -57009   -63224   -67614   -68296   -66468   -64561   -64112 
  -65395   -66614   -64435   -56758   -44952   -32715   -22391   -14682 
  -10438    -8380    -4584     1995     7921    10912    12008    11475 
    7616      163    -8965   -18409   -27891   -35932   -40043   -39961 
  -38295   -36084   -31868   -27294   -25092   -23280   -20337   -18202 
  -17529   -17346   -16976   -16818   -17779   -19047   -18542   -15101 
   -9111    -2249     3337     6581     8675    11823    16687    22627 
   29998    40055    51993    61970    67308    68974    66953    58745 
   44720    28148    12120      441    -4749    -5042    -2195     3318 
   10948    19346    26427    30110    29274    24609    17416     8318 
   -1258    -8499   -11472   -10928    -8230    -2425     7470    19295 
   30169    39491    46764    48811    43069    32217    20877     9153 
   -4374   -15844   -20483   -20453   -21388   -23284   -21560   -17640 
  -17042   -16476    -9319      584     6116     8001     8193     4118 
   -4260   -11626   -15298   -19449   -27801   -36956   -42230   -44880 
  -47831   -50691   -53335   -57186   -60432   -59807   -58020   -60161 
  -63649   -63883   -64997   -70316   -73562   -71521   -68678   -66283 
  -61740   -55296   -50120   -47588   -44451   -37224   -26981   -16764 
   -7777     -391     4164     5842     6534     7001     7172     8692 
   12933    17732    19163    17675    18133    21459    24833    29273 
   36756    44784    50869    56404    62374    66016    64689    59881 
   54712    49168    41563    33486    27631    23533    21496    25618 
   37154    50560    60154    64590    63350    56011    45130    34026 
   22418     8660    -5090   -14608   -18716   -18671   -14534    -5595 
    6723    19742    32093    42669    49281    50726    49063    47614 
   46327    42566    36246    28460    17015      588   -15812   -26198 
  -29813   -28777   -25586   -23125   -23006   -25024   -29050   -35980 
  -45397   -53535   -57042   -57329   -56829   -53511   -45576   -37577 
  -33008   -27706   -19815   -15198   -16518   -20096   -23658   -27299 
  -30770   -33072   -33535   -33191   -32371   -28966   -21649   -11584 
    -253    10959    19332    22940    23564    24023    23670    20146 
   14497     9636     5686     2127      758     2764     6681    10142 
   11300     8864     1944    -8711   -20599   -32907   -47131   -63158 
  -78572   -90906   -97933   -97937   -91434   -81710   -71460   -59190 
