Origin Time       2024/01/01 16:10:00
Lat.              37.495
Long.             137.270
Depth. (km)       16
Mag.              7.6
Station Code      TYMH03
Station Lat.      36.7294
Station Long.     137.2627
Station Height(m) 8
Record Time       2024/01/01 16:08:52
Sampling Freq(Hz) 100Hz
Duration Time(s)  300
Dir.              6
Scale Factor      3920(gal)/6170801
Max. Acc. (gal)   192.318
Last Correction   2024/01/01 16:08:37
Memo.             
[...]
  -62977   -49159   -19989     6171    11104    -8414   -34240   -45686 
  -36276   -12582     9664    13093    -5991   -32874   -47641   -38540 
   -8046    26330    42177    28119    -9360   -52295   -82088   -86736 
  -64625   -26154    10057    27565    21193    -1297   -25216   -38402 
  -35090   -17704     3554    20735    31175    30796    17362    -4983 
  -28169   -42307   -41356   -27351    -7442     8219    10841      105 
  -17191   -32762   -40126   -38584   -32191   -24312   -16936   -10896 
   -6541    -6044   -11250   -22266   -37353   -50370   -55453   -52341 
  -42516   -28102   -11397     7658    27011    41017    43797    31324 
    5689   -26148   -53322   -60844   -44853   -18128     4357     9847 
   -7369   -36031   -55152   -49475   -20192    16194    41902    46508 
   30253     4956   -17011   -30167   -32824   -27722   -19975   -12263 
   -7723   -10802   -23518   -43946   -64294   -71560   -57139   -24630 
   14173    43020    46749    24509    -9715   -37915   -47760   -40428 
  -26681   -18343   -22138   -31234   -29948   -10723    18702    39908 
   36178     6563   -33244   -61814   -63351   -37744    -2494    20780 
   21935     5012   -17105   -30090   -27312   -14378    -5397   -11624 
  -30105   -47520   -51559   -34146     1802    36072    47442    30579 
   -5963   -41873   -55838   -44298   -19571     -413     -645   -13268 
  -22377   -22999   -16738   -10803   -16369   -32913   -47833   -48693 
  -30459    -1515    20607    23425     7846   -12492   -21089   -11904 
    7253    21897    20119      555   -26028   -44648   -45891   -32681 
  -19569   -21637   -42025   -68058   -81514   -71927   -40967    -4007 
   19966    27114    26757    28388    36157    43759    40065    20498 
  -12182   -44985   -59969   -50382   -20099    18738    45524    47342 
   25394   -13499   -55663   -82284   -82042   -56717   -19127    11402 
   20483     8557   -11661   -25033   -23515   -10497     1884      993 
  -15430   -35180   -41423   -27916    -3106    18619    25267    12713 
  -10279   -27927   -31610   -23072   -10313    -3733    -6677   -15086 
  -25603   -34533   -39112   -40072   -38022   -33632   -28511   -24291 
  -21927   -21112   -20771   -16554    -4239    11308    22065    24687 
   15486    -6046   -29937   -43757   -42454   -32427   -25314   -21974 
  -16476    -8699     1686    13490    15201    -4059   -39474   -72420 
  -85200   -71918   -36565     8404    41021    44346    23080    -4104 
  -21517   -21702    -5402    17365    32900    32523    14164   -16518 
  -47330   -65112   -57571   -20989    30678    72709    84489    60459 
   11713   -40567   -73654   -76075   -55373   -30381   -21328   -35417 
  -54080   -53577   -27894    15570    53647    52563     1407   -72193 
 -124287  -122983   -62770    32573   115682   136907    83071    -9096 
  -89708  -126152  -111403   -70873   -41522   -39372   -52042   -51854 
  -22674    24860    66639    82726    64134    17585   -31926   -57207 
  -50901   -22980    10654    32086    31913    13674   -12942   -33293 
  -38159   -32722   -24439   -19533   -22552   -28866   -33742   -37862 
  -38268   -29354   -12633     3882    14530    15252     4913    -9840 
  -22725   -32111   -39266   -46118   -47364   -32459     3181    47830 
   72368    54169     1366   -58076   -98161   -98948   -55910     8965 
   59467    65329    25302   -28180   -64478   -72867   -52842   -22185 
  -11578   -32974   -70486   -94987   -85190   -43645    10110    48819 
   48795    15012   -22026   -36559   -23578     3895    28259    34810 
   17306   -12072   -34209   -40043   -31589   -23522   -35442   -67232 
  -93175   -90573   -53617    14367    85243   115221    89489    23958 
  -49204   -91888   -90954   -59108   -15417    14446    15647    -1425 
  -23818   -44422   -55017   -54358   -44716   -26982    -8153     7709 
   23722    36197    37295    27110    10037   -13222   -38258   -53516 
  -57419   -56616   -50484   -38855   -23238     1714    36996    69904 
   83293    68243    31444    -5981   -20711    -4366    25842    37698 
   13704   -38399   -99300  -141980  -140927   -95048   -31181    16784 
   33442    23503     2263    -1843    28139    72477   101861    96719 
   42995   -45557  -118918  -134530   -89668    -8012    71868   101826 
   57186   -37139  -128128  -173926  -161603  -100629   -16811    50650 
   75795    66690    41228     6782   -26791   -44270   -38408   -12025 
   25712    58818    68121    44751     -546   -48837   -85270   -99430 
  -91527   -69538   -38987   -11932    -2450   -10370   -29579   -46636 
  -41908   -14585    21553    48522    43268     3694   -41614   -61181 
  -45075    -7183    28443    39682    22130    -5206   -21425   -21079 
  -14796   -17870   -35660   -61516   -80573   -77540   -47873     -802 
   44835    66088    46577    -6577   -63979  -102592  -114368   -93927 
  -53297   -19301     3681    28897    59341    85073    89154    60920 
    1421   -75224  -130655  -128744   -70174    20069   101625   125644 
   73745   -23372  -115553  -164828  -155524   -99345   -28186    24980 
   40412    23671    -2193   -17888   -13638     7840    31973    38914 
   12712   -36236   -73032   -74798   -43059     6948    49419    61214 
   41909    11361   -11105   -22432   -32068   -48196   -74316  -104852 
 -116516   -86184   -20062    51749    98541    99505    53979   -15918 
  -77578  -100446   -76427   -29392     4622     -306   -41394   -81775 
  -81580   -35196    28891    69932    56291   -11529   -96148  -147795 
 -136853   -67884    28506   110747   143024   107839    20078   -75156 
 -138955  -154130  -113041   -28315    54058    85862    64128    22713 
   -9446   -15191    12269    51152    59432    18190   -51067  -105571 
 -106930   -45796    52301   134793   146552    76502   -37207  -142769 
 -193115  -165946   -85260    -2096    44252    45285    23110    11310 
   27808    62294    82517    61114    -2928   -88838  -157157  -163960 
  -97916     6005    86366    97862    44294   -40163  -110388  -118784 
  -56988    30597    87053    82201    25526   -52374  -109608  -105618 
  -45640    23166    58367    46506     7873   -29555   -49180   -38650 
   -4941    23081    26092     8608   -11804   -20710   -13158     6850 
   20234     5575   -31859   -66329   -80028   -70754   -44823   -11572 
   14307    19725     9298    -5221   -17043   -17764    -5500    11193 
   20084     7224   -27734   -66592   -90320   -88585   -59043   -10996 
   29280    41226    32265    14006    -7085   -19240   -25664   -38636 
  -53290   -65675   -76661   -72769   -46667   -13788     7165     9857 
    1675    -3394     4366    23269    38914    33851     6273   -24441 
  -38663   -31860    -8068    16392    14155   -18716   -51166   -55553 
  -32166     1925    26029    26199     4183   -25012   -43203   -45259 
  -44609   -52895   -70317   -91600   -99105   -71322   -10488    57238 
  100286    94876    43665   -21398   -64517   -67256   -40896   -17199 
  -12347   -21898   -35838   -35906   -15992     1783    -2839   -30421 
  -65932   -81670   -63200   -26501     6802    25819    27663    23200 
   26720    36014    41789    37399    16019   -14495   -34410   -40764 
  -41275   -36501   -31570   -34406   -37240   -25584     4265    42225 
   66642    60539    23880   -31670   -84206  -110920  -100644   -55860 
    2741    48039    71220    76189    60952    31374     8104    -5187 
  -26103   -64655  -111788  -144069  -141209   -96895   -17604    70077 
  127856   131096    78866   -10165  -102027  -161258  -173901  -143517 
  -79022    -3475    58980   102352   125069   119369    82016    22327 
  -44784  -102895  -131513  -113799   -50342    31753    92957   107252 
   66165   -18531  -105694  -144749  -116613   -43996    31988    70411 
   54373     9654   -22954   -17969    30248    91321   105935    47397 
  -53941  -152284  -201975  -166061   -57939    62896   134314   127413 
   70402    14500   -11498     -559    31343    52840    40118   -14195 
  -91428  -154000  -174927  -150650   -93800   -24898    31472    55860 
   49104    27420     -352   -31830   -57763   -70432   -67122   -45248 
   -9433    28548    54806    59563    45388    18999   -11092   -32150 
  -39916   -34651   -16765     2056     9472     7611     7879    18040 
   33444    41526    34242    12179   -23495   -69915  -110933  -125105 
 -107087   -66383   -11483    42780    72360    68714    43883    16742 
    -785   -11644   -17782   -18899   -24975   -36710   -39726   -33498 
  -27358   -17643    -4923    -1619    -8589   -16599   -20810   -23240 
  -24545   -19458   -13505   -16073   -18247   -13426    -7885    -1408 
    6910    11608     9670     2694    -5790   -19566   -47073   -84366 
 -117293  -130523  -110466   -59595      940    51665    78419    69045 
   31386    -9323   -37663   -50604   -49987   -42207   -35299   -38072 
  -48935   -49857   -27046    15859    62608    90167    77868    20310 
  -59211  -118632  -132142  -100281   -39946    19592    48617    32326 
  -13140   -48024   -52845   -37017   -12038     4067    -8189   -39073 
  -60924   -57009   -22805    29204    65106    57319    11465   -47252 
  -92550  -102088   -72176   -20738    22514    31096    10935    -8715 
  -13161    -1563    20133    33923    24440    -7560   -47358   -75856 
  -87004   -84523   -68116   -44546   -25205    -9933     4292    13476 
    7049   -17917   -42571   -51650   -49934   -40523   -25563   -15517 
  -12481    -9148       -4    21540    51705    67819    51516     4694 
  -53372   -93987   -95005   -54255     3177    35791    21618   -22929 
  -60112   -58754   -13280    56437   113806   121906    71465   -12706 
  -88879  -123269  -112828   -69794    -4277    60169    96477    96638 
   65420    12553   -48343   -96866  -107207   -70349    -7287    47424 
   63232    28333   -34879   -83293   -83067   -27788    50352   100935 
   96278    41916   -28737   -71986   -70210   -39765    -7641     1791 
  -21034   -50636   -52223   -29553    -6115     6675     1612   -18706 
  -37555   -45339   -46147   -44824   -40376   -29825   -13390     6621 
   26180    36888    31592    10791   -14267   -26590   -21434    -8069 
   -1248   -19415   -64777  -112412  -137269  -129604   -90330   -36719 
    4608    17093     2162   -17373   -14108    11101    30506    22723 
  -13191   -62182   -92535   -74954   -11060    66491   109729    83613 
   -4894  -108227  -166440  -147073   -62203    50082   141158   166376 
  116641    29359   -47566   -91622  -100021   -79529   -52653   -44380 
  -58731   -77655   -77652   -52633   -17277     9911    12887   -14840 
  -59591   -95073  -102481   -78405   -28157    28552    66069    76970 
   62416    28290    -9061   -40884   -62594   -65500   -48067   -12780 
   30640    59438    59968    38468     9112   -11558   -17301   -19935 
  -32556   -58796   -89605  -106944   -99145   -61442     1484    62602 
   89082    74372    34762   -15533   -61010   -81848   -74724   -48158 
   -9591    26779    45385    40647    17649    -8289   -21914   -21492 
  -15296   -11813   -14825   -23236   -34548   -39749   -29371   -14398 
   -9227    -5146     6869    17533    17379     2642   -28723   -68339 
  -98678  -105005   -83223   -41174     7105    44337    56073    40291 
    5926   -32170   -61303   -76214   -72127   -47301   -11305    23541 
   51522    67932    66842    51017    34996    31336    34259    27941 
    5660   -34931   -88396  -128069  -130488   -95329   -32966    31840 
   63866    50498     5530   -46871   -75745   -64037   -21271    30138 
   61475    58178    35957    15094     4448     7260    15724    13360 
   -3037   -18114   -19132    -9333    -4500   -17846   -45611   -70936 
  -69770   -27105    38099    88700   102249    77149    29912   -16218 
  -49225   -66611   -71831   -75804   -76870   -61960   -36847   -14562 
    4083    15540    14342     3981   -11154   -29630   -44651   -44464 
  -23912    10636    42883    54139    39007     8997   -20641   -44535 
  -67523   -89952  -102836  -100044   -79058   -35835    23617    78072 
  108387   110280    86041    40225   -11329   -52277   -80613   -97651 
 -101350   -87437   -51441    -3228    37016    57989    52720    13264 
  -51384  -108234  -129131  -111183   -58367    19860    88050   108511 
   77405    19092   -31281   -50230   -40605   -14223     8555    -1597 
  -45871   -96448  -125987  -113301   -54024    30227    98641   110613 
   55103   -43577  -136696  -174096  -143232   -68071    21632    97359 
  136198   133446   101872    50269   -23034  -100318  -152813  -176074 
 -173501  -147006  -106419   -52040    16906    85546   143815   184848 
  188885   142419    49945   -66682  -163020  -196993  -152583   -42487 
   83777   165133   166987    92419   -15071  -105302  -155739  -157348 
 -114775   -54552    -2305    27489    27742     9454      267    12928 
   34561    52386    51928    15907   -41186   -80332   -76357   -31950 
   29749    83972   100815    56796   -24061   -91138  -117762  -104172 
  -63201   -18905      908    -4835   -10345    -1273    21808    47272 
   45007    -2240   -75374  -132526  -137817   -94823   -29633    33846 
   58933    30411   -10183   -18582     7236    43803    65940    62695 
   37615    -1524   -43741   -80759  -108974  -122611  -117021   -86957 
  -30714    33256    77394    88332    70720    39089     7329   -12282 
  -14832    -9855    -5985    -4540    -6924   -10777   -11122   -13084 
  -30699   -61610   -83249   -80247   -44317    31496   126623   191282 
  180458    78593   -83034  -234512  -317203  -308395  -209235   -50762 
  100900   176253   150608    63188   -15243   -37905   -11854    21145 
   25408    -4659   -46374   -70524   -61002   -22999    17021    30515 
   10402   -23979   -43363   -30992    12722    71918   111105    86236 
  -13160  -140630  -237819  -275008  -239502  -134725      618   109960 
  163689   156997    89017   -10687   -87415  -113910   -90565   -28291 
   38561    66066    42858     1172   -25061   -31912   -26725   -23758 
  -48895  -102275  -149434  -168786  -158244  -108500   -29656    33468 
   60653    70898    68330    50079    34210    27116    21424    16205 
    3479   -18590   -39148   -52997   -48163   -18379    18745    47573 
   57040    40244     7210   -31636   -71008   -98682   -99716   -72801 
  -33866     8569    53002    77035    66435    42230    14458   -20037 
  -46071   -60105   -66861   -52778   -16446    25664    58628    70052 
   61942    45978    24711      795   -17891   -31679   -44193   -50595 
  -52653   -67605  -101584  -139014  -167535  -183919  -177679  -138427 
  -68844    21131   111008   170687   178910   134876    61528   -10012 
  -57931   -67659   -42965    -9887     5851    -8333   -45921   -85005 
 -103807   -84706   -27058    36748    68701    55199      559   -70825 
 -128050  -164947  -176862  -147746   -83381    -3563    78767   146056 
  176977   159344    97038    14442   -56056   -90599   -79642   -38353 
   -3616    -5949   -46715   -96636  -113654   -69906    24275   119187 
  163829   138656    56874   -38480  -101464  -118819   -99905   -59467 
  -20213     3432    18213    26622    20867     7344    -8782   -31155 
  -45510   -42177   -29927    -5408    27469    39794    19876   -15826 
  -48366   -62281   -49006   -14236    18724    28079    20343    10932 
    4452     5913    13310    11252    -8689   -41330   -76414   -96493 
  -84252   -38097    16483    36188     6625   -51393  -115102  -154827 
 -141680   -71618    33065   126030   172291   167858   107052     2626 
  -94920  -150175  -155267  -111242   -35114    42417    85295    75746 
   36230     2735    -8773      868    22574    33964    16467   -20895 
  -60173   -92250  -105515   -91003   -55356   -14460    13056    13619 
   -8525   -37976   -58858   -56507   -33828    -7557    18423    37540 
   33462    10354   -17773   -43982   -58711   -53158   -27064     1198 
    9757     3716    -3439    -6612    -3462    -4946   -18680   -31835 
  -36087   -30794   -11835    17274    47922    70895    69074    32597 
  -28135   -99805  -170393  -211465  -192284  -114742   -11353    79099 
  128647   132076   103598    62382    25922     5307    -4092   -10799 
   -9554      390     6325      611   -14020   -22510    -9934    14614 
   27577    18423    -3865   -28473   -48014   -52258   -44076   -38371 
  -38050   -37765   -37270   -37659   -38283   -39322   -43923   -56664 
  -71766   -75976   -67610   -48627   -15840    22928    52061    65607 
   63731    46373    17409   -17241   -52124   -79965   -96783  -100931 
  -82230   -31888    37161    95313   115761    89958    30935   -42187 
 -108060  -137846  -116791   -59014     4741    43959    47525    22800 
  -19997   -67007   -98836  -100716   -71757   -16130    60138   129862 
  158293   136917    76373    -5256   -73826   -96621   -76778   -42375 
  -11441     7045     7305      841     5733    17854    16056    -8181 
  -43343   -73636   -88782   -80438   -43062    10422    50559    63017 
   56896    42863    27810    19984    19934    16643     3541   -11057 
  -13884     -445    20674    34373    28955     2093   -34889   -62164 
  -66455   -45828   -10303    18929    24983     7136   -20797   -42237 
  -48073   -36037   -18661   -12220   -10278    -1800    11658    25897 
   32458    27609    18401    13412    23618    43792    41053    -4517 
  -75496  -139370  -164678  -129235   -39599    63397   128481   131691 
   92164    43978     8631    -8886   -16546   -20176   -25035   -41871 
  -67067   -85043   -85130   -66123   -39389   -13475    10969    30105 
   45923    61623    64705    41067    -4670   -54069   -89342  -100051 
  -87249   -62718   -41875   -37391   -44675   -42463   -21105    11724 
   44023    59501    44945     2467   -49049   -79424   -66757   -14810 
   51771    93607    76140     5233   -79786  -139040  -146227   -98671 
  -18311    55396    84033    60434     6062   -49916   -83073   -82586 
  -48214     4611    48955    66197    45017    -5443   -49753   -62478 
  -38000    12336    52880    55080    21284   -34279   -88113  -109790 
  -94462   -60237   -22927    -1019    -4529   -24205   -46077   -49764 
  -25053    10186    34432    29877   -11816   -68492  -108332  -111894 
  -74312   -17559    28543    54296    60169    50280    35418    24592 
   16810     4105   -13777   -29074   -42084   -57756   -72048   -74216 
  -55803   -19314    18901    39868    31098   -10138   -65406  -100466 
  -97645   -58487    13308    93264   139031   127131    59431   -35611 
 -111410  -144026  -139487  -106044   -55150   -10058    17107    35602 
   51848    61098    56986    37750    15498       12   -18534   -43899 
  -67817   -87753   -98026   -86227   -46124    11797    58257    67550 
   42287     4635   -26928   -45822   -52108   -48154   -40321   -29782 
   -8199    19483    32921    20863   -11653   -47404   -69123   -71007 
  -55521   -34657   -24511   -24850   -22556   -11442     9054    32961 
   39149    11535   -37012   -75554   -81991   -53662    -2319    44776 
   54151    19478   -29178   -59511   -62184   -42532   -12646     7179 
    2129   -20281   -42303   -57717   -62909   -46873   -14011    10804 
   11624    -8136   -37955   -62344   -59703   -21870    28633    57007 
   46085     2923   -52927   -92637   -88967   -46235     6034    39164 
   32287   -13672   -74145  -115395  -111245   -61957    11425    79345 
