Origin Time       2024/01/01 16:10:00
Lat.              37.495
Long.             137.270
Depth. (km)       16
Mag.              7.6
Station Code      TYMH03
Station Lat.      36.7294
Station Long.     137.2627
Station Height(m) -572.5
Record Time       2024/01/01 16:08:52
Sampling Freq(Hz) 100Hz
Duration Time(s)  300
Dir.              2
Scale Factor      2940(gal)/6170270
Max. Acc. (gal)   61.923
Last Correction   2024/01/01 16:08:37
Memo.             
[...]
   -7293      405     2222    -1843   -11095   -20538   -35051   -66128 
  -99000  -102252   -83258   -73332   -62066   -33376   -13378   -10100 
   -7328   -19914   -48891   -57162   -48198   -58442   -82326   -96512 
 -103903  -110284  -107077   -85833   -57879   -45168   -39725   -19111 
    3127     3057   -15588   -41179   -64523   -76436   -79910   -81373 
  -75087   -59483   -48290   -45286   -38560   -27315   -18536   -12215 
   -9672   -15277   -29943   -41686   -36084   -30824   -44435   -50913 
  -40831   -45077   -64448   -76312   -76532   -69605   -63337   -55540 
  -38261   -29255   -37276   -32872    -4535    19264    20776    11923 
    3881    -1373    -7522   -28511   -62979   -84303   -80073   -67198 
  -60749   -57431   -52408   -46578   -42216   -44721   -56042   -63890 
  -51274   -25228   -11805   -16332   -28317   -51316   -84774  -106794 
 -105722   -93812   -84966   -82425   -78309   -70415   -63477   -47064 
  -25417   -24590   -31734   -17954     1311     3236    -5141   -13793 
  -21660   -21229   -13512   -19964   -40581   -49877   -43932   -39385 
  -51540   -73677   -71624   -45698   -35369   -38060   -33379   -36656 
  -52570   -71028   -90033   -96524   -87770   -74551   -57021   -44057 
  -44856   -44807   -33286   -24586   -23251    -7220    22055    32012 
   15528   -12421   -43288   -61976   -59161   -47209   -39816   -46635 
  -64874   -75977   -77079   -74894   -64347   -48732   -39247   -35053 
  -32840   -39595   -57439   -65856   -50848   -34533   -31148   -26697 
  -28430   -53233   -83158   -90717   -73334   -50577   -36131   -22180 
   -6547      761    -6779   -35975   -79505  -111101  -116035   -99397 
  -77322   -64011   -49396   -15109    26265    44203    36781    31998 
   43828    51318    31026    -7236   -40780   -67256   -89911  -105336 
 -118744  -132117  -125824   -89485   -47904   -31510   -44962   -61110 
  -47755   -18907   -11000   -13592     1926    24280    23599    -6790 
  -39782   -50754   -50437   -46785   -35445   -36690   -65031   -93173 
  -88749   -62551   -48865   -43994   -22057     5499     7284   -16801 
  -44087   -66770   -76799   -59212   -39477   -48512   -61297   -59490 
  -64493   -80192   -95754  -108734  -106481   -79018   -43468   -20990 
  -13996   -13656   -11102   -11001   -23963   -40773   -48265   -47069 
  -31492    -2019    13454     2552    -6908     4022    23020    28340 
    4508   -30669   -46017   -52943   -71599   -93053  -108962  -112577 
  -97207   -65268   -17052    29807    43974    27027     3226    -9331 
   -2813     7665     5041      934     2844    -5632   -22778   -28273 
  -31209   -55867   -89610   -96152   -71878   -49699   -46225   -49813 
  -52069   -44671   -26165   -20169   -32272   -39522   -43760   -62485 
  -89474  -102197   -83414   -49432   -36291   -39925   -36256   -32675 
  -40640   -51683   -59112   -66580   -69330   -51732   -21699   -10777 
  -20116   -19395    -9158   -13709   -29609   -46028   -60066   -63181 
  -58073   -49088   -34158   -20679   -10594    -5865   -13212   -17819 
   -7311     4704     2527   -16887   -47501   -89955  -128295  -120448 
  -74579   -38931   -21888   -18348   -29714   -42231   -54427   -67385 
  -66215   -64013   -80404   -89294   -71304   -53542   -46234   -21981 
   14149    28656    26293    23299    12183   -10589   -36573   -48753 
  -42390   -40377   -50195   -57139   -61502   -71416   -81437   -75168 
  -48702   -27697   -36054   -59129   -68324   -63692   -64619   -72441 
  -66265   -36369    -1497    14181     6826    -9993   -34176   -70912 
  -94778   -87584   -76668   -64478   -23485    16262    10326    -7358 
   -3548    -9661   -25786   -21359   -12682   -14069   -14860   -23687 
  -44095   -60940   -70254   -75842   -79037   -75835   -58784   -36632 
  -23516   -16752   -18246   -33339   -41731   -29625   -24286   -41627 
  -54630   -54028   -65332   -88549   -91499   -63831   -35036   -27889 
  -21993      328    18011    18716    12062    -3164   -20565   -25776 
  -32931   -48480   -46423   -31770   -32867   -35353   -20191    -6059 
   -2249    -3910   -22747   -53941   -73471   -82800   -85763   -63260 
  -13816    25508    21576   -10769   -33881   -30045   -10583   -13026 
  -48624   -70012   -55241   -40417   -35234   -24313   -16721    -9824 
    1370    -2312   -13804   -22533   -50545   -89428  -106029  -104852 
 -100909   -88045   -73431   -85487  -122613  -143216  -120338   -62620 
   -1313    30525    34118    25416      565   -34223   -58613   -70094 
  -79182   -90495   -91603   -67950   -36564   -29175   -52619   -87863 
 -100589   -72449   -34971   -23805   -24919   -22691   -35606   -58418 
  -62542   -54039   -45885   -35527   -36006   -50739   -60120   -64157 
  -74379   -80790   -70088   -54337   -58588   -78340   -75528   -41585 
  -12840    -6084   -16727   -46158   -66011   -54586   -57088   -92954 
 -109372   -88260   -60372   -39547   -34273   -44346   -46391   -38746 
  -34664   -35311   -48955   -65691   -60456   -54065   -67830   -64150 
  -30509   -12383   -18516   -23585   -31104   -45338   -55971   -57858 
  -44510   -22179    -5364    12431    29704    32167    32930    35388 
   14568   -16545   -29561   -45410   -83354  -115038  -114140   -94478 
  -80310   -72639   -60223   -32975    11780    49129    39919   -17873 
  -77857   -96432   -78770   -63743   -70954   -83837   -85816   -80648 
  -69928   -44180   -17960   -25035   -45697   -37032   -29084   -49664 
  -56330   -41000   -33006   -23112    -5519    12200    39134    59491 
   43023    -5631   -63038   -96907   -92233   -82839   -84155   -75776 
  -70104   -77632   -68244   -40833   -30166   -36210   -33515   -20480 
  -12439   -21592   -44905   -61418   -63628   -68051   -81602   -88188 
  -70172   -36294   -15350   -14680   -16505    -7891     7198     8865 
   -8774   -21564   -22249   -24423   -25426   -31112   -58429   -89768 
  -95525   -84744   -84559   -93147   -86038   -64010   -58467   -76017 
  -92891  -101548   -98563   -73529   -41306   -23749   -18362   -15934 
  -13947   -13930   -21153   -33402   -39375   -42801   -65609  -107247 
 -135434  -141383  -137094  -103283   -39230     1852     1872    -5201 
   -9306   -21245   -29113   -15443     4555     1878   -19452   -34430 
  -34760   -30143   -32618   -40877   -40342   -23705    -3795    -2428 
  -20806   -31030   -17119    -6474   -26093   -55485   -62177   -41838 
  -13873    -9842   -31126   -39990   -38052   -61911   -93329  -103691 
 -117603  -132017  -117130   -90610   -63600   -25920     4638    17165 
   15274      720    -5677     1653    -3541   -21735   -29947   -31973 
  -43075   -55421   -59892   -63324   -60808   -43017   -27909   -30482 
  -38783   -44879   -49152   -46651   -40258   -40262   -44195   -44611 
  -43275   -39324   -30027   -20573   -16242   -16854   -22381   -34861 
  -46934   -48735   -46550   -42272   -25860    -1067    21924    35757 
   34878    26491    12920    -8619   -27495   -49960   -84836   -99683 
  -76207   -47422   -35931   -34008   -35329   -32379   -25937   -41045 
  -78304  -101585  -100764   -81991   -36761     6705     3142   -26817 
  -45495   -64817   -97681  -126357  -127378  -103595   -86958   -85208 
  -79305   -68993   -59279   -54901   -58904   -53742   -41810   -41208 
  -41934   -47868   -71539   -83722   -72387   -74003   -86560   -62678 
  -11539     6033   -22511   -59459   -82105   -90317   -82847   -64451 
  -54701   -62857   -71372   -58064   -28978   -13523   -18811   -27610 
  -36229   -47552   -54720   -51333   -42244   -45019   -55241   -40146 
   -7318     2269   -10382   -21512   -21903    -9137    -6786   -41883 
  -87361   -96602   -66746   -29930   -13204   -20785   -42341   -64265 
  -75083   -70850   -57297   -46276   -44610   -46295   -40818   -28990 
  -23108   -23855   -21580   -19290   -19131   -21233   -37245   -61720 
  -81817  -102082  -114372  -108790   -92669   -70545   -51091   -36544 
  -22753   -22876   -30643   -27199   -20090    -8950     2044   -11005 
  -43787   -85213  -122710  -117536   -72317   -28524     5238    23257 
   15538     6666     9282     1611   -11847    -4081    16382    22744 
   16028     9816     7158     3070   -12304   -39668   -69189   -94004 
 -104105   -92681   -65522   -29572       81     6638    -5645   -20073 
  -21497   -20163   -42219   -70724   -77934   -76316   -71132   -60309 
  -60434   -71285   -80612   -83507   -79040   -84212  -105045  -111345 
  -92988   -71442   -45266   -14482     -597     4407     3940   -19489 
  -40605   -44623   -57404   -71095   -71830   -67942   -51909   -30642 
  -24795   -25960   -31554   -49730   -66419   -70667   -63148   -45749 
  -22157     7337    26465    18313    -7614   -39451   -58074   -54012 
  -51791   -54757   -53462   -60962   -67632   -53131   -29587   -19169 
  -28278   -44374   -56449   -63991   -62540   -59769   -63167   -58442 
  -47583   -42409   -39975   -43895   -57231   -79365  -106978  -117604 
 -104793   -90125   -76441   -57942   -42349   -23763    -2632   -15734 
  -66475   -92355   -65330   -32245   -29816   -42159   -48313   -50993 
  -47530   -31230   -16649    -7948    13312    42752    49710    21108 
  -23460   -61903   -85630   -82558   -51880   -27081   -26312   -27145 
  -27367   -39550   -55179   -73538   -80922   -51987   -17258    -9087 
    2497    30141    41699    27738     -116   -29790   -36418   -21810 
  -20433   -31518   -40523   -67805  -108759  -121191  -107059   -98865 
  -89664   -63716   -39283   -32455   -31287   -24098   -15871    -9431 
   -8389   -28815   -63417   -79771   -73323   -51537   -12819    16240 
   18258    19094    19341    -3437   -34655   -50447   -51996   -48288 
  -49316   -61653   -75725   -80394   -75882   -64024   -44630   -12022 
   30302    56361    53389    35892    18403     3733   -12222   -26511 
  -37070   -53748   -68779   -65608   -61640   -68805   -59242   -29821 
   -6818    12646    30982    34204    27895     6457   -47854  -104586 
 -118199   -96616   -73609   -65111   -72734   -83851   -84795   -81663 
  -78751   -73523   -75972   -88750   -96632   -90246   -74524   -58337 
  -45465   -39723   -36003   -14374     8291   -10414   -48978   -59654 
  -50727   -44795   -43525   -45086   -38421   -18119    -3168    -5264 
  -11928   -10198    -2496    -3669   -21703   -45013   -56862   -57349 
  -64367   -78882   -83678   -88509  -108964  -129858  -134427  -115789 
  -82824   -70209   -82518   -82632   -66666   -59911   -57486   -45624 
  -34060   -23616    -2655    17476    24440    25953    18269    -3329 
  -25499   -48350   -76384   -95995  -105489  -115350  -118666  -102316 
  -72556   -47854   -31866   -14465     2266     2887   -16016   -37740 
  -49595   -58644   -76356   -99530  -109988   -96689   -72394   -55436 
  -46195   -37631   -31296   -27407   -29162   -45618   -62349   -63895 
  -67539   -73904   -63611   -47409   -33135   -13861    -2460     3472 
   15663     8749   -24569   -49247   -57231   -65281   -75515   -92277 
 -112045  -106909   -74400   -43459   -17004    12800    24547     8536 
  -11053   -22582   -34484   -43493   -41635   -38087   -46517   -64938 
  -75611   -59215   -22493     3063      865   -20200   -41071   -50091 
  -56202   -61491   -49067   -21938    -3020     -146    -3987    -1896 
   11830    25876    21313    -2406   -31373   -63804   -98113  -116888 
 -117651  -119300  -124568  -122598  -113753   -93001   -59173   -42001 
  -45767   -38619   -31193   -43008   -44441   -24084   -13740   -26511 
  -46707   -60990   -71311   -82648   -81338   -58884   -43337   -53551 
  -63702   -59090   -57949   -63070   -64171   -59898   -48317   -32605 
  -19163   -13781   -27352   -52252   -64143   -58201   -46330   -35329 
  -25081   -19442   -21498   -17878    -1266     9713      662   -24924 
  -56827   -73196   -64737   -57124   -62726   -62544   -46080   -18548 
   -1873   -16403   -38917   -44503   -47869   -50687   -41205   -38953 
  -56462   -72776   -82748  -104094  -128373  -130231  -116036  -102268 
  -88102   -77454   -66487   -47437   -38745   -44989   -45556   -38735 
  -30980   -27114   -39062   -60904   -77007   -88245   -88113   -66546 
  -41007   -28312   -24301   -28644   -40387   -43936   -32744   -23525 
  -31641   -55319   -82846  -101139  -105251   -95571   -74116   -50211 
  -29536   -17198   -25957   -43084   -38070   -17753    -5954     1392 
    6564    -6254   -29603   -34382   -20295   -18002   -39094   -59864 
  -65181   -67888   -70588   -67479   -68589   -68146   -56238   -58010 
  -82034   -98634   -98182   -90159   -70533   -42513   -28909   -38246 
  -55381   -69955   -77829   -68535   -45324   -38812   -60447   -71907 
  -60691   -67349   -83251   -57852    -9798     9096     8025    15312 
   18242     6720    -7368   -24522   -39025   -38634   -35570   -39124 
  -46315   -58045   -60513   -39527   -11016      134    -9702   -25513 
  -32522   -23874    -5066     8339    11632     6951   -12453   -44584 
  -74653   -96842  -109354  -108081  -105087  -107891   -95161   -60394 
  -21394    14323    38045    41819    30393     3082   -38226   -83924 
 -119574  -119573   -88576   -69452   -74316   -73915   -52706   -30546 
  -27329   -32337   -27672   -16202   -18190   -38929   -54485   -59291 
  -65776   -62339   -56046   -74901   -88807   -59236   -23985   -13932 
   -6917    -4602   -15059   -24551   -45025   -76719   -80600   -57035 
  -46748   -56762   -70170   -83072   -86441   -72746   -63069   -71638 
  -82301   -88240   -93363   -81339   -42969    -5904     8618    15813 
   25768    23505    -3295   -52056  -110742  -158800  -172738  -155654 
 -134912  -107654   -62687   -31790   -26324   -11221    15661    28599 
   31688    37448    34449    11208   -14734   -22222   -13498     5103 
   20152     8601   -23946   -53113   -73500   -81635   -64847   -39014 
  -47286   -84434   -90752   -55153   -27273   -26666   -31135   -27506 
  -25602   -39756   -64649   -78239   -78344   -79933   -74876   -52380 
  -29906   -19430   -14425   -13195   -20233   -40867   -69278   -85940 
  -85959   -74054   -51240   -41556   -62587   -79301   -61249   -31760 
  -14683    -1651     3074   -18280   -46890   -52590   -45140   -44838 
  -48512   -53770   -63454   -64465   -53783   -45419   -34786   -23683 
  -30347   -44154   -46522   -38990   -27718   -20769   -15876   -10894 
  -14174   -11349     6285    17023    26467    48310    51605    18173 
  -23070   -46674   -44133   -15165    15023    19485    10360     6268 
   -7083   -41946   -77994   -93353   -89171   -75662   -65281   -68449 
  -73289   -60249   -39499   -34803   -48734   -67606   -80317   -85406 
  -77375   -45196    -5546    10750     9655     8449    -1965   -19330 
  -21790    -7680    12344    33075    43882    35268    11167   -18484 
  -41401   -47244   -45513   -53990   -64920   -59502   -46251   -48814 
  -65176   -67393   -42878   -16397   -14850   -30221   -43524   -50798 
  -51831   -50778   -52063   -42883   -20971   -16993   -41094   -59264 
  -55255   -53082   -69053   -89290   -94151   -82506   -66447   -47821 
  -19037    11996    28056    28717    24339    22830    22284     5122 
  -34251   -76507  -107774  -123304  -119877  -109468  -108296  -111601 
 -105146   -92263   -81450   -69376   -62146   -67162   -71937   -73510 
  -78479   -72059   -40805    -2179    18266    22307    25500    28106 
   32332    36691    15924   -21926   -34497   -30398   -38287   -48311 
  -59941   -79178   -80348   -54517   -34012   -40473   -58180   -61786 
  -49600   -41052   -45556   -46808   -31780   -15879    -8403    -3076 
   -8940   -23998   -33435   -48550   -71857   -81667   -77286   -69996 
  -59924   -50715   -43062   -25268     7640    46267    71512    72097 
   63953    58291    40951    11799   -10994   -21177   -18287    -5555 
   -5530   -33370   -72283  -104350  -120547  -108778   -80780   -67151 
  -64389   -50741   -37020   -33782   -20100     9805    31141    27164 
    6739    -8921   -11941   -14897   -20485    -9153    17808    31089 
   22138     2116   -15632   -17343   -14221   -21837   -27101   -22357 
  -14829    -3889     6768    11379    12020     1160   -25466   -53761 
  -75276   -88111   -87815   -79649   -74569   -77889   -89583  -105197 
 -117528  -121395  -119171  -112070   -91603   -57861   -23100     2957 
    9088    -2335    -7192     1336    11458    15222     3204   -12218 
   -7011     2575      -38     -802      256     4252    13541     2602 
  -21904   -29307   -34826   -44357   -38662   -31426   -28079   -15556 
   -8260   -10989    -9803   -14491   -36592   -64123   -80448   -84179 
  -88780   -95000   -88770   -71428   -57051   -50571   -42300   -24040 
     473    30514    59434    66996    48901    19935    -2034    -9007 
  -20035   -51138   -78681   -81146   -79052   -92926  -108957  -108037 
  -85733   -48880   -15504    -3033   -16337   -44067   -68469   -89989 
 -114369  -126255  -117247  -101827   -84771   -56713   -19753     7753 
   16012    16237    12149    -2258   -14405   -16919   -30415   -58112 
  -73469   -70897   -62443   -49584   -40283   -36542   -22389     -963 
    7690    -4654   -30290   -50571   -57406   -58960   -59496   -59802 
  -64128   -76891   -96679  -112870  -115644   -96653   -54447   -13373 
    6481    15528    21317    27263    43702    57898    49556    22359 
  -14209   -45435   -61870   -80288   -99388  -100806   -98253  -100768 
  -93348   -77683   -58536   -29156     -362     6381   -10643   -36907 
  -51554   -42451   -32777   -46706   -63444   -62930   -65448   -87715 
 -110477  -109635   -89312   -71031   -70065   -83272   -89989   -78312 
  -58387   -38370   -19138    -8575    -9225   -11547   -11100    -7762 
   -3714    -8675   -24054   -42799   -59792   -64197   -57983   -60289 
  -66546   -60539   -50820   -48443   -52418   -62271   -75855   -88722 
  -97472   -99166   -87142   -54646   -12651    15760    17886     -104 
  -15630   -21323   -34403   -48880   -49718   -55436   -71738   -77033 
  -69565   -60170   -59392   -72927   -77977   -58905   -39000   -30234 
  -24336   -31262   -53485   -63810   -51272   -35703   -31137   -38636 
  -56101   -72825   -80762   -87935   -97213   -96340   -81060   -59126 
  -35628   -12929     4181    11263     7388    -7155   -29621   -46937 
  -45524   -36411   -39291   -46578   -41901   -28669   -19841   -22329 
  -29614   -31552   -29702   -31593   -40046   -48903   -52967   -60233 
  -72546   -74140   -59668   -42728   -28657   -14836   -16294   -41801 
  -63968   -67842   -73755   -82181   -82702   -92241  -106510   -97753 
  -78929   -71814   -64102   -46368   -25808   -14751   -21934   -38779 
  -51960   -55060   -45631   -29908   -16642   -12056   -23298   -48290 
  -74633   -95985  -111921  -117544  -111467  -101385   -91756   -84805 
  -86996   -96592  -103031  -104430  -104891   -98288   -77652   -53944 
  -40434   -33341   -29242   -35654   -51187   -61676   -62065   -60847 
  -61356   -58680   -51801   -41951   -29478   -17452    -9653   -10614 
  -22604   -40679   -59136   -74525   -83293   -85412   -87674   -94115 
  -96054   -88213   -78228   -71496   -70471   -74719   -77387   -77656 
  -79496   -82965   -86516   -85166   -75792   -65022   -59449   -57553 
  -54107   -42459   -23200   -12370   -15999   -17811   -13315   -10295 
   -6531    -6368   -17118   -26488   -28842   -43045   -73456   -96170 
  -95994   -78042   -54825   -42632   -42216   -36065   -21979    -8868 
