Origin Time       2024/01/01 16:10:00
Lat.              37.495
Long.             137.270
Depth. (km)       16
Mag.              7.6
Station Code      TYMH03
Station Lat.      36.7294
Station Long.     137.2627
Station Height(m) -572.5
Record Time       2024/01/01 16:08:52
Sampling Freq(Hz) 100Hz
Duration Time(s)  300
Dir.              3
Scale Factor      2940(gal)/6170270
Max. Acc. (gal)   43.115
Last Correction   2024/01/01 16:08:37
Memo.             
[...]
   93857    92686    91425    91421    88843    81333    78876    86027 
   94133    98788   100734    99436   100135   107928   118351   123723 
  121105   116508   114338   110927   108889   111534   112732   111174 
  109792   107677   104253    98101    91555    91526    98558   108464 
  117755   125887   132382   131540   124748   118930   110623   101137 
   98771   100370   102403   105566   105989   102459    97831    93266 
   88169    83826    84982    92021    99993   108376   115485   114606 
  109321   109043   112100   113200   111367   106491   101253   100614 
  107485   117443   119717   114073   108857   103567    98291    97938 
   98430    94895    92227    93703    97938   105843   115180   118811 
  115072   109373   105768   104739   106306   109254   113356   121055 
  127230   124630   121183   121542   115704   105405   100403   100343 
  103925   109828   112627   110283   106659   103868    98629    93467 
   94772    98496   100170   102847   106525   108977   110363   111673 
  112064   108914   106329   109466   112901   111943   108142   103123 
   99193    97324    98063   102714   107396   104971    94178    84098 
   84995    94287   101801   101811    97944   103607   120727   132829 
  134697   131825   125098   117910   110631   102869   100477   101698 
  101760   102145   103247   104649   106232   108178   109383   106401 
  103328   105524   106592   101456    94931    91788    94258   102429 
  108992   109212   110315   112929   110981   109476   111676   114295 
  118388   121788   119453   112310   106627   107889   113041   118749 
  124216   122911   116624   113097   109605   104092    98221    92411 
   87320    80715    75953    82024    94748   102344   105844   111920 
  116872   115031   110818   110581   114020   116963   115361   111043 
  110359   112123   110394   107472   106060   100633    92202    87723 
   84760    83417    87599    92315    98888   108756   110604   107562 
  113205   121276   121248   118800   118345   116784   117027   119182 
  117792   115104   113716   113468   115708   116319   114668   118313 
  122284   114911   104250   103749   108973   113110   117360   115480 
   99961    84931    85899    93957   100322   102162    94194    90469 
  103359   115107   112384   102139    92799    93510   106396   116256 
  114306   109311   106339   107054   109675   101310    85030    78770 
   81181    85421    92495    97146    99175   106370   114706   115922 
  113506   111750   108411   105197   108536   117434   119815   108942 
   97906   102565   116875   121907   110345    94965    96297   111185 
  111775    92286    76165    77131    90661   105585   111935   112359 
  115837   120758   118387   109181   102708    98114    91063    90993 
   98389   103987   110862   118561   118102   108088    96942    94482 
  100429   109763   116640   116477   116662   116177   105151    94987 
   93990    91948    86850    81571    79824    86150    90733    87072 
   90641   110508   134762   150535   151855   143354   137051   135164 
  133786   130768   125437   120250   111571    96134    82669    75520 
   75602    83286    84380    76109    79158    99756   121770   132860 
  135775   134255   123941   110208   109160   118299   119864   112877 
  108620   108540   109610   111844   107669    86527    63134    65557 
   89047   113598   132878   134290   118095   105583    98026    89024 
   85261    91419   109037   128926   135396   132131   125250   110077 
   97996   103701   115932   120048   120970   121785   116897   111497 
  106706    93487    81416    80360    78400    77761    93426   112115 
  108482    89966    85163    96948   110793   124807   137990   148116 
  156662   160912   160282   151148   124566    88950    64651    60578 
   74013    97865   116992   111627    90281    81486    80739    70820 
   58472    52078    56935    75336    97570   121402   140911   136884 
  120923   118089   123611   130736   134432   125732   117575   116181 
  104215    84874    76085    73865    65311    55434    59017    77205 
  100204   114365   108884    99400   106205   117646   117287   109907 
  108659   116289   122573   124244   123489   119482   117543   116731 
  113954   113821   113202   114688   122080   122530   112382    97535 
   80919    71735    71105    74391    88481   106235   110691   106449 
   96882    82314    78925    88434    98300   107072   113292   116481 
  120409   119957   110555    98414    89718    85863    89741   104258 
  118571   115618   100023    84181    71805    75642    91757    93236 
   83862    83143    92447   109910   125473   134966   147666   148559 
  126169   105520   101134   101674   102186   111117   126851   129351 
  117670   111945   111045   109668   119467   137747   140094   118183 
   97838    92751    88844    88107    98555   108081   106705   102737 
  102817   100331   100883   113124   123962   122603   108719    91334 
   84862    76855    57551    56301    81372   100421    99120    89880 
   84827    86094    95249   115761   131861   128641   119579   115619 
  108585    90376    72132    75221    93026   106121   120220   134721 
  133868   130086   136677   132386   113070   101638   101051   106137 
  117310   128280   137583   144147   140486   131240   126261   123640 
  112804    83330    50021    44905    66884    89290   100336   104823 
  111429   122654   132940   138025   138713   131086   109789    89485 
   84815    85419    88366    97009    96631    87436    87925    96962 
  102731   101634    96965   101001   111145   105656    93101    99084 
  111486   107777    96666    96248   106579   118056   123697   117889 
  108668   111328   123427   134950   133339   116434   106802   106425 
   99394    99904   119142   133494   124727   108721   106447   107762 
   97861    85899    75092    64674    65104    74509    85297    97521 
  117329   147471   163900   151001   129331   108994    87022    72193 
   68587    69819    73277    83374    99333   110979   109192    98579 
   95261    95416    83369    70946    72234    77048    79296    90604 
  114260   133533   140481   141896   138956   132797   127008   119717 
  107750    93672    88356    98322   115590   127250   127419   122386 
  120198   118056   107699    88562    74307    77008    92063   110398 
  123744   122878   110569    99510    92543    87048    92374   110093 
  120054   119025   122543   123312   109750    93898    82034    67645 
   60886    77411   105947   122968   124243   119769   113911   102978 
   88872    83973    93198   102873   103161   103063   105555   107009 
  117344   134070   139278   138033   140353   133180   113902   101956 
  100813    99361   100546   106056   105441   105301   119524   134682 
  136516   133935   131955   123266   106054    94561    98266   101499 
   98229   101182   107843   113179   112528    96244    87458   107200 
  129041   138413   145017   145062   135322   115482    91290    86265 
  103883   121466   130772   133700   128154   111059    82329    56381 
   48232    59633    81554    93096    91240    96583   116263   137333 
  137315   114720    98960    97982    95440    90368    89420    95047 
  109288   126297   129473   114471   104759   115541   129916   132448 
  124283   110999   103654   107340   112604   114948   123183   142490 
  156157   144239   118693   103556    99988    96834    90671    88650 
   99515   118688   130428   133220   140035   147222   139867   122662 
  110130   101914    92354    87586    88936    82460    71590    71195 
   73165    75638    89619   103186   104058   102485   111678   132583 
  146365   135500   110940    92568    89193   100213   112329   114610 
  110412   100588    86660    77732    77981    88539   101880    99653 
   86980    91550   112097   124655   129377   134164   136189   135149 
  123451   100844    83286    70958    64094    76788   100684   112961 
  116324   122423   119164   103398   100568   114454   120908   116822 
  115468   112866   103390    95981    97171   103861   103422    85086 
   62867    59858    73596    87245    96219   105257   115981   120387 
  120598   133430   143194   127449   113580   116977   117307   113655 
  103532    79406    61592    61818    68127    77497    92007   102185 
  100478    92516    84692    78899    80859    94990   107480   103102 
   93209    91048    90671    85979    85599   102125   119672   116774 
  110500   112924   111300   105536    98593    88335    84084    98776 
  123589   131652   123408   120752   114960    94923    85681    93030 
   91807    86304    95241   113077   130408   149548   169726   172525 
  146958   114779    91393    72233    64191    69727    80798    97973 
  112434   112014   107724   109990   110526   107833   111127   116862 
  115754   111983   110968   106691    91736    74454    75084    94913 
  117509   131285   128909   118140   117757   121236   110242    98026 
  103348   112152   111851   114985   127285   133903   125608   109715 
   96423    93925    97251    98268   101352   101240   100379   110535 
  112552   101848   101625    99484    86802    88084   100160   112196 
  130924   138279   117350    86661    63648    54917    66215    89356 
  107557   110393   104664   107293   114573   112249   106492   107892 
  108753    99323    89419    88786    88626    90219   102291   111584 
  112162   116465   119135   106896    86218    79654   100161   126352 
  131373   121861   115105   113196   114942   120010   117144   100492 
   91899   101442   101066    84932    81612    88724    86787    90165 
  112652   131176   122136    94950    71840    63508    71214    89618 
  105806   109367   104209    97682    89060    80528    79074    87485 
  102708   115703   114720    99715    86549    85232    93125   106797 
  120632   129235   131417   123478   108926    99316    93176    92867 
  105340   112532   110616   117068   117156   103670   105455   123763 
  135899   138160   127529   103034    86551    85515    84113    84263 
   88470    92885   107074   122073   117388    99246    86108    84027 
   84708    82561    77393    69831    71178    86766   105024   116480 
  120698   122189   118811   109530   110186   121747   122701   112880 
  109541   116265   122948   119152   109754    98426    82389    80751 
   97322   110376   121026   127621   125004   127064   126028   115282 
  114374   119666   118025   109972    90720    74003    78509    90406 
  106068   129778   140835   136417   124002   103944    97273   106259 
  108933   105033   105938   117897   129887   127318   117393   104731 
   94290    96994   100587    99290   107049   117143   117356   113477 
  110462   104442    95007    93549   106627   118673   113732   101542 
   98639   102897   105508    98256    81100    76017    92793   114897 
  130789   140512   149366   149489   132003   118326   119227   123357 
  137408   158273   159099   135473   105515    82755    77384    85990 
   86422    73517    69920    87772   109295   114823   108427   101831 
   98691   101497   106427    97675    76454    73152    99561   133263 
  149643   138937   117955   105539    99831   100455   102062   104252 
  124320   150055   155470   143118   120751    99182    92337    97866 
  103583    92817    63595    43452    49833    74478   103899   117028 
  115281   133455   166705   171750   143902   117130   109166   102450 
   93316   107194   131606   132518   124948   126043   114573    90954 
   80446    79459    75394    78823    88054    88612    86130    83641 
   82753    96629   115195   119156   110567    96693    88764    94372 
  105522   118922   133349   135934   124091   111385    97247    75273 
   64316    78223    95690   101690   110168   120495   118816   114371 
  112361   108383   114747   133344   139790   115843    81596    73522 
   92696   115950   125829   114932    96202    83111    76483    80532 
   87201    91079   105602   115181   104129    94531    87628    75894 
   72809    84557   114035   138759   128591   113062   120115   126037 
  114212    90649    73869    77172    89893   106397   125410   136829 
  137010   131508   128579   119789   105046   110367   126316   128257 
  125369   118543   104703   101718   113568   121367   119631   119592 
  115120   106552   108698   100630    81826    89111   101046    96670 
  112057   145070   163610   168287   161306   139043   118031   111292 
  110662   109622    99457    72247    59199    93674   141634   151959 
  136042   125033   114231   100661    90415    72270    52406    52667 
   69547    89629   104987   104367    81038    55531    56560    72847 
   85910    98518    97561    85181    90779   108892   117105   121345 
  139598   168479   182475   174739   153556   120498    93543    84025 
   78484    84880   109570   123630   114470    96058    80301    74670 
   80143   103347   139305   157729   153479   133411    91562    60377 
   76212   111953   119423    88563    50874    37932    56280    94815 
  121826   125028   123057   105254    66778    42985    39912    34886 
   34637    66230   121131   154387   151693   132398   109338    97317 
  107017   127585   142219   144754   143246   139821   123074    97908 
   82731    85540   102917   123874   141133   148638   136832   112040 
   86298    64138    50739    41889    46104    78246   110904   130042 
  147962   139859   108787    97297   101623   106843   115287   117827 
  114576   111590   103871    91851    89500   111741   147084   165301 
  163867   158292   137909    94100    51156    24546    15386    29902 
   54624    70636    84562   106693   127881   129251   108893    84698 
   77250    95371   119201   126947   129262   139244   144389   126964 
   99033    86870    81294    70189    76480   103905   127795   139054 
  134138   115890   104527    98305    78970    53923    43809    60582 
   90593   101318    96196   106536   131781   151610   158381   159711 
  167374   162291   121535    72873    49180    51262    69255    92696 
  116396   126624   111194    85568    63175    52070    61097    69698 
   62422    60044    74512   100645   136958   164591   163333   155234 
  160882   165480   158342   141729   124252   110614    97665    98004 
  108658   105596    99898   105763   106341    92216    72170    60083 
   62322    74708    83252    71480    55887    63811    82921    90715 
   86551    89268   109158   121655   123951   134363   124987    92627 
   85250    97711    98241    96550   106864   123741   135476   140414 
  144226   144582   136365   118462   104467   107148   108274   101515 
  106522   110387    99442    96577   102508   107177   121346   132660 
  121991   100716    86762    83483    86235   104149   134398   139045 
  116463   106296   106216    92908    79273    86429   106259   118035 
  118761   108787    84083    63525    63661    72540    80982    87579 
   93312    98546    95858    97468   119108   144735   157546   152076 
  128287   104513    98560   110571   129869   142093   139455   126374 
  117175   113799    98072    69835    56532    64914    70007    69943 
   79995    92351   110614   139351   147953   128452   108320    97386 
   90821    87328    90603   101169   105412   104363   116686   130187 
  118257    94995    92191   102729   100238    88292    86735   105868 
  133689   140479   130344   130443   137108   139853   133373   114323 
   94914    81048    77442    85782    92654   102375   114257   110585 
   96884    85185    86791   108081   125577   124689   116514   108722 
  108743   113068   110328   102099    89793    88827   106133   101584 
   71848    66457    82159    83705    82541   102838   135737   154138 
  144792   124713   112287   106539   108102   114612   112480   107090 
  121406   147459   154170   142770   130990   115868    96459    80488 
   69222    71204    90116   103788   104186   109573   118617   120769 
  123259   126692   116858    88077    59727    52573    61578    83804 
  118539   143340   150368   157009   164866   158294   136724   117126 
  104506    95013    95696   102460   105296   115593   126825   114865 
   94347    86395    86108    91762   101527   113274   127053   129057 
  114861    97086    83154    79485    86146    95627   104519   111694 
  126028   149608   166682   179544   191988   187507   175588   174871 
  166898   139970   110827    89036    76678    71767    67033    73093 
   95535   107205    99373    93407    95947   106144   124734   140712 
  144378   136211   123384   116349   115856   115737   110275    96266 
   87707    98578   118691   134256   136362   127313   126123   129525 
  127252   131044   122604    85691    65606    81954    98797   108974 
  124031   132426   128724   121974   113054   101554    94988    92786 
  102089   139543   171822   154082   112497    89576    85107    78763 
   59794    41831    38738    51824    82497   112873   122915   125459 
  134831   140101   127939   115829   123422   125742   110087   103057 
  108082   109442   100528    83642    80546   111109   154814   168887 
  146420   124485   123859   124695   115262   104211    89040    70950 
   72388   103415   132968   130393   119780   126442   129053   121230 
  112792    93059    71968    74514    96937   117063   116123   105548 
  103195    87550    64585    76087   100612    97248    80234    70881 
   67167    63088    68083    88560   104076   109899   115499   114244 
  118669   130320   121783   110486   118612   118746   109976   117484 
  124449   117587   123982   143143   142534   128975   124988   117315 
  102002    94166    88976    86336    93401    97542   100848   123861 
  150147   143571   108266    74953    52517    39671    49888    73776 
   84478    83696    85504   105878   141743   156306   146543   137789 
  121910    99872    99644   112455   106287    90250    93300   108779 
  115585   118470   125339   129701   127456   113063    89553    79161 
   84058    88297    96362   110901   116591   108077    97145    97523 
  104417   102468    99037   102840   102400   105212   117721   114308 
   96665    86387    80559    86121   105098   115350   112641    98994 
   75636    66035    76239    86200    93493    98668    98786   103426 
  104942    90374    75201    72944    80199    87591    83608    75412 
   83163   105377   115716   102878    89976    86082    75841    68532 
   78631    88893    87264    87216    97551   115153   128965   125520 
  109972    99447   109209   135715   142471   120938   105659   102186 
   95882    85242    75660    78710    94328   115588   136213   140687 
  131719   124354   114956   101506    91568    84550    80577    85537 
   87695    72149    54991    57340    76401    96026   105302   105867 
  103749   110464   128862   136764   128960   120164    98742    71544 
   77893   104391   111797   105524    93873    82089    93451   112748 
  108017    93806    88890    93733   103256   110458   118805   117571 
   98207    84944    86455    91932   102033   113255   119314   120660 
  115806   103298    87209    75925    79528    99445   118845   123087 
  117933   110536    98421    82889    75321    81747    92043    95834 
   94994   100243   110301   107624    98020    97487    95224    87383 
   77104    53057    28908    31290    55170    87660   116949   124688 
  110963    91898    81067    80769    88782   111100   134694   135700 
