Origin Time       2024/01/01 16:10:00
Lat.              37.495
Long.             137.270
Depth. (km)       16
Mag.              7.6
Station Code      ISKH01
Station Lat.      37.5266
Station Long.     137.2844
Station Height(m) -152.5
Record Time       2024/01/01 16:08:27
Sampling Freq(Hz) 100Hz
Duration Time(s)  300
Dir.              3
Scale Factor      2942(gal)/8224139
Max. Acc. (gal)   403.964
Last Correction   2024/01/01 16:08:11
Memo.             
[...]
 -249057  -217954  -204969  -219954  -184140  -106856   -71567   -59316 
  -82906  -147073  -138348  -110551  -126987   -19101    99080   -30646 
 -217622  -261662  -228410  -133062   -24174   -24240  -140840  -238288 
 -205128  -122501   -97656  -116282  -134559   -93889     5583    68206 
   50484   -27022  -125666  -162306  -132988  -141131  -157601  -117443 
 -119113  -135994   -37328    77685    59204   -66154  -159578  -137326 
  -55088    30792    26399  -145135  -283215  -215374  -102135  -148162 
 -322714  -421301  -407218  -404838  -342270  -154101   -47248  -106567 
 -111495    -5891   -17771  -204059  -401765  -518228  -527273  -407949 
 -205695   -38168      877   -59364  -118484  -146799  -195469  -234266 
 -145687   -29185   -96554  -227705  -236428  -216395  -218316  -151448 
  -61483   -55702   -82884   -65531   -24382   -28413  -108573  -177755 
 -230600  -285534  -175802    48579   154132   151016    97888    18315 
  -15126    -5478   -26646  -136120  -233288  -147711    27280   102674 
  108523    85720    15552   -16059    16509     -918  -118489  -231820 
 -261833  -307061  -398059  -402144  -265061   -45612   149887   195592 
   58213  -106118  -170417  -209343  -227034  -164550   -72948    14758 
   19302  -155659  -344233  -316759  -159106   -96539  -173466  -270491 
 -268766  -186128  -105295   -30003    33127     3492  -126123  -198423 
 -112337   -21055  -107514  -278791  -359667  -383155  -358026  -227794 
  -99210   -29934    18256    20837      -56   -28942   -88636  -116355 
  -85696   -50669    -9886    27953    22350    -2250   -33768   -73160 
 -104745  -161148  -219661  -237446  -244250  -200537   -74152    52694 
  126756   139811    92176    -6535  -150854  -261576  -269947  -225217 
 -146403   -42691   -21643  -142673  -305599  -369297  -321958  -236833 
 -145230   -77647   -80752  -150508  -176304   -67435    51516    81882 
   78818    28215   -51640  -104063  -131434   -70567    48377    53531 
  -43642   -83736   -45462    -9589   -25537  -125728  -269774  -359077 
 -388968  -393372  -367202  -338208  -320616  -272859  -202674  -170220 
 -159287  -125417  -117501  -134909  -104777   -96387  -176382  -198875 
  -77214    41318    49364   -19747  -117863  -160837  -125271   -96221 
  -56766    -9305   -53892   -92352   -29338   -23842  -131757  -206413 
 -201449  -211069  -270295  -313333  -287690  -189081   -51084    75120 
  143550   118497    23785   -58005   -91373  -114698  -131851  -136075 
 -189147  -273474  -290447  -236497  -161973  -117331   -97349   -32201 
   25249    12779    17537    41855    10797   -43920   -64917   -37700 
  -26067   -94524  -162276  -174734  -190260  -219465  -217260  -153160 
  -83895   -80520  -103617  -137457  -180273  -160504  -112317  -107650 
 -103369   -85209   -83731  -115452  -183076  -196002  -125188  -119932 
 -205773  -231871  -170063  -103551   -30187    71018   122594    73404 
  -18361   -94344  -127172  -104650   -57685   -39683   -97868  -195428 
 -218295  -166911  -125783  -104809   -97900  -120538  -162486  -191631 
 -193774  -197063  -216540  -224248  -221301  -246697  -280783  -270715 
 -235241  -200811  -171553  -174746  -170445  -104496   -55344   -99894 
 -168733  -171124  -128943  -102651   -91577   -65376   -44857   -75628 
 -119769  -138462  -160569  -165325  -147645  -163283  -193908  -184362 
 -139895   -89845   -50390   -52073  -103439  -136988  -117301   -83068 
  -34149    11605   -34038  -123234  -121992   -92561  -125263  -158554 
 -169699  -172201  -142847  -108267  -105690  -131692  -183898  -227350 
 -215458  -189546  -186495  -162905  -114448   -80667   -81643  -118494 
 -155889  -160513  -138088  -106656   -89469   -84176   -63316   -36228 
  -28520   -43303   -66573   -74013   -59298   -24024    16524     4947 
  -76789  -165964  -204921  -188202  -143715  -108980  -101969  -109952 
 -125514  -158674  -178683  -137049   -92327  -115668  -133726  -104016 
  -89419  -100383  -126813  -157297  -151254  -135199  -152136  -165681 
 -150318  -123427   -95258   -92794  -128190  -153890  -135908  -101544 
  -87116   -81973   -62388   -47406   -43324   -24918   -17146   -41986 
  -50982   -27421   -25710   -81340  -130212   -96071   -43429   -39457 
  -42175   -54823  -106452  -146807  -130707  -100043  -106704  -110088 
  -72428   -48799   -71470  -109507  -139442  -157215  -159995  -151659 
 -165551  -206274  -205816  -148049  -111842  -120243  -124083  -114561 
  -90069   -44813   -22126   -34851   -53951   -84555  -139912  -203731 
 -243669  -252073  -243567  -222137  -198015  -179184  -159640  -142198 
 -125713  -115852  -130550  -161910  -198290  -232316  -246272  -250839 
 -258299  -237906  -190379  -174618  -197819  -198568  -156718  -118527 
 -100872   -69076   -36390   -35248   -44304   -60466   -90329  -102116 
  -91548   -90686  -109004  -118693   -83569   -15261    35398    63695 
   70560    10277   -78514   -91899   -31865    16564     -629   -45307 
  -62600   -89024  -158429  -223275  -232233  -193395  -154041  -135942 
 -111636   -51256    12502    13821   -51217  -120247  -149951  -159772 
 -154484  -113768   -74117   -73770  -102710  -134092  -153775  -194448 
 -247968  -252153  -233697  -244032  -222482  -117243   -29826   -44918 
  -83313   -88944   -90867   -94234  -115199  -159416  -177712  -172149 
 -175360  -152001   -99624   -71235   -61993   -50923   -58630   -94446 
 -116858   -99767   -91247  -121914  -175235  -225558  -222813  -164953 
 -105247   -68519   -79979  -145885  -205837  -226138  -220633  -188805 
 -145280  -109948   -94004  -113084  -146668  -181549  -206208  -181502 
 -153538  -177909  -211611  -230323  -233282  -218567  -214540  -209243 
 -173853  -117887   -63560   -52293   -89519  -131080  -158360  -170384 
 -173904  -172759  -147384  -103960   -72720   -56793   -54313   -65038 
  -67598   -61912   -74050  -108329  -141421  -137219   -84136   -19494 
   11655     -176   -28143   -24846    18547    43248    31598    23152 
   12695    -5189   -12984   -37255   -98620  -152442  -141588   -80073 
  -24567    11371    23310     5648   -12479   -29138   -65898  -102712 
 -129709  -179456  -240158  -256771  -236633  -227365  -238590  -251347 
 -248248  -238107  -223079  -172588   -98744   -59764   -66625   -77604 
  -74277   -80423  -118169  -185881  -258430  -297865  -295672  -289017 
 -297070  -297654  -276092  -213190   -98072     1483    17489   -18052 
  -51618   -63909   -49999   -33106   -41864   -82178  -140027  -180018 
 -191056  -193440  -176665  -135271   -97918   -61542   -23479   -12270 
  -31812   -75176  -119055  -133046  -148919  -175915  -169145  -160829 
 -190101  -196484  -152442  -123163  -139638  -147540  -122243  -116733 
 -137165  -148194  -162804  -177480  -163672  -130797   -99998   -76508 
  -59143   -50234   -48359   -52621   -74193  -105264  -117513  -107751 
 -105401  -123449  -134912  -130067  -116198   -84647   -57859   -52331 
  -44748   -47529   -74031  -100201  -119893  -133307  -134518  -125818 
 -117180  -128339  -145389  -137529  -130873  -145200  -149218  -135758 
 -117173  -105676  -120498  -137624  -129162  -117329  -111092  -114015 
 -145875  -181423  -190204  -192213  -200681  -212596  -228232  -232077 
 -221510  -209925  -190514  -160664  -138910  -128664  -112139   -89572 
  -70360   -51948   -51098   -80316  -112488  -128191  -133478  -125192 
  -99104   -80519   -88962   -95887   -75189   -44598   -27035   -24464 
  -29957   -34452   -33851   -37594   -48636   -54957   -58739   -69380 
  -76492   -73483   -72273   -72176   -60072   -46264   -51761   -65512 
  -61504   -50634   -63933   -83801   -87205  -107460  -128282   -98506 
  -69240   -84615   -97052   -94967  -102637  -104056  -101731  -126705 
 -147329  -131795  -131036  -156162  -161932  -161434  -176212  -189174 
 -190428  -171624  -136480  -118916  -131638  -146619  -149034  -152402 
 -159264  -167331  -179532  -177724  -159799  -156269  -160274  -144757 
 -124202  -114866  -113841  -128883  -142365  -123562  -104606  -116486 
 -128497  -126292  -126279  -131951  -138325  -142929  -153631  -173296 
 -174156  -147108  -133458  -140080  -135938  -125300  -113942  -101663 
 -104615  -116492  -122094  -124969  -126333  -122211  -122709  -137943 
 -148949  -140737  -124229  -103729   -87315   -90216  -101321   -92858 
  -61219   -37782   -34877   -24772    -6613    -7844   -16349    -8653 
   -7144   -31407   -62838   -83101   -88057   -82178   -75199   -74198 
  -78744   -71772   -44905   -27284   -32938   -39302   -47626   -67425 
  -77529   -78170   -92786  -107667  -108639  -111762  -116561  -120857 
 -126094  -119688  -120366  -150943  -176898  -164461  -139580  -131035 
 -132420  -137058  -140968  -147494  -163210  -183296  -204151  -204431 
 -190671  -208734  -232818  -223281  -211540  -210332  -205465  -200934 
 -190374  -164338  -136833  -124573  -121752  -116279  -110224  -106883 
 -112189  -132922  -144909  -118774   -87540  -102802  -142501  -163513 
 -162422  -141797  -118660  -113336  -115830  -115963  -114752  -108160 
  -84678   -49910   -39610   -66865  -105845  -130970  -130567  -117034 
 -104180   -95373  -108476  -131607  -139800  -147210  -144919  -127877 
 -133041  -142322  -106474   -51769   -33390   -46525   -65234   -86466 
  -97097   -92399   -96772  -126463  -160606  -156343  -127477  -122272 
 -128467  -125845  -120696  -116016  -128344  -151210  -158735  -152510 
 -132571  -121776  -147715  -155927  -119815  -106350  -129590  -149262 
 -158603  -167798  -172913  -147803   -99387   -69342   -60346   -75636 
 -119021  -139590  -136510  -167856  -206166  -196723  -156443  -123315 
 -118848  -117610  -102116  -125636  -187790  -230330  -247436  -235988 
 -188211  -118220   -39152   -20233  -104602  -176455  -168540  -167803 
 -178726  -151204  -132298  -121597   -71872   -45068   -68828   -76576 
  -76275   -85631   -86471   -98906   -98965   -50600   -13738   -38233 
  -54396   -11403    -5112   -92719  -192156  -256235  -279544  -230688 
 -154869  -130601  -140813  -124027   -58954   -20567   -72760  -126638 
 -109321   -68921   -43463   -44585   -67066   -62696   -36806   -39198 
  -45608   -47680   -92398  -155123  -190788  -209202  -213946  -197179 
 -179363  -174139  -155594  -129043  -121491  -126748  -146013  -145021 
  -95401   -63576   -87725  -141257  -175761  -159025  -140256  -145895 
 -163934  -187829  -142430   -57716   -91216  -214226  -303022  -345814 
 -352460  -342674  -331819  -284762  -206300  -144583  -111100  -107508 
 -116742   -80433   -16664     9969    -5394   -68085  -141720  -176898 
 -195197  -142164    -9452    30543   -15688   -21031   -95170  -234839 
 -242738  -187848  -158306   -89749   -76832  -148514  -159494   -89793 
  -33370   -54241  -125450  -182638  -198139  -177811  -179467  -203210 
 -163359   -92267  -115909  -217915  -237983  -151672   -87632   -15454 
   92403    81407    -1922   -31656   -86769  -141899  -132335  -132482 
 -122755  -110431  -213399  -324022  -271659  -176303  -137593   -59360 
   31947    44496    39823    70556    57890   -42425  -113633   -64642 
   16787    43398    40535    61456    90385    28472   -92244  -105536 
 -101965  -254025  -362341  -264732  -143317   -78393   -54611  -169001 
 -281990  -196264  -110143  -143010  -156266  -134878   -99061   -44477 
    1977   -12677   -68536   -32837    20316   -11334   -21243   -35064 
  -66491    -3433    13153  -118577  -143058    -6156    50544   -59548 
 -205567  -236389  -257889  -296698  -156768   -18458   -45443   -25276 
   38529    -5787  -170332  -384905  -493986  -461979  -401372  -352021 
 -311990  -226833   -28655   126090    40012  -183155  -324399  -310018 
 -226612  -236181  -283979  -180916   -29026    -1437   -82872  -194796 
 -200665  -164713  -254044  -292550  -244264  -224978     1142   287670 
  168224  -139981  -289259  -372672  -426744  -370430  -267078  -277365 
 -348308  -266361  -123037   -62545   -10098   -21879   -69789    38466 
  178038   205551   228615   249411   255969   286144   243885    82162 
 -122949  -297918  -389979  -391987  -342204  -283605  -206602  -112095 
  -53260   -14675   -24621   -42160   182486   490722   455831   189168 
   -6230   -75428   -55514   -63094  -125922  -167686  -286194  -545517 
 -723978  -534901  -113787   -26080  -279018  -307292  -120361   -23414 
   57622   160705   247337   348941   315914    97661  -100438  -183551 
 -195972  -249686  -321868  -265828  -248336  -419763  -539323  -468077 
 -385457  -426325  -509053  -472385  -243577   -13105   -40898  -267873 
 -509890  -595416  -378510  -127354   -45250   159501   333544   100265 
 -193903  -269601  -293854  -200111    56851   262372   349351   401359 
  424804   295859    35968  -112199  -187213  -275721  -238883  -286997 
 -521490  -488845  -267757  -367154  -419454   -16308   215076   -19660 
 -261787  -384054  -366916   -85869   256135   351689   178013     9780 
   68411   205582   106860  -131062   -65593   135572   -11357  -234206 
  -94074   162842   127371    -9305   -21147  -203477  -420001  -421775 
 -635354  -931203  -832827  -627454  -478132  -288771  -277894  -301020 
  -39892   296500   586299   749027   504181    85762  -152952  -264999 
 -326199  -329391  -268758  -274272  -384241  -350654  -121918    96888 
  244156   308981   325634   517625   716577   604401   512227   588622 
  565444   424661   114250  -167682   -94204   -50031  -218421  -293449 
 -419910  -517642  -231966   117609   220877   199239   141409   193807 
  397534   623535   769745   680702   498258   461204   488393   711942 
 1011340   757902    67917  -449266  -594623  -438902  -268664  -143391 
   89509   176704   156766   376141   545047   508693   480348   210112 
 -170375   -98265   228587   419339   423559   318944   273657   114181 
 -279200  -595317  -697049  -553509  -167522    63594  -148913  -368486 
 -280789  -317459  -542025  -533800  -444928  -581345  -782844  -841256 
 -671745  -447427  -403397  -295051  -108706  -211096  -454837  -610659 
 -759051  -830763  -719047  -481188  -187623    -3846   -74808  -243162 
 -362827  -465816  -478962  -364848  -326153  -413064  -480240  -551584 
 -544372  -355302  -280116  -391846  -317763  -115749   -78926     -635 
  130908    68783    78899   195079    86890   -16098    73438    79334 
  105281   302333   236457  -106682  -179524   -60849  -159771  -353825 
 -320178   -76860   184580   394467   464991   268331  -201737  -611054 
 -560197  -370742  -356991  -287145  -287491  -376169  -296514  -196308 
 -188451  -202718  -197495  -209171  -244498  -212460  -253115  -423809 
 -473214  -392605  -400643  -509653  -448757  -131943    24858   -97267 
  -90263    19076   -83533  -288549  -356281  -278613  -175174  -122658 
 -131595  -170124  -268097  -512137  -702382  -666655  -615614  -605585 
 -500674  -301341   -99854   -54881  -242975  -477049  -604509  -704675 
 -694570  -478754  -258519  -189384  -291995  -452785  -491555  -385825 
 -188416   -63238  -102991   -24943   244458   304803    82969   -58475 
  -45821  -121045  -248786  -220317  -184067  -253331  -244945  -253346 
 -395340  -400647  -138982   158067   214061    83802    86354   220665 
  217599    51105   -80454   -87150   -63077  -130320  -336676  -439142 
 -149509   155105     8718  -213619   -89977   115250    59661  -194517 
 -283406   -84157   107141   203058   282819   217853    18031   -72619 
  -16644   -42730  -193630  -224328    19476   430371   728559   743467 
  616626   405603    49666  -169923  -178155  -217030   -99885   121618 
   80365    17871    50503   -70679  -175198  -132525   -88531    -6466 
   90863    54724   -27859   -21733    69279   178308   184516   136815 
  124232    15099   -68445   120091   292972   204552    90108   106301 
  233408   390830   457485   343522    45841  -151507   -96287    -5197 
  108845   171925    -2569  -112095   -27106   -28285   -64660     5948 
  175986   361929   422477   438259   379676   245400   391311   494190 
  125199  -101590   -11965  -167883  -458581  -497119  -445959  -482184 
 -401125  -117536   201359   248425  -114516  -410595  -317332   -36069 
  181859    68223  -127965    21631   209722   147010  -119942  -496798 
 -635011  -546652  -577358  -644511  -625183  -516572  -253060    21991 
   92190    -8583  -104134  -131619  -150317  -237240  -336733  -337946 
 -310617  -263503  -217985  -291460  -348479  -315570  -192689     -278 
  -80223  -371299  -373590  -138069   -56496   -96184   -52088  -130925 
 -392943  -476435  -359102  -196076   -40196     7776     9383   -75397 
 -302140  -415902  -403402  -406672  -377160  -436183  -557527  -452939 
 -332937  -395181  -255599    40427    67680   -38705    -6438    97055 
  175667   247386   308218   276925   189776   154106   151794   205826 
  285091   154685  -207647  -417087  -327424  -319920  -453613  -472563 
 -496496  -498649  -285700   -67286    78449   272371   371952   324450 
  226716   122142   187795   480203   634574   398930    85720   -39225 
 -160232  -293782  -263576  -215781  -275833  -288812  -247093  -245081 
 -200423  -106386   -81276   -15647   188337   358168   476039   496659 
  362608   434741   566786   255750  -186116  -359365  -299355  -199625 
 -291784  -479206  -585112  -517635  -308880  -281461  -346180  -136845 
  210334   433676   410530   179899    21027    25195    78641    91937 
    2932   -20768    58153   -68002  -321536  -357648  -229913  -120812 
    6953   154364   178272   137619   168979   124360   -78140  -255776 
 -321092  -302174  -226750  -302779  -636750  -825697  -610931  -322431 
 -192019  -238462  -471275  -571862  -347989   -46569   125914   -83020 
 -567369  -650735  -277705    30389    56398  -183698  -453004  -524172 
 -499613  -483358  -452137  -396955  -393094  -553906  -723555  -625962 
 -412022  -332371  -197460    49414   114926    70375    44601   -84778 
 -153210  -122709  -209200  -325098  -370300  -313961  -127083   -21554 
 -119145  -252190  -265921  -171996  -143675  -301467  -477682  -450227 
 -334662  -298702  -179949   -95959  -276076  -310510  -157793  -194822 
 -260641  -267183  -281651  -240808  -115133    31291   -69226  -324137 
 -395077  -332243  -210385  -102940  -156087  -281904  -256910   -45373 
   77944    23468   -15070   -58479  -184681  -389587  -511917  -327248 
 -105914  -126154  -206772  -255941  -284998  -221848  -117386  -119828 
 -227151  -339593  -425798  -448459  -432244  -382027  -186737     8031 
    6921   -25400   -41404  -184831  -257766  -112213   -11711     6532 
  149104   342004   384513   298701   250603   225651   104738   -67792 
 -147868   -84137   -31561   -80250   -98028   -56448   -58005  -166819 
 -313746  -277757  -103724    10700   242912   509263   392300    43405 
 -237170  -383680  -353660  -318627  -281503  -104440   -16430   -45019 
   64867   216868   213942    66533  -117019  -197781  -194890  -205371 
 -200503  -183597  -156652   -83789   -67651  -170344  -315115  -389406 
 -256504   -61117  -159918  -444226  -486781  -297160  -178175  -140385 
  -79907  -107505  -274602  -402186  -381422  -318377  -310659  -357999 
 -361908  -223893  -174131  -397059  -599194  -585175  -461489  -304082 
 -179120  -141415  -196790  -311503  -372369  -296811  -145139   -69190 
 -131773  -212971  -220563  -205885  -195735  -145705   -53061    10119 
  -33578  -239754  -585663  -830209  -792930  -682754  -673616  -639196 
 -533899  -467849  -441290  -337720  -122297    77445   118351    38890 
