Origin Time       2024/01/01 16:10:00
Lat.              37.495
Long.             137.270
Depth. (km)       16
Mag.              7.6
Station Code      ISKH01
Station Lat.      37.5266
Station Long.     137.2844
Station Height(m) -152.5
Record Time       2024/01/01 16:08:27
Sampling Freq(Hz) 100Hz
Duration Time(s)  300
Dir.              1
Scale Factor      2942(gal)/8224139
Max. Acc. (gal)   404.542
Last Correction   2024/01/01 16:08:11
Memo.             
[...]
 -123161   -38317   119273   242963   234257   150699    71177    42403 
   87050   141424   155316   113637    -2527  -104589   -78456    58947 
  201615   254121   225990   190092   173461   178799   186131   196317 
  290999   388957   275132    34199   -72505    11817   121063    59811 
  -87430   -36969   225406   439655   476963   404597   282021   177728 
  151081    84268   -77414  -107589    22921    46907   -47024  -109628 
 -128038   -64959    70198   145775   121736    61111    28827    55590 
   83355    76162    74382    27301   -88650  -161962  -200345  -259492 
 -244435  -138079   -74542   -68191   -19726    36559    51953    97405 
  116823    27043   -47248   -24246    17527    33561    28710   -28791 
 -100114   -74042    50593   230434   399085   401483   196704   -20038 
  -22882    75722    14504   -58143    79652   321428   548768   692652 
  657367   460745   277218   251020   306521   348618   401607   461370 
  518020   528314   389429   166232    67863   168246   338443   393465 
  322659   288547   300889   240493   152886    87561     2218   -37044 
   -6435     2370    11454    27314   -95872  -318651  -430253  -456583 
 -480590  -461043  -433930  -343845   -92222   180690   399857   580031 
  559561   344691   147163   -11966  -145517  -129153    22577   134765 
  211921   350218   462600   477823   390000   177465    -8920     3376 
  112842   136460    94234   138684   306481   427644   385121   282498 
  185164    76118    44554   145613   237536   202644   131989   105973 
  139869   293693   463625   488870   439979   373410   287652   258855 
  180661   -51526  -229701  -247900  -222458  -191600  -140533   -42979 
   90212   139353    85421    71311   112089   128826   178291   252655 
  234523   159487   125444   154095   194360   121591   -50708  -120880 
   -1391   174402   239904   167744    57092    10941    18670     3967 
   33700   181479   309464   312577   253941   222245   243675   231549 
   92580  -112290  -239303  -251973  -201870   -85850    62145   123815 
  130381   177503   149123    16784    -5100    77684    96874    99308 
  117248    49558   -44136    -5428   146902   284746   372429   422687 
  392104   292258   212857   153870    78817    19664   -21162   -48336 
  -40080   -34839   -45193   -27612    -7879    -7761    46411   185442 
  297670   295288   253065   214528   135882    89075   111697    97858 
   78969   135560   151352    51009   -60826  -115384  -106320   -12314 
  126547   224110   236314   178322   143946   192261   226172   161921 
   72639    73711   186001   310266   375467   439842   495182   465566 
  419222   383258   273408   155763    72200   -86857  -254157  -275638 
 -210242  -147988   -75470    -2386    72894   143683   124005    54255 
   36701    12044     3793    90050   154809   159952   208997   279825 
  305845   272805   146799   -19826   -73066   -14324    37486    89124 
  150342   170353   181283   199875   188676   152055   117076   123221 
  171593   198073   165925   100566    39753     2778     4873    46296 
  116344   220580   334305   402304   396991   310555   175593    73692 
   51506   107885   183023   157299    51440     6990    -6513   -71138 
  -90683   -16738    36193    25069    27006    72671   102671   112766 
  194977   325201   360483   285249   191720   125248    77646    42087 
   45030    87497   131982   165952   166534   114613    44820   -17120 
  -75450  -142200  -179938  -116750   -15446    33802    80171   119403 
   98818    70799    60041    45014    49098    68584    67876    51725 
   56323    94555   137504   152181   143721   155305   197155   214440 
  185750   158118   143534   109267    72482    59474    38859    13922 
   23719    52901    83845   112587   117591   109746   101451    85303 
  106683   196350   290871   332721   317393   256279   183743   127005 
   83139    47849     7804   -44332   -74297   -68274   -65472   -70729 
  -47528    -2096    38866    89621   144109   164312   174507   198796 
  179232   102880    50323    57229    91547   129497   134757    82984 
   28282    21832    55871   102215   139356   182430   225551   229552 
  205849   189693   203682   230364   212562   165343   156691   180569 
  189125   179824   176490   182567   164670   104352    57157    61639 
   85514   113354   153790   178718   147471    97447    95018   112853 
  106384    90987    77647    57298    27070     8599    25857    60048 
   89633   112263   119750   124956   144521   169183   191693   190478 
  155443   136173   138017   111511    82864    96186   126716   142561 
  146060   154448   151318   120241   116432   154985   164463   150556 
  165927   184692   187513   191613   179720   136443    82300    33951 
   -4425   -15611    13784    59194    95386   133508   166603   167730 
  152007   146277   154718   164982   150809   116028    90335    82283 
   88784    94394    71070    24314    -3044    13512    57024    91098 
   96059   105447   157854   206793   192426   144495    98707    53547 
   34137    52802    73890    72485    56679    49986    68177    85785 
   71810    44490    28933    37357    80169   133276   163447   167015 
  153513   133132   112986    98115    88128    76033    75822   113622 
  177896   235039   251168   207636   149980   131272   154631   219573 
  312600   389213   421317   400975   324364   242391   212067   184869 
  115427    53623    32603    51603   117559   190764   212788   181989 
  122872    68697    47694    39943    28366    26628    12885   -50167 
 -128170  -164074  -169862  -158688  -113009   -55337    -9304    35302 
   83631   135170   178892   202949   208129   185151   134640    84331 
   44290     2212   -11376    46205   124337   147390   140987   157939 
  173870   157450   141070   154479   185113   219014   240016   231385 
  214231   211221   204067   173971   141323   137118   146111   152338 
  171313   187409   186779   170275   125647    82251    73797    87065 
  103897   114288   131504   171186   181780   103990   -13306   -94190 
 -144566  -158364  -106481   -36558     5648    44644    91324   137006 
  181314   197938   196356   219937   232839   204282   158805    97335 
   64763    99505   120274    83114    43189    26850    38766    73851 
   93040    95783   108279   134977   188192   233008   211473   164100 
  145262   126443    80632    44963    59190    89881    92877    98909 
  129753   149674   152853   153995   149179   145338   143434   135711 
  118200    78748    25134   -15099   -24313     4973    55570    95601 
  116511   125722   133666   147116   143893   104307    59724    35784 
   14747     4941    27488    45620    35553    43622    81186    95841 
   86144   101417   138133   156562   143252    94786    21489   -39835 
  -59263   -27434    35488    86802   118004   144355   147965   122505 
  102074    90513    71743    61402    73996   110822   162086   185253 
  152086   100562    78102    86494   117536   159934   177249   151711 
  115666   111052   131350   134150   119541   106813    78424    41315 
   17649    -6922   -20271     9019    64773   114137   143865   156768 
  160158   156227   156103   169789   177753   161404   141166   133417 
  122625   115593   123438   122015   113258   110605   106411   128333 
  182391   206925   181337   150449   148417   166726   182243   198856 
  215653   204564   164293   121092    99021   109069   124737   116401 
   89708    56382    34547    43711    67149    75679    65109    53337 
   62883    87694    96826    83593    63856    47185    45266    55170 
   57383    62240    78016    89806   103839   111356    93228    74779 
   67433    54338    44223    44227    49918    64719    79462    87111 
   94585   100789   109944   126330   139352   151227   166249   165676 
  144485   129235   128182   119261   106018   111003   126231   134018 
  130616   120280   113791   115358   126397   146044   158025   156990 
  157042   162326   166414   164540   154032   129101    95138    82452 
   98722   113310   115171   117516   124222   126678   113520    91962 
   85013    94089   103339   115619   140386   163989   167543   153995 
  142528   150232   172933   189336   192661   192603   191115   182829 
  169877   159823   152460   141439   123550   102190    84981    71562 
   64569    79951   111678   134077   143968   151893   161352   168183 
  163976   156790   157123   149382   126652    99404    72342    63319 
   81575   104334   120352   128560   120884   109668   111713   122311 
  133999   142916   143937   139158   141272   150449   146861   133274 
  126341   118899   112261   116344   126674   140401   148458   154776 
  178467   200415   202651   201249   190097   160658   135554   123734 
  114021   110506   121167   130800   123329   108795   110704   129030 
  136040   134388   137382   118638    80597    62575    66930    71968 
   65335    48339    40347    53109    69604    79764    98331   121586 
  126183   108139    77467    52778    50753    59308    66580    75934 
   79488    74746    73745    80244    87606    88369    85702    91886 
  105984   116725   123824   128522   125243   112615    92554    71837 
   59420    58695    75143   102703   122782   135726   140930   128794 
  122197   139413   153585   147356   130616   114501   108966   114210 
  120039   110538    85037    69805    69253    73273    94142   125263 
  143866   144964   130678   119882   128795   142291   144244   126349 
   95593    75042    73053    91297   113880   117805   121717   137650 
  146921   148186   143328   130445   128592   145756   153721   138557 
  123677   122478   125957   125857   122883   125091   116864    80522 
   55950    64142    66272    64794    81052    89403    80916    78021 
   77214    60905    38076    33037    46259    53185    51892    62937 
   73965    70497    72763    77093    74295    79978    85483    88870 
   95539    80574    64480    84993   102942   102204   127290   160054 
  157756   149659   167078   186781   190649   201542   227696   234778 
  218308   211860   220715   235022   238096   202984   148138   113825 
   92344    74083    81479    93683    73963    48451    30488      641 
  -24093   -23664    -6778     9497    37346   110108   183099   197239 
  208147   236150   226428   225664   258098   249139   222532   217937 
  174158    84661    20216    -9117   -35514   -26169    24140    47317 
   53010    68200    58596    48092    71826    89297    87581   115624 
  178183   215823   204260   185388   174472   146169   121332   123834 
  125321   117477   107509    80530    60910    73580    69813    57388 
   98693   154190   176089   174298   154911   160054   218108   279350 
  293109   270900   277771   323546   320494   251764   198512   165439 
  119356    99507    97853    55925     1606   -23436   -18978    12214 
   33227    40941    84362   114739    74912    56971   100768   122011 
  114380   102199    64597    28520    32850    52435    51143    55005 
  101150   157828   196973   245390   281794   257987   219657   227738 
  288566   393426   476281   480016   466794   477974   449740   376851 
  342981   367483   367200   262993   109312    33583     4772  -103123 
 -235168  -248906  -182394  -145876  -139349  -165689  -231724  -250923 
 -169592   -32860    59410    74869   157087   325278   357162   226686 
  129598    84620    20117     6589    57510    53469   -32204   -75814 
   -5950    60696    61226   107163   212908   288094   321393   312820 
  246462   211597   285132   344425   287752   217182   216529   234684 
  202913   140471    79752   -34030  -109093    36540   230806   185907 
  -38840  -182005  -100047    65240    92981    35164    42557    79132 
   47418   -80561  -217694  -212242   -64436   132209   292140   327075 
  358541   488787   506979   385803   327504   258256    78640   -25033 
   27720   101136   199274   359685   448453   405345   271490   100098 
   57132   224475   410108   430872   410516   551148   749394   790194 
  704047   637174   586359   474734   344524   209925    12935  -107044 
  -44572    32030    55798    66143   -10000  -141721  -216935  -296900 
 -459017  -570901  -470666  -188553   106380   249289   221169    70522 
 -216413  -519355  -669366  -695722  -678283  -657520  -591066  -445305 
 -374151  -413407  -340308   -96240    62407   -31645  -210066  -286382 
 -280430  -229032   -93991   144747   435348   645741   700377   715342 
  740538   619228   407124   339534   315331   175833    94653   186803 
  391884   672571   939589  1114577  1126795   861617   455815   239319 
  249215   223264    21104  -290718  -575861  -608264  -370303  -224787 
 -297720  -307346  -195079  -173786  -245833  -277971  -305854  -313009 
  -99125   324988   659550   684155   436984   118262   -73179   -33324 
  102963    79573   -42876    14141   260531   431728   404481   328191 
  353870   463515   548738   588779   619043   611890   641163   771942 
  788794   589933   384868   290390   319218   389121   279771    58762 
  -51187  -143268  -303878  -384222  -347337  -328518  -378816  -446241 
 -421615  -191431    51375    76775    57589   122775   349887   807208 
 1093200  1024242   901941   782937   744441   837371   781397   605394 
  461263   203709  -110770  -312155  -415054  -392609  -272937  -219682 
 -153786    68265   198340    84643   -57959  -106456   -45555     6399 
  -96180  -122542   -42718  -214058  -394599  -168655   203138   535729 
  849681   994673  1047343  1065969   981819   922171   869852   813057 
  969043  1241461  1242615   885670   480388   297145   338288   476359 
  480609   294705   201094   205829   151526   231908   355860   164193 
  -89892    -2220   226282   358268   463955   462715   305772   108540 
 -203602  -587426  -758166  -681330  -450997   -82872    74379  -245181 
 -526884  -488016  -477424  -422259  -276556  -329692  -352664  -254645 
 -357812  -371417   -21556   271583   254979    15816  -312341  -505491 
 -474630  -283659    -3942   209503   237996   129361   -33955  -191270 
 -259209  -277989  -390225  -513970  -566161  -617521  -517359  -322627 
 -324614  -312122  -183949  -181819  -133245    19819   -12418  -134065 
 -155962  -142832    -5161   389769   775730   725226   278603   -28776 
  125493   365501   240703   -13711   -94875  -163467  -249879  -324722 
 -513499  -633710  -542899  -428988  -378662  -352020  -225235    24984 
  235307   340985   310398   271499   465662   748084   824463   612798 
  207654   -80523   -64012    19828     2531    53239   223970   323277 
  215989   -24934  -162888   -80496    58446   113115   171510   248805 
  211964   206562   416140   537027   312831   -41530  -294572  -409727 
 -452744  -477609  -359656   -66935   133149   120167   -23337  -233833 
 -338485  -309264  -282298  -174087    35085   255615   494149   578811 
  470616   415889   365069   232938   170772   168747   182337   250245 
  327658   344344   195519  -112629  -365758  -498397  -597273  -583123 
 -424957  -336168  -379300  -374575  -264918   -99804    36498   -50005 
 -296303  -335863  -161921   -83322  -148084  -239836  -300260  -299533 
 -232405   -51811   219393   426208   545867   636178   671356   688483 
  705295   645668   545414   498190   488168   450582   392065   346770 
  266380   139604   106513   223943   302436   233722   178212   232475 
  302390   290582   168577    16610   -41932   -17446   -16652   -94813 
 -218149  -280797  -202682   -85853   -73461   -29605   197937   421802 
  496023   520126   530734   514571   545258   609572   564376   411037 
  321352   387687   554535   677083   660881   559901   408636   199010 
   81260   152891   183776    71710   101563   324839   401959   192496 
 -115434  -363039  -519546  -588870  -618964  -622840  -603863  -660903 
 -758272  -731732  -616866  -554941  -524722  -419625  -244494   -64739 
   97164   182399   159543   162479   282322   411704   431553   335126 
  230150   191134   149253   189058   432819   602654   523705   438484 
  371506   173919   -54109  -189830  -203142   -89214    84568   202414 
  145849    28922    87413   210597   263011   336287   404430   451257 
  475476   342369   133598    81842   144695   150292   123969   110137 
    8029  -139017  -153040   -30732    54791     6631     -926   150870 
  326905   495108   624339   632070   675159   823462   901342   826873 
  647203   462809   353706   309047   295928   306485   362481   440995 
  436800   324930   213348   172370   187266   222239   217242   206701 
  307022   440880   440480   333157   215067    97108    59490   216039 
  412376   427790   361552   403945   521387   544482   440239   338790 
  287458   298571   394924   432685   296073    89140   -59186  -123020 
 -180658  -283136  -233420    73769   289445   214543   154579   347014 
  611722   665428   578333   557270   511070   352810   220112   214239 
  370828   650204   828873   764041   609205   541694   578542   644302 
  613909   467291   287685    64201  -162369  -253052  -263050  -315241 
 -338867  -306783  -334467  -355217  -213941   -35907    48276   136067 
  191340   151171   150948   159092    70185     3896    18153    55791 
   85202    22515  -109738  -188416  -234319  -302459  -411077  -513072 
 -449053  -241093   -42218   153940   347931   475606   526622   549834 
  557097   437204   226376    75413   -93305  -317204  -470985  -522934 
 -425630  -164593   118184   357783   487012   414913   321268   334166 
  315337   287184   315252   265096   129035    -1547  -150152  -307351 
 -468637  -642085  -675191  -535293  -489615  -614123  -657462  -559519 
 -460987  -348035  -232757  -200394  -181433  -152347  -196774  -301386 
 -378606  -359884  -315796  -314158  -288594  -320538  -449107  -450701 
 -286004  -158043  -165102  -230789  -250217  -225552  -168889   -56513 
   49862   159561   387387   601722   546613   254504   -76581  -304271 
 -381138  -396812  -358113  -218249  -194509  -379848  -478800  -362421 
 -225418  -165105   -95206    25164   136063   125776     5884   -36784 
   55975   201711   297801   270711   208538   166098   135688   177201 
  203551   132711    94845   168471   335916   518560   592753   609199 
  617463   487858   265956    98817  -105902  -321494  -245809    73938 
  189504    16788   -58772    95975   205623   176114   149694   145692 
  165279   204390   225451   350146   573173   646243   526035   359523 
  248670   281940   399551   415455   341980   285511   194745    66131 
    3086    -8302     6878    95011   236916   336432   273541    99071 
   41710   167938   310074   300032   197145   189434   295749   414401 
  438963   285255    83486    85642   275360   457814   577613   621247 
  559866   498584   549582   612937   528705   346987   230585   257292 
  387258   458364   355043   151017   -40414  -136366   -92448   -30766 
  -92593  -205810  -251027  -241212  -246450  -274506  -257377  -169375 
  -83088   -24003    83938   198950   190386   116591   125501   194398 
  200411   171281   223366   301719   277265   145068   -17752  -127076 
 -131716   -67566   -20935     2991    26326    35311    97089   219457 
  243236   162094   103850   -18157  -227055  -235631   -17910    73676 
  -36971  -133497  -168291  -194645  -177826   -92963    76496   321659 
  510912   609892   703304   661212   394737   164617   150893   265819 
  383644   353173   139213   -59852   -95030    -7380    58804    12888 
