Origin Time       2024/01/01 16:10:00
Lat.              37.495
Long.             137.270
Depth. (km)       16
Mag.              7.6
Station Code      ISKH01
Station Lat.      37.5266
Station Long.     137.2844
Station Height(m) 48
Record Time       2024/01/01 16:08:27
Sampling Freq(Hz) 100Hz
Duration Time(s)  300
Dir.              4
Scale Factor      7845(gal)/8223790
Max. Acc. (gal)   595.395
Last Correction   2024/01/01 16:08:11
Memo.             
[...]
   25662    56176    71074    86521   101960   100957    75204    28333 
  -28113   -73993   -94119   -94567   -99098  -124498  -153881  -159574 
 -139325   -98702   -44643    -9454   -28782   -89147  -141961  -177793 
 -215110  -234504  -221530  -204333  -197883  -200557  -218984  -245836 
 -253147  -216757  -145800   -75315   -19481    28239    56913    52910 
   30693     4773   -38433  -103308  -157442  -173917  -154454  -106972 
  -49318    -9455     4534    11905    34924    77834   127912   167009 
  185114   186255   181514   187201   215677   261654   311089   353454 
  383026   392625   382209   373840   380119   384544   371912   342470 
  309444   286609   277188   280982   285700   273418   248846   222640 
  193085   167329   160732   172633   183551   179381   167325   154129 
  135014   108687    69363     3805   -85573  -182471  -276883  -359873 
 -416379  -444538  -456169  -449884  -419955  -376308  -324440  -260537 
 -194552  -137875   -80397   -16256    32242    49588    52783    54202 
   37858     -251   -31060   -38346   -33111   -14413    21200    57090 
   86641   113872   130646   138651   145436   133069    87741    30231 
  -15296   -43854   -57680   -59478   -59080   -66077   -68947   -57883 
  -52185   -58882   -63616   -76639  -108784  -139700  -155811  -158384 
 -138937   -91285   -29393    23253    50970    42898    -3944   -58842 
  -81858   -71813   -33991    32277    91297   116630   125145   114604 
   69498     7596   -42979   -75024  -102286  -123503  -108826   -50904 
   28026   104688   155136   169032   149265   107239    69353    42300 
   10797   -23799   -51713   -67362   -65497   -54417   -51572   -57492 
  -58533   -51075   -43062   -35799   -22110    -4298    10540    29789 
   55331    72447    87496   115326   135206   135472   143445   157293 
  149625   143455   171969   206227   215266   220203   231021   225578 
  207299   196406   182498   140998    74382     8621   -39772   -72964 
  -95592   -98547   -70818   -28809     5042    33647    59629    72796 
   71479    62691    51312    34871    -1136   -63670  -127977  -162826 
 -162591  -142484  -128696  -138705  -163028  -186525  -205659  -216056 
 -210489  -189648  -167314  -156043  -142979  -106998   -50017    18806 
   94298   160729   206913   238549   254345   244447   210265   159880 
  100072    37284   -23280   -75609  -112275  -124677  -104043   -53249 
    1543    28549    23635     2867   -28826   -68179   -98250  -108504 
 -100116   -73700   -32252    15047    53177    75176    89826    95052 
   82082    57770    21590   -29343   -76036  -108213  -132399  -138065 
 -109171   -54476    10492    83127   151104   193472   212541   216882 
  194105   138431    71740    20104    -4851      831    37854    96707 
  160135   216884   259899   274201   250202   195993   124217    55497 
    8303   -29069   -66761   -90834   -97363   -92053   -76187   -57682 
  -44455   -33184   -17346     3203    20736    27596    25898    23814 
   26007    31585    39127    50957    60284    49881    22221    -7481 
  -39515   -72218   -99175  -126300  -158988  -197766  -238549  -268853 
 -284048  -286029  -268867  -232690  -193321  -163831  -144035  -132958 
 -133199  -137816  -134689  -122719  -105736   -85629   -65140   -44718 
  -24464    -5522    11699    25112    37142    54756    77152    99181 
  120866   142238   158731   169280   174984   167687   144094   116707 
   91677    67979    55294    62532    85757   119260   158036   191691 
  212830   220245   210057   180450   138726    93700    50718    13263 
  -17305   -41586   -62077   -79859   -91466   -94301   -88542   -72389 
  -43683    -6683    30438    65172    99013   131244   160316   184921 
  201448   203698   191713   173341   149299   115485    80233    56767 
   46480    47009    59995    78606    89334    89284    85333    84391 
   88299    89869    81064    61137    32625     3221   -19214   -38178 
  -60272   -87181  -117165  -147344  -177822  -203052  -213187  -213044 
 -212730  -210845  -207705  -209922  -213503  -207179  -187876  -159187 
 -131419  -117639  -114637  -109437  -101210   -92820   -78830   -56857 
  -31671    -5117    21756    43772    59161    69198    70779    58981 
   32836    -1328   -34156   -61520   -80825   -85062   -68870   -36504 
    1883    40921    79467   113530   139873   159678   173002   177831 
  174032   160736   135465   100623    62471    25176    -4278   -15171 
   -5795    17066    48103    80249   105509   123111   136935   150315 
  165811   182926   194976   193734   180301   165561   155574   146772 
  139907   138319   134281   121325   105418    92862    84759    80866 
   80755    80792    73479    55094    28907     1777   -20569   -36991 
  -48598   -59147   -73052   -89228  -104715  -119612  -135754  -152151 
 -166502  -182039  -197694  -199520  -177942  -139908   -99076   -67988 
  -57048   -69531   -99266  -133616  -157952  -161519  -140724  -100225 
  -49638     1987    46291    78873   103133   120773   125847   119450 
  113278   108839    95941    71204    39671     8040   -15187   -25843 
  -31689   -41337   -52890   -64339   -79930   -97899  -107320  -102018 
  -85604   -63234   -40139   -25791   -30526   -55966   -90919  -121853 
 -141521  -143001  -119983   -78645   -39482   -18369   -11063    -6069 
    3970    25300    56767    92295   130063   164868   190741   212787 
  237317   260236   274959   279331   270831   245818   206386   162129 
  123429    97276    88719    96507   109422   116644   118743   121819 
  124110   121035   116827   114139   108753   100830    91670    79124 
   64397    48078    26789     3163   -16590   -32008   -43517   -53715 
  -70028   -93685  -122751  -159077  -199382  -237465  -271579  -298576 
 -312534  -311150  -293668  -252734  -179844   -82345    16818    98123 
  152138   175914   174989   155142   119088    76400    32880   -11801 
  -48675   -73121   -92484  -105829  -105804   -93326   -74939   -57276 
  -44971   -37208   -28408   -14793     -909     6615    11427    18139 
   19580     8602   -10681   -25860   -25671   -11218     6129    15078 
    8320   -16136   -50361   -77294   -89244   -92381   -86044   -64855 
  -31592     7300    44487    77005   107817   133602   145744   140751 
  120112    89467    58928    37800    26879    20142    18095    26383 
   42072    58716    76464    95898   110673   114268   108217    96237 
   79335    61204    45512    30505    17440    12681    16318    21527 
   24865    28258    31297    28688    16376    -2581   -21039   -37226 
  -52043   -61487   -62459   -56215   -45230   -33790   -26779   -26032 
  -27919   -26659   -21763   -15774    -8135     -155     1794    -5100 
  -17089   -30542   -41758   -45774   -43649   -41203   -38827   -31757 
  -16741     6054    32362    54594    68790    77874    82594    80457 
   76441    74993    70640    62051    52277    36599    13090   -10602 
  -28251   -34690   -25141    -5574    11851    23093    32972    44450 
   54911    62712    64913    56619    39178    16706    -8715   -34229 
  -56586   -74179   -87952   -97144   -98721   -95898   -93376   -88871 
  -82051   -77291   -74061   -68396   -61433   -56212   -49054   -34740 
  -16536     1116    20534    38955    46728    45457    43734    39398 
   31125    28713    32787    31757    24935    18665    11125     4241 
    6178    15666    25176    32147    38250    44452    50040    56050 
   64523    74856    84838    92273    96061    96026    91548    84204 
   78170    75741    77249    81866    85688    86022    85291    84672 
   82305    79624    78750    76447    68935    58334    48863    41077 
   34865    32661    35205    38646    39912    41419    44980    47286 
   47027    47143    48516    49690    49624    46341    37982    26217 
   15643     9479     5744      311    -6656   -12834   -18449   -23579 
  -26677   -27444   -27633   -30117   -35158   -39199   -42310   -49698 
  -63223   -78968   -92346  -101127  -103697   -97630   -83479   -65404 
  -43737   -16841     8102    21682    26215    27396    23284    14739 
    6999    -3329   -16988   -21223   -11493      454     5103     3469 
    1401     1945     5216    11769    18561    20403    18202    16042 
   14844    15030    19349    28588    37104    39534    39343    41902 
   46808    53354    63576    76485    87039    91952    89248    77198 
   61200    50584    46843    45870    45555    44671    42777    41515 
   41030    40450    40790    42217    42601    39555    31502    18134 
    1047   -15834   -29817   -43178   -56315   -63416   -63113   -61007 
  -58519   -51630   -38850   -22731    -7117     2434     2532    -1730 
   -2876    -1642    -5193   -16237   -31322   -48718   -65713   -73917 
  -69097   -57470   -47295   -41184   -38061   -36822   -35430   -30433 
  -20579    -9117      117     5929     7238     3659    -2721    -9783 
  -15334   -17899   -17010   -12353    -9288   -13468   -20071   -21898 
  -17046    -7245     3168    11551    17618    20783    21627    23576 
   32822    51619    73353    91319   104292   112596   116166   114292 
  107362    97436    85000    70646    57177    46791    41149    40441 
   40300    36024    27793    19805    17455    22729    32644    44120 
   53994    57678    56890    57142    54544    42843    27291    15445 
    8170     8411    19570    33350    36316    25219     5721   -17474 
  -40084   -53896   -53266   -47031   -52321   -68111   -79023   -85810 
  -96545  -105659  -104828   -95770   -87679   -84349   -80550   -74868 
  -70322   -65697   -58671   -50851   -45839   -45577   -48504   -51140 
  -47694   -29116     4351    35887    55942    77116   105821   128326 
  139191   146372   149578   146519   142715   139118   130107   114733 
  100365    95435    98818    99885    90396    70017    40072     3889 
  -27880   -48285   -61900   -72315   -80630   -91427  -104403  -112754 
 -108032   -80603   -30491    25560    72266   112552   150684   176223 
  184260   180985   164864   138082   114685    92460    53312      190 
  -45069   -71475   -76010   -58999   -35544   -23674   -26264   -35923 
  -47048   -56469   -52127   -20073    29493    66877    76073    66881 
   52540    37372    33702    51525    73133    75180    53068    11408 
  -40923   -90050  -123191  -132167  -115904   -86290   -63313   -55281 
  -49993   -28784    13302    67713   124052   171108   204954   227522 
  232033   216796   194306   166388   124449    78437    37840    -8621 
  -52972   -71903   -70097   -63524   -55198   -46792   -44664   -47283 
  -36952    -4141    24972    18423   -12602   -34157   -41486   -46653 
  -46256   -38709   -34252   -36639   -40286   -40401   -42635   -49458 
  -37609    15255    89523   146088   185612   228206   246912   226069 
  214573   226639   231851   239037   257578   264995   251927   226841 
  199212   165746   119291    70826    18675   -57709  -152884  -240918 
 -311913  -370576  -406482  -399811  -362051  -330016  -313627  -285350 
 -238755  -206817  -200962  -197660  -178368  -149561  -131557  -117629 
  -92059   -75124   -72489   -61214   -42718   -17741    28036    93039 
  166426   228977   268749   301689   326739   315235   274001   246516 
  242130   231240   204966   170560   121633    67396    27234   -14754 
  -80786  -150323  -192190  -206053  -203420  -193272  -187039  -186457 
 -186575  -187142  -175138  -132125   -72735   -19521    30889    71648 
   83555    68152    45077    38469    54518    82385   113807   133331 
  129668   122331   128210   129033   128544   169199   247540   313663 
  348717   374560   406355   427362   422490   399135   370387   349852 
  338345   329236   325282   313328   276355   229446   192013   167240 
  153516   145708   143154   146457   140301   112757    83137    68867 
   52137    21242   -10251   -40618   -75350  -113526  -165156  -250302 
 -373188  -482827  -519563  -513438  -511110  -497789  -482517  -479035 
 -453255  -409519  -373365  -334451  -307239  -313559  -327080  -311870 
 -256805  -171093   -69718    30939   105979   132216    97622    22966 
  -25929    -8514    56577   139486   196850   197046   166155   123304 
   55343   -28371  -101737  -147158  -152911  -116245   -48401    39565 
  130524   174515   142847    73151     2046   -35140    16548   121810 
  184769   225583   291247   281907   112259  -134211  -336441  -441217 
 -468628  -466334  -452025  -438781  -416113  -355276  -267984  -135811 
   67051   267413   411026   527593   592369   538328   410979   329976 
  278752   161387    28102   -50278  -101750  -102897   -28625    75728 
  207823   351766   422609   410360   387158   384628   385481   366917 
  334025   322099   328492   306590   257477   227944   221605   210629 
  186254   141650    72481   -12136   -96471  -167155  -238624  -332027 
 -436939  -521055  -554449  -531746  -437900  -233679    42859   271633 
  390865   436087   454640   451723   433976   440573   460372   421189 
  326311   252634   208048   154322   107484    84256    53072    -5606 
  -94606  -233880  -396808  -472096  -416635  -338223  -273631  -140854 
    2864    62467   131110   269036   368710   354342   292783   316174 
  410071   416962   383031   466406   579776   610900   589167   534748 
  487179   441769   361204   305587   273379   220949   209688   236413 
  226141   183693   133996    89079    56232    19946   -13666   -39240 
  -74526  -111310  -131272  -138122  -153019  -200934  -281234  -368456 
 -448082  -514074  -552189  -557961  -532808  -484294  -460107  -498982 
 -559160  -588438  -599772  -612821  -606472  -563604  -498519  -421669 
 -332583  -254399  -213012  -199368  -179919  -106910    43281   219272 
  346424   404154   395474   309982   172542    45052   -48149  -102763 
  -96244   -81592  -149185  -249955  -301475  -316066  -279817  -183851 
  -99287   -58666   -40489   -42399   -60146   -75471   -79623   -65843 
  -31741    -3400   -11215   -53253  -112329  -166568  -189845  -187731 
 -180426  -143591   -67690   -26887   -61672  -105899  -119392  -120258 
 -104588   -89460  -113069  -156443  -188775  -208155  -205745  -181642 
 -152271  -123358   -96298   -72729   -49862   -22088    13887    35587 
   16070   -19718   -32815   -19299    26071   101474   166125   189953 
  184516   166158   140061   109876    74252    38780    27764    49937 
   81045   102753   124407   155988   184168   189909   172949   146071 
  121807   106293    95538    79043    50191    11657   -31989   -79436 
 -131673  -189101  -240757  -269867  -275949  -275498  -280446  -272475 
 -210899   -89800    49948   177352   285022   364624   406495   411193 
  394872   369152   323146   238477    99616   -98053  -303558  -427735 
 -467397  -501981  -546750  -549521  -517548  -495316  -433543  -283242 
 -138894   -76532   -42692   -10465   -13271   -27594     -625    59811 
  124040   186048   242626   293774   314693   265654   189410   154044 
  158610   203760   284293   337713   328746   296372   278070   267537 
  264915   274626   275348   265065   250095   223989   199652   173279 
  132835   114743   139186   163872   160949   147044   123774    68721 
   -9103   -69273   -94520   -88149   -49003    -5144     2650   -12505 
  -20640   -20318    -4938    27660    56157    72068    81688    85625 
   85261    83504    97430   154928   230180   257755   251896   268556 
  266112   201174   142479   124664    95188    49266    12553   -42438 
 -134717  -231936  -310351  -373554  -415185  -424534  -427285  -463193 
 -522552  -558819  -547798  -517012  -503933  -465489  -339032  -182622 
  -91224   -56398   -36225   -41096   -72058  -104259  -147399  -211250 
 -270063  -301236  -283972  -206640  -119634   -67988     6710   126517 
  196427   196267   199031   219561   220187   192665   175262   168937 
  109475   -27394  -167298  -213356  -192716  -202527  -197634  -101332 
   -6843     9640    19467    57500    77040    66777    54468    55120 
   67070    81672    86003    78086    77237   100084   135661   161657 
  184454   227674   280991   324477   360404   373686   348784   316094 
  305255   304668   309108   334346   366250   372340   353327   334500 
  335456   353191   366180   368244   367564   349710   295554   220966 
  148304    77831    19080    -3950    12475    50789    97783   150236 
  200003   234723   254963   262946   248332   216777   190123   158433 
  102031    46732    14716   -12414   -24960     5845    51862    80605 
  112255   152617   185743   221471   252752   245351   201312   159243 
  146524   154171   165082   193576   245963   288148   299161   305081 
  335815   371769   370572   323323   244412   160249   112842   123495 
  167166   195335   185056   155487   121062    78025    36198     1104 
  -34975   -65296   -89634  -137006  -228445  -339654  -422837  -463818 
 -494537  -540118  -579633  -578392  -536731  -491497  -467660  -427983 
 -323684  -183343   -69500     7578    71122   117004   123296    99792 
   64281    14038   -38396   -76037  -101569  -105952   -87998   -83641 
 -100183  -110644  -115654  -105113   -55772    -1892     4564   -35824 
  -92934  -151105  -196460  -206442  -192294  -182687  -160208   -97698 
  -30207   -14762   -45871   -75078   -70464   -19410    45716    52429 
    1453   -40428   -66249   -96341  -128483  -178521  -226160  -213665 
 -164026  -161161  -221047  -276471  -283285  -259472  -218702  -159884 
 -112352  -109080  -137721  -175443  -210342  -217042  -183243  -125382 
  -77988   -74885  -103975  -137575  -163942  -162047  -138821  -120482 
 -102026   -86902   -91509  -108097  -122393  -128016  -125714  -123449 
 -126399  -138473  -160604  -178972  -176688  -148061   -98024   -46145 
  -14358   -10481   -39421   -89127  -113556   -93056   -63597   -45454 
  -21686     3715    -2565   -47704   -93005  -104823   -85336   -44568 
    6821    49617    76385    88203    81002    64736    56251    55513 
   61458    74017    83884    97444   123697   138847   118424    66719 
    8334   -24347   -19650     9020    45403    79436   108175   126567 
  128047   120980   125065   151310   200389   272303   349606   393797 
  391338   369250   357070   356910   345115   306105   251552   194657 
  135896    79034    38927    24079    25764    42307    77448   107858 
  115075   114731   110566    98163    96001   103642    98664    89856 
  100213   121491   133512   127552    89938    21294   -35106   -42055 
   -9571    36547    76612    97533   105116   111265   115071   115415 
  111676    92750    52027     7414   -14189   -15954   -23446   -36327 
  -32167   -13365    -5154   -13228   -22858   -28625   -35322   -46647 
  -62775   -76000   -80546   -84960   -93588   -96589   -95229  -101582 
 -109463  -103643   -87386   -75405   -73912   -74929   -70140   -70133 
  -85903   -96581   -80333   -59487   -61175   -74278   -81734   -77670 
  -59557   -36624   -11601    24066    61334    80214    63981     6385 
  -63167   -97036   -84570   -56184   -40456   -42762   -52713   -51399 
  -20775    39287   100434   133535   145646   150965   145319   133764 
  119578    98743    88589    91681    78930    49472    30018    27665 
   35175    50188    69784    89166   109378   132100   155871   185839 
  223863   255167   274000   295760   323061   337578   329819   308967 
  286694   266942   250333   234095   214636   193374   170627   149544 
  136329   127172   117983   108553    87593    51621    23480    14993 
