Origin Time       2024/01/01 16:10:00
Lat.              37.495
Long.             137.270
Depth. (km)       16
Mag.              7.6
Station Code      NIGH18
Station Lat.      36.9425
Station Long.     138.2594
Station Height(m) 130
Record Time       2024/01/01 16:08:45
Sampling Freq(Hz) 100Hz
Duration Time(s)  300
Dir.              1
Scale Factor      3923(gal)/8224838
Max. Acc. (gal)   51.045
Last Correction   2024/01/01 16:08:46
Memo.             
[...]
     861    -2451    -5042    -7520   -11188   -16298   -21230   -23259 
  -21381   -17527   -13791   -10353    -7150    -5528    -6843   -10436 
  -14619   -19014   -23580   -26924   -28156   -27460   -24595   -20363 
  -17452   -17136   -17381   -16514   -16092   -17200   -18076   -17950 
  -18318   -19684   -21199   -22692   -24305   -24663   -21276   -13986 
   -6002      213     4256     5506     4317     2620     1115     -843 
   -3009    -4891    -7643   -11763   -14968   -15815   -15450   -15273 
  -16303   -18149   -18665   -17316   -15840   -14912   -13902   -13139 
  -13344   -13867   -13328   -11793   -10482    -9613    -8918    -8444 
   -7611    -6561    -7137    -9321   -10551   -11186   -13953   -17487 
  -18280   -16573   -14196   -11187    -7817    -5956    -6421    -6894 
   -6517    -8715   -13045   -14454   -12982   -11408    -9625    -8725 
  -10411   -12498   -11642    -7989    -4734    -2889      506     5225 
    6539     4164     1575    -1512    -6048    -9822   -11670   -12175 
  -10493    -5846     -751      924    -1246    -4028    -4731    -3727 
   -3037    -3908    -6494    -9952   -12283   -12591   -12220   -11974 
  -11155    -9833    -9094    -9576   -11385   -13782   -15167   -15318 
  -15766   -17896   -21627   -24831   -25353   -23035   -18943   -14494 
  -10893    -9007    -9782   -13502   -18786   -22995   -23923   -21702 
  -18883   -17710   -17570   -16389   -14094   -12808   -13185   -14123 
  -16243   -19365   -20425   -19161   -17864   -16263   -13846   -11643 
   -9108    -5397    -1813     1331     4984     7906     9336    10716 
   10770     7555     3869     1108    -3796   -10268   -13655   -12580 
  -10561   -11207   -13755   -15043   -13664   -10860    -8876    -7092 
   -3429     -118      318      317     1737     2540     1416      205 
     544     1325      793     -989    -2872    -4603    -6786    -9809 
  -14014   -19346   -24462   -28059   -30735   -33528   -34893   -32439 
  -27216   -22241   -19041   -17273   -15620   -14322   -14847   -16425 
  -17451   -17901   -17143   -14944   -15326   -21365   -28892   -33327 
  -34747   -32078   -24038   -15668   -11911    -9382    -6031    -6538 
  -10546   -12744   -12213   -10710    -9100    -6589    -2920    -1350 
   -3356    -5123    -4355    -3591    -5157    -9290   -15801   -22135 
  -24074   -20781   -14451    -7512    -3184    -4108    -8487   -10270 
   -5899      615     3495     2373     -596    -3816    -5351    -5738 
   -7969   -11951   -14542   -14530   -13086   -11036    -8991    -7157 
   -3896     1827     8062    12488    14507    13446     9263     5246 
    4391     5144     5189     5058     5227     4359     2577     1918 
    1521    -2035    -8839   -15453   -18617   -17145   -13598   -12541 
  -15294   -18991   -20058   -16683   -10295    -4592    -1421     -487 
   -1706    -4550    -7670   -10334   -13558   -19191   -26693   -32202 
  -32417   -28536   -25324   -26366   -31081   -36645   -41215   -44058 
  -44147   -40922   -36269   -33022   -30931   -27756   -24034   -22779 
  -25728   -32400   -40277   -43802   -38443   -27311   -16173    -4989 
    7223    16318    19172    18528    17879    18639    21660    26462 
   32113    38034    41532    39976    34950    28854    21629    14071 
    8262     4689     2759     1701      598    -1105    -4071    -8577 
  -13019   -15704   -17192   -18555   -19157   -17425   -13186    -8311 
   -5042    -4823    -7565    -9925    -7275     -832     1764    -3215 
  -11580   -18698   -23546   -27634   -33401   -41044   -48600   -53893 
  -53639   -45771   -33222   -20764   -10521    -2305     4938    11017 
   14123    14253    13390    12594    10677     5482    -1733    -6948 
   -9726   -12530   -16278   -19936   -21617   -21432   -22060   -24706 
  -28271   -32100   -36277   -39938   -41906   -42724   -44031   -46623 
  -49825   -51811   -51714   -50417   -47206   -39819   -29068   -18948 
  -12648   -10828   -12386   -15323   -17394   -16519   -11747    -4909 
    1482     7750    13356    15105    12777     8572     3669    -1150 
   -6110   -10997   -14266   -16011   -17293   -18559   -20529   -23006 
  -24588   -24714   -23533   -20787   -15885    -8739     -376     7731 
   14138    17639    18526    17622    13375     4183    -7524   -18536 
  -27947   -34446   -37878   -42291   -50152   -58361   -63184   -62696 
  -56142   -45612   -34750   -25558   -19206   -16758   -16918   -16059 
  -12279    -7981    -6856    -8685    -9871    -9493   -10588   -15387 
  -22879   -30063   -34287   -35000   -31612   -22064    -7951     4675 
   12360    15203    14121    11645    10497    11182    11452     7169 
   -2311   -11965   -18075   -21074   -21525   -19966   -17772   -14829 
   -9567    -2363     4247     8811    11184    11412    10440     9332 
    8212     7182     6511     5636     4001     3802     8734    16848 
   20737    18435    13919     7476    -1005    -6165    -7658   -13579 
  -24914   -33565   -36818   -38380   -39538   -38691   -36259   -34465 
  -33238   -31896   -31615   -30724   -25076   -15580    -7076    -2457 
   -2884    -7852   -13309   -15136   -14528   -15337   -18079   -21400 
  -25390   -29853   -32902   -33710   -34992   -37917   -39187   -39005 
  -40192   -39941   -34701   -26177   -17664   -10883    -6814    -6426 
   -9680   -15219   -21282   -26501   -30591   -34245   -37979   -40532 
  -39414   -34198   -26931   -19730   -14072   -11169   -11414   -12621 
  -11334    -7068    -2056     2053     4718     5130     2451    -2286 
   -6340    -7086    -3407     2988     8671    11581    11607    10226 
    9919    11086    10353     4017    -6939   -17348   -24268   -29917 
  -36782   -43070   -45781   -45476   -44365   -42612   -39835   -36813 
  -33409   -29323   -26260   -24341   -21443   -17219   -11352    -2635 
    7862    18307    28007    35977    41455    45378    48928    51409 
   51341    48331    42479    34292    25644    18581    13921    11399 
    9448     6439     3184     1017     -905    -2358     -780     4164 
    9594    12132    10440     6610     3375     2478     5953    12303 
   15003    10162     1242    -5405    -8519   -12571   -18990   -24464 
  -27842   -29606   -27564   -19930    -9321     -781     2042    -1107 
   -7119   -11491   -11638    -8181    -2822     1800     1948    -2227 
   -6354    -9628   -14897   -21883   -27472   -30663   -33890   -38962 
  -43229   -42819   -38092   -32756   -29176   -26705   -23565   -18993 
  -13961   -10449    -9968   -12776   -17788   -22735   -26099   -28961 
  -32865   -36841   -38896   -39852   -42520   -46180   -46772   -43968 
  -40618   -35792   -27510   -17737    -7793     2898    12447    18769 
   22430    24767    27573    30569    29053    20567     9331      757 
   -4055    -8706   -16320   -24490   -29066   -29783   -28391   -25313 
  -21170   -18582   -19473   -22782   -26581   -29766   -30591   -26697 
  -18662   -11268    -7863    -5784    -2520    -1892    -7356   -16001 
  -25211   -36004   -45839   -49395   -47133   -42356   -35592   -28377 
  -22867   -18643   -15048   -10731    -4228       27    -3061    -7766 
   -6863    -4336    -3788    -1868     -517    -6600   -19568   -31880 
  -39058   -41126   -36957   -25886   -12386    -2413     2592     4511 
    3416    -2115   -10081   -16610   -21378   -24787   -24679   -21416 
  -18825   -17475   -14165    -8586    -4126    -2328     -935     2689 
    7443    11257    15903    21331    22867    18644    11138     4060 
     602     1290     4893     9536    11740     8727     2166    -2840 
   -2359     3370    10860    16630    18354    13716     2430   -10787 
  -20686   -27496   -33627   -38256   -39352   -37436   -34639   -31228 
  -26443   -23797   -27909   -34865   -36632   -33363   -30453   -27043 
  -18049    -4583     7759    16375    20449    19356    14632     9409 
    6852     8421    12264    14558    11861     2965    -9726   -21718 
  -30268   -36204   -41771   -47359   -51196   -51632   -48504   -43248 
  -38535   -35777   -33721   -31930   -31882   -32448   -29478   -21583 
  -12563    -6901    -4796    -2798     1571     6913     9452     7074 
    1344    -4131    -6878    -7461    -7970    -8951    -9694   -11488 
  -16563   -22204   -22339   -17207   -12372    -8864    -4801    -1304 
     847     2390     2062    -2231   -10305   -18801   -23560   -24097 
  -23693   -24575   -25883   -26631   -26392   -23124   -15822    -7354 
    -738     2879     1991    -4380   -14269   -23674   -30033   -34942 
  -41087   -46639   -48215   -47085   -45777   -43464   -39829   -36945 
  -34835   -31908   -29551   -30443   -34426   -39094   -42252   -43987 
  -46689   -50685   -51858   -46610   -36070   -23614   -11500    -1055 
    6489    10909    12726    11321     6265      -31    -4536    -6646 
   -6286    -2444     3410     6006     3030     -743    -1422    -1478 
   -2874    -4021    -5047    -6091    -4585    -1065     1078      795 
   -2281    -8584   -16402   -22798   -26140   -26986   -26303   -23634 
  -18817   -14692   -14924   -19727   -26705   -34562   -43730   -53542 
  -61380   -65790   -66509   -62669   -55135   -47259   -41466   -37606 
  -34690   -32414   -30122   -25087   -14458     -461    10336    14596 
   13782    10116     6083     3892     3287     2165    -1236    -6444 
  -10611   -11805   -11242   -10863   -11253   -12417   -13748   -13933 
  -12638   -10897    -9994   -10955   -13068   -13301   -10667    -8754 
   -9491    -9855    -8903    -9958   -13504   -15098   -11198    -3372 
    4463    10775    16163    20629    23080    22350    18512    13849 
   11133    10459    10863    13977    19492    22825    24383    27502 
   28653    24934    20179    17663    16245    12660     6759     2390 
     626    -1255    -4037    -6450    -9427   -15175   -23307   -31402 
  -37569   -40582   -40219   -38503   -37891   -38408   -38772   -39232 
  -41133   -43672   -44015   -41521   -38074   -34719   -31963   -30840 
  -31064   -30881   -29635   -28221   -26576   -23313   -18404   -13791 
  -11098    -9954    -8954    -7398    -5090    -2766    -2540    -4309 
   -4463    -1985    -1115    -3658    -4569       90     6550     9531 
   10980    15503    20807    22123    20687    19124    15558     9229 
    3545     -290    -3728    -6562    -9992   -17288   -26156   -30654 
  -31301   -31649   -29350   -20873   -10447    -4993    -3009      792 
    4984     5324     2479      315    -1259    -6894   -16848   -24655 
  -27008   -27787   -30065   -32493   -34619   -37461   -39136   -36720 
  -30769   -23715   -16951   -11187    -6628    -2735     1188     5219 
    8792    11631    13301    12279     7690     1228    -4500    -8469 
  -10395    -9705    -8835   -13296   -23328   -33061   -40497   -47683 
  -53716   -56262   -55229   -51625   -45339   -35927   -25473   -17159 
  -10829    -4058     2955     7492     8490     7209     4527      253 
   -5178   -10914   -17248   -24405   -30692   -34362   -36236   -38449 
  -41366   -42989   -41404   -37062   -31911   -26829   -21126   -14629 
   -8070     -751     7658    13772    14823    12371     8878     6463 
    6427     7153     6860     6126     5278     3527     1011    -1371 
   -3511    -5274    -5252    -2336     2924    10038    19093    28686 
   36235    39862    39336    37419    38115    42140    46603    48182 
   46024    42070    37939    33239    27238    20281    12680     3693 
   -6484   -15633   -22195   -27059   -31243   -33453   -32154   -28259 
  -23390   -18017   -12623    -8056    -5208    -6203   -13097   -24217 
  -35448   -45312   -55597   -66930   -77188   -85240   -91781   -95789 
  -94836   -89044   -81677   -75330   -70198   -66645   -64469   -60691 
  -54378   -49079   -45647   -40354   -32305   -24887   -20455   -18285 
  -16833   -17159   -21845   -29752   -36644   -40972   -45013   -49979 
  -53720   -55429   -57430   -60238   -62426   -64046   -65041   -63883 
  -58974   -50352   -40667   -31070   -19413    -6413     4380    12325 
   19255    27315    36015    39259    33693    26310    22422    16518 
    4618    -7985   -17177   -25423   -33602   -38151   -36693   -29263 
  -17433    -3770    10724    25663    39349    50685    59290    63676 
   62710    57879    52316    48190    45445    43425    42419    41380 
   37871    32617    27523    20295     9468     -772    -6677    -8735 
   -8829    -7514    -3492     3379    10620    16866    22380    26530 
   30373    36639    44193    49524    51672    50998    46993    38982 
   27336    13050    -3207   -20036   -34276   -42862   -45029   -42357 
  -37585   -33463   -32408   -35667   -42020   -49351   -57188   -66329 
  -77279   -89037   -99441  -106976  -109614  -103966   -90234   -73723 
  -59211   -47848   -38313   -29421   -22196   -18212   -16857   -15777 
  -13279    -9038    -2632     6685    18261    29559    38256    44194 
   47742    46905    40265    32358    28096    24061    14596      510 
  -13339   -22912   -27974   -30940   -31618   -28823   -25500   -25682 
  -29925   -36448   -43306   -48945   -52389   -54901   -59984   -67416 
  -71128   -67567   -59142   -47501   -32409   -16421    -4229     1089 
      60    -3973    -8386   -13212   -18539   -22372   -24489   -28290 
  -33762   -35136   -28594   -16259    -2965     8834    20707    33516 
   44774    52312    56571    58963    60704    63051    66276    69021 
   70102    69354    66673    62000    57127    55900    59991    66394 
   70831    70741    64940    52708    33312     7794   -19045   -42272 
  -61739   -80385   -98693  -112905  -118905  -116056  -105827   -89407 
  -69350   -50117   -34244   -21971   -14523   -11767    -9975    -7265 
   -5948    -7392    -8671    -6786    -5447    -9787   -15822   -16704 
  -13591   -11727   -12858   -14594   -15014   -15849   -17847   -19053 
  -20399   -23780   -28175   -33808   -41729   -49009   -51138   -47738 
  -42807   -38676   -32794   -23538   -14546    -9995    -9915   -11805 
  -14908   -22084   -35422   -51339   -64434   -73762   -81236   -87245 
  -91193   -93577   -95276   -96661   -97883   -98679   -98346   -95611 
  -88519   -76094   -59613   -41141   -22256    -5135     7923    17421 
   26173    35394    43613    48760    49410    45230    37639    28860 
   19764     9761     -747    -9479   -14787   -16916   -16463   -13975 
  -10272    -5454     1290    10066    19365    27433    34105    40285 
   45771    49017    49192    47020    43478    38824    33343    28742 
   27488    30503    36699    43505    47426    46460    41904    36645 
   32266    28228    23627    18692    13660     7651      391    -5599 
   -7260    -6214    -7106   -10054   -12191   -14628   -19421   -25004 
  -30083   -34994   -38286   -38993   -39445   -40957   -42523   -44705 
  -48222   -50811   -49998   -45916   -40668   -37692   -39089   -42664 
  -44232   -41463   -35754   -30685   -27371   -24487   -21037   -15660 
   -7755        0     3906     2470    -3950   -13819   -24590   -34188 
  -41697   -46161   -46030   -41116   -33543   -25253   -17462   -11848 
   -9859   -12723   -21546   -35638   -51931   -66564   -76754   -81255 
  -79097   -69453   -54236   -37959   -23151    -9545     1418     6349 
    5012      -40    -7500   -15870   -22746   -27001   -28418   -27022 
  -22893   -15813    -6103     4673    14276    21188    25301    27388 
   28479    29073    29120    29285    30626    32738    34410    35704 
   36791    36679    35511    35368    38268    44003    48951    49302 
   44944    37450    27452    15727     4438    -3732    -8077   -11244 
  -17174   -27484   -40221   -52309   -61916   -67990   -69817   -67737 
  -62904   -56983   -51821   -47876   -44219   -41033   -39260   -37659 
  -34411   -30667   -28710   -28507   -28664   -29554   -32312   -35537 
  -36775   -34901   -29617   -21068    -9177     5486    20236    32765 
   43444    53184    59941    60744    57574    53819    47331    35781 
   22256    10723     1764    -6750   -16638   -26948   -34443   -37131 
  -36779   -36120   -36074   -36259   -35440   -33103   -30786   -29859 
  -29740   -29176   -27679   -25330   -22154   -18679   -16409   -16181 
  -16654   -15772   -13023    -9369    -5057     1521    10493    18115 
   22103    24807    28410    32701    36414    37959    37255    35758 
   32981    26314    17041    11202    10521    10181     7172     3333 
    1358     1661     3018     5028     6582     4642    -1831   -10910 
  -19912   -26331   -29937   -32451   -34411   -36170   -39361   -44539 
  -49836   -52901   -52799   -49945   -45127   -39168   -33739   -30376 
  -27606   -23785   -20961   -20321   -20875   -23016   -25504   -25656 
  -23637   -19872   -13914    -6760      390     7157    13127    18135 
   22694    26877    29089    27237    22127    18165    18000    19525 
   21899    28065    37249    44986    51194    57342    60234    56182 
   46680    36823    28898    19939     6936    -9184   -25334   -38878 
  -48373   -53349   -54594   -53622   -50469   -44346   -36204   -27681 
  -19988   -14760   -12529   -10737    -5583     3928    14022    18932 
   15036     1714   -18669   -40660   -58615   -70082   -75883   -77990 
  -77660   -76111   -74981   -75019   -77098   -81754   -86721   -89680 
  -91327   -92863   -92572   -87548   -78574   -68600   -58295   -48600 
  -43375   -45262   -52683   -62542   -73214   -83650   -91195   -92973 
  -88906   -80869   -69758   -55576   -39349   -23242    -9510      166 
    4722     3634    -2209    -9830   -15381   -16318   -12494    -5742 
    1769     8571    12226    11911    13169    19631    26319    30095 
   33633    37419    38759    36517    33111    31873    33241    36092 
   40475    46242    52011    57132    62391    68037    72692    75012 
   75041    73575    71559    69573    66802    61299    52280    39985 
   23101     1212   -21821   -42020   -58572   -70683   -76042   -73334 
  -64489   -53354   -42063   -30960   -20611   -11453    -3632     2312 
    5684     6502     5845     4526     2357     -398    -2560    -3835 
   -5186    -6131    -4017     1741     7557    10287    10782    10512 
    7886      955    -8397   -16438   -22472   -28352   -34295   -39024 
  -43137   -47513   -49748   -47717   -42939   -36605   -27915   -16826 
   -4997     4641     9940    11018     8877     5416     2512     -611 
   -4271    -6683    -8677   -11921   -13699    -9823     -627     9414 
   17699    24050    25906    21230    12966     3611    -7209   -17436 
  -24295   -28702   -31892   -33164   -32985   -32969   -33100   -32854 
  -33627   -37246   -42498   -45458   -44967   -44682   -46762   -48342 
  -46523   -41862   -36483   -31429   -27072   -24844   -24586   -23629 
  -21647   -21278   -24391   -30874   -39553   -49242   -58873   -67544 
  -74865   -79643   -79326   -72901   -62218   -48868   -32373   -12707 
    7464    24196    34788    39189    40509    42660    45983    47459 
   45879    43364    41177    38281    34747    33053    35102    40243 
   47379    56644    67512    77830    85607    90030    90977    88453 
   82433    73213    62101    51603    44199    40710    40134    40285 
   38684    34318    27811    19440     9170    -1634   -11094   -18690 
  -24236   -26967   -26840   -24541   -20763   -16160   -11029    -5871 
   -1798      553      325    -4966   -15480   -26126   -33494   -39942 
  -47187   -53248   -55942   -55370   -53978   -53550   -52500   -48429 
