Origin Time       2024/01/01 16:10:00
Lat.              37.495
Long.             137.270
Depth. (km)       16
Mag.              7.6
Station Code      NIGH18
Station Lat.      36.9425
Station Long.     138.2594
Station Height(m) 240
Record Time       2024/01/01 16:08:45
Sampling Freq(Hz) 100Hz
Duration Time(s)  300
Dir.              6
Scale Factor      7845(gal)/8223790
Max. Acc. (gal)   123.258
Last Correction   2024/01/01 16:08:46
Memo.             
[...]
  -21917   -22627   -24162   -23761   -22076   -20665   -20162   -21118 
  -25562   -33824   -37845   -26681      147    31392    52658    54726 
   39642    19903     8571     8590    12224    11591     8700    11684 
   20368    23480    13721    -2897   -14877   -17766   -18246   -23791 
  -31627   -34813   -33200   -30626   -26701   -18751    -8105     1522 
    7782     9198     5633    -1090    -7738   -10859   -11458   -13483 
  -15268   -13180   -10215   -11588   -16757   -18963   -13798    -5548 
     599     4673     8317    13535    20910    25164    18746      978 
  -20482   -34631   -33729   -21998   -13230   -15182   -23233   -28266 
  -24636   -12268     4990    21521    31812    34634    34816    37280 
   41781    43754    38402    26408    13771     4287    -2419    -7627 
  -13902   -22700   -31052   -37130   -43991   -52542   -56872   -52201 
  -41625   -31352   -24900   -21730   -19348   -15666    -8689     1466 
   11267    17030    16617     8900    -5481   -21139   -29438   -27363 
  -19109    -9532    -2652    -1822    -6037    -9011    -7348    -6241 
  -10130   -15901   -21207   -27742   -33998   -34892   -27417   -12993 
    2344    11365    10986     3125    -5749    -7522    -1628     5829 
   12977    20452    24039    19053     9301     3520     2837     2362 
     321    -3272    -7449    -9675    -9136    -6183    -2623    -3554 
  -12665   -26716   -36672   -35186   -23353   -10211    -4816    -8526 
  -18031   -30537   -40898   -44277   -43398   -42951   -40925   -32629 
  -19141    -6289     4259    15245    25861    32296    32194    25508 
   16642    12968    16891    22091    21370    15762    10052     5240 
      41    -5282    -7223    -2087     9568    23716    34717    37017 
   29500    16667     3387    -7954   -16117   -22106   -28563   -34697 
  -36309   -31032   -18412      819    19876    27137    17847     -893 
  -18531   -29160   -33133   -35012   -39398   -45997   -47231   -36109 
  -16587     2106    18817    40043    68627    96560   108213    97356 
   79913    71464    63329    46619    29660    15368      376   -11970 
  -19639   -21501   -12883     5829    26867    40556    40104    27820 
   12568    -1999   -18774   -39139   -57338   -63913   -58604   -51850 
  -50718   -53285   -55298   -53977   -47787   -38912   -30658   -21108 
   -7688     7465    19458    21652    10315    -9998   -29644   -39633 
  -35105   -17948     3885    19870    21772     8959   -12654   -33671 
  -42808   -36509   -24553   -18235   -18287   -17563   -12005    -6667 
   -9296   -17964   -20837   -11496     1609     5753      554    -1718 
    6331    17450    22115    20923    19580    19539    16833     6751 
   -8005   -14692    -4143    16532    31112    29660    17120     8365 
   11462    18601    16472     1988   -15994   -29126   -34920   -31712 
  -21466   -11511    -5182     -110     5236    11318    19275    27679 
   32653    33828    29945    15547    -5178   -20291   -26306   -24309 
  -16251    -7960    -1259     5113     7442     3186    -4063    -9857 
  -12550   -15022   -20367   -23234   -15091     3920    26068    42994 
   48687    42573    30403    17761     5071    -9459   -23480   -28768 
  -22393   -14783   -16044   -23093   -27043   -25263   -21081   -15857 
   -9155    -3497    -1497    -1957    -2882    -5405   -12046   -22306 
  -32659   -39865   -40217   -28422    -4271    22017    36979    35257 
   22851    10725     6381    10651    17579    18030     8086    -6470 
  -15269   -13946    -6741     1097     5925     3774    -5976   -17118 
  -22704   -23635   -25431   -28183   -26036   -17000    -8201    -7820 
  -16264   -26955   -30773   -22134    -4145    15109    30619    40770 
   42844    34443    18839     4864    -1205     -819      147    -4175 
  -13973   -22859   -26549   -26563   -25581   -24362   -23754   -25948 
  -31482   -38788   -43891   -39611   -24063    -5485     8981    18615 
   21487    16193     9197     9583    18630    28155    29239    20989 
    8484    -3407   -10914   -12407   -11184   -12141   -16200   -21161 
  -25010   -26519   -24876   -20376   -15437   -13116   -14338   -17872 
  -21490   -22573   -19795   -15032   -13859   -21546   -36043   -48890 
  -53455   -48292   -35808   -20703    -5597    10816    28285    42462 
   49527    49640    45557    37516    22339     2428   -11335   -12444 
   -6308     -252     5034    10262    12839    11434     8302     5170 
    3172     4228     5775     1733    -7434   -15533   -20456   -24972 
  -30117   -32408   -28043   -17159    -2116    14157    27103    34187 
   38167    41781    44637    46035    44730    38607    28073    17514 
   10932     7796     5286     1881    -2489    -7873   -13459   -16506 
  -17371   -21789   -31025   -38688   -42971   -50431   -64708   -78304 
  -78864   -63938   -41782   -18809     1574    15758    24611    30875 
   35495    41473    49324    53273    49099    39476    30395    23310 
   15348     7061     1850      340     1269     3416     4926     6702 
   12498    20752    23955    18260     8005      461    -1331     -411 
   -1912    -9108   -21276   -32602   -37215   -35410   -31588   -29802 
  -32424   -38574   -43665   -43271   -37651   -31129   -26897   -24142 
  -20695   -16177   -11834    -8091    -3368     3136     8224     7732 
    4558     6122    13987    26499    41497    51997    53431    48836 
   43129    40300    40768    40657    36913    30680    25724    23853 
   22188    16376     5518    -8729   -25269   -41517   -52429   -56204 
  -56851   -57252   -55498   -51206   -47448   -45131   -41108   -32776 
  -24233   -21851   -24256   -26299   -26226   -23534   -18485   -13662 
  -12388   -16272   -23627   -30141   -32391   -31758   -31398   -28745 
  -19462    -7338     -772    -2101    -7122   -12183   -15839   -16748 
  -14558   -10320    -6077    -5444   -10612   -16731   -14478    -2656 
    7391     5406    -6220   -17432   -20623   -14990    -4180     7946 
   17988    22958    21153    11547    -4175   -19454   -27202   -24467 
  -13998    -4398    -3167    -7254    -8347    -6655    -7992   -11225 
  -10890    -5046     5329    17308    28702    39244    45334    42966 
   33835    21232     6589    -7237   -14824   -13995    -8415    -2940 
   -1013    -1703      -55     5178    10698    15052    19757    23238 
   20588    11812      951    -9778   -18408   -24511   -31506   -40194 
  -47164   -50387   -48763   -41872   -31216   -17790    -3896     4984 
    5795     1682    -1765    -1310     3146     8568     8706     -433 
  -14874   -26388   -29785   -26114   -20642   -16798   -14690   -14458 
  -14839   -12426    -7578    -5327    -8581   -14543   -17433   -14350 
   -7511      751    10166    18314    21420    20194    18206    16660 
   15781    16102    16881    16777    14003     7245      459     1148 
   10245    20733    25697    21068     6585   -11564   -25546   -31521 
  -29241   -21384   -10369     2959    13632    14332     5536    -5652 
  -15981   -26657   -36784   -42815   -44248   -45293   -48223   -51860 
  -53296   -45516   -25359    -2556    10231    11511     9764    10940 
   12355     9327      328   -15678   -37269   -54128   -53721   -36644 
  -15222     1691    12865    20021    26298    33754    40725    42714 
   37093    27946    22511    22960    25058    24561    20796    13120 
    -263   -18665   -36710   -46757   -44798   -33116   -19441   -12835 
  -14214   -16471   -15048   -10274    -4425     -567     1715     6949 
   15168    19737    16179     7438      847     -324     -456    -3354 
   -6999    -9377   -13383   -21810   -31306   -36999   -38492   -36381 
  -29988   -21211   -13181    -6987    -3107    -1251    -1146    -4622 
  -12510   -21949   -27788   -25466   -14774     -762    10222    14366 
   10647      967    -9489   -15241   -13917    -7454    -2556    -6898 
  -20972   -36470   -44510   -44181   -40097   -31220   -12295    14002 
   39194    58189    69026    70173    61414    45949    29863    17451 
    7769    -1923   -10400   -14388   -14467   -13724   -12036    -6786 
    1777    10046    14165    12366     6378     -583    -6141    -8124 
   -6666    -5522    -5757    -4360    -1472     1248     4997     8783 
   10465    13154    19982    27430    29652    24214    13014      307 
  -11098   -20256   -24945   -24626   -23807   -24398   -22473   -16236 
   -7327     3141    13813    21586    23095    17631     6650    -7464 
  -21257   -33359   -42800   -44459   -34192   -15622      295     4615 
     -21    -5016    -5815     -878    10821    26334    35382    28401 
   13285     6197     5929     5049     7877    15261    21305    27989 
   37108    42129    42708    44560    45655    42912    38728    35070 
   33388    32440    26850    14080    -3726   -23078   -41455   -58411 
  -73885   -86441   -93692   -91512   -77221   -57736   -43015   -31857 
  -17960    -3056     4745      399   -12225   -23899   -24590    -3576 
   29822    36888    10867    -8143   -14775   -26083   -27604   -20665 
  -21762   -20059    -9146     1553    10787    22870    39027    47432 
   32782     4549   -17807   -29867   -30994   -23224   -19880   -28401 
  -37584   -34823   -22725   -13605    -8843     2855    20086    30608 
   32595    30767    25722    14233    -4853   -28344   -50661   -64924 
  -68142   -63263   -52610   -37052   -21207   -11179    -7299    -3222 
    5193    13053    15423    15138    14092    10519     4097    -4409 
  -10632   -13273   -15331   -10187      163      761    -2187     2609 
    4781    -3190   -11276   -11952   -13089   -16085   -10228     1609 
   12968    24614    31099    33582    42260    54160    55818    46657 
   39584    35182    23471     5274   -10555   -17671   -18112   -18765 
  -22424   -32017   -49270   -64168   -68320   -66953   -62000   -50352 
  -35729   -24000   -18639   -20043   -24233   -26418   -25708   -24497 
  -23287   -19249   -13119   -13147   -22219   -31050   -31704   -24544 
  -14233    -5814    -3080    -6806   -10503    -7840    -3229    -3187 
   -6658   -10748   -14466   -15033   -11307    -7973    -7090    -4734 
    2138    15155    31770    43364    44478    36018    21433     5906 
   -3638    -1664    11194    28993    43173    46573    40069    29685 
   19819    12464     6916     3080     4571    12294    23006    33733 
   37301    28740    17404    10913     3931    -6083   -15168   -19244 
  -16060    -9690    -5112    -1206     3285     7722    10759     7087 
   -7010   -25041   -39221   -49223   -54238   -52425   -45126   -34311 
  -25810   -25596   -30006   -33065   -33486   -29108   -18210    -4141 
    5605     4085    -5061   -11304   -12793   -11344    -4584     5074 
   11950    17018    23166    26943    24680    19261    13535     7692 
    3721     2972     4360     6656     7857     6340     3477     -699 
   -8872   -18991   -25064   -23908   -16501    -8406    -4652    -4815 
   -8634   -14175   -16572   -19084   -24830   -27942   -28200   -29948 
  -33772   -38869   -40788   -36275   -29423   -24422   -19622   -11974 
   -2285     5667    10300    15657    23939    29531    26751    13914 
   -9306   -38310   -60347   -64103   -52589   -38828   -30821   -28865 
  -31394   -34534   -32857   -25500   -16332    -9386    -6485    -5540 
   -2883     2849    13305    27305    37562    42942    47567    48051 
   42265    36140    33180    31726    29933    27526    26152    27592 
   29799    28088    21058    11946     4924     -114    -7755   -17581 
  -22694   -19886   -10955      737    10266    14924    16316    16826 
   17672    18401    17292    15048    13556    11016     5968     1007 
   -1443     -778     1629     2550     1425      402     -588    -2236 
   -2444     1507     8190    10201     2702    -8541   -15014   -15174 
  -12758   -12276   -17073   -27224   -40298   -53865   -62976   -61194 
  -48467   -32062   -20023   -16754   -22198   -31029   -34473   -29317 
  -22149   -20154   -24036   -30292   -31918   -20383     1814    19415 
   24981    23889    18607     7238    -9054   -24092   -29822   -24043 
   -9236    10633    28030    37026    34708    21521     3715   -18226 
  -42996   -50022   -27483    -1798    -1852   -18831   -33254   -43590 
  -48568   -44959   -34695   -20351    -7967      985     9217    13932 
   15287    14202     7735    -1760    -8343    -8785    -5055     -495 
    6187    13752    18611    23226    28247    29481    26742    21205 
   12511     4376     1868     3955     5298     4043     1744    -3715 
  -16802   -36061   -51227   -53161   -44386   -31634   -17312    -2801 
   10134    20471    26874    27152    21097    12332     5000     1066 
    -754    -3874    -8815   -12463   -12885   -10430    -5964    -1547 
     267    -1105    -4106    -5729    -3848       -9     2979     3665 
    1615    -1012    -1413      -55     1329      903    -2768    -8976 
  -16486   -23068   -26809   -30384   -36134   -40828   -38950   -26936 
   -6524    15098    30250    36467    37156    36439    36077    34917 
   28529    14731    -1749   -13905   -18555   -18389   -17953   -17683 
  -17683   -22160   -31699   -38627   -36147   -25007    -9200     7192 
   19425    24475    23471    20722    18874    14162     2012   -15830 
  -35560   -52945   -63516   -69222   -71257   -64185   -49472   -34942 
  -23017   -11279     3429    19959    32206    36753    35208    29401 
   19184     4899   -11345   -26752   -37127   -40238   -41635   -44636 
  -42790   -35185   -28200   -21683   -10621     8415    32374    54203 
   75412    98973   117613   124997   121207   108117    89761    70360 
   53773    42880    35745    27101    13263    -5614   -27365   -48050 
  -61337   -63512   -56338   -42809   -24898    -6199     9247    21031 
   28595    28260    20117     7481   -10234   -31519   -50580   -69707 
  -90146   -96755   -82123   -57262   -28742    -1073    16695    20453 
   16146    15446    18647    17088    12179    11342    17271    27803 
   38503    45187    46440    44597    40933    31372     8772   -27784 
  -62546   -76021   -67906   -49099   -26488    -9435    -5524    -6424 
   -2928    -1343    -7496   -16750   -23511   -24638   -19878   -11866 
   -2504     6129    10787    11917    15610    26503    41095    51316 
   52606    46132    33504    16078    -1598   -17420   -32888   -46433 
  -55124   -57549   -53742   -45435   -33358   -17842    -2224     9769 
   15530    11272      646    -4199    -3748    -7253   -13022   -18549 
  -24659   -27209   -23144   -12564     1902    14415    21740    24791 
   24552    20332    12549     4930     1896     5499    13636    20461 
   20471    11788    -3271   -18370   -26380   -24823   -17140    -8054 
    1628    11693    15234     6836    -5837   -13824   -16746   -14771 
   -9864    -6937    -5900    -4723    -3399     -927     2681     3913 
     298    -5279    -8527    -9541   -10932   -12880   -14289   -16665 
  -22603   -32497   -44601   -54765   -57333   -50360   -37083   -20302 
   -2114    12549    23112    35243    47032    49577    42516    33034 
   25034    20243    20394    22586    18442      172   -28428   -50495 
  -51171   -30368    -1783    20812    33485    36348    30978    21523 
   10297     -672    -8172   -12118   -14376   -15722   -17366   -20891 
  -25947   -31579   -38130   -45897   -52083   -49146   -35700   -26233 
  -31074   -39472   -38163   -27395   -14585    -5267    -1197    -2069 
   -3233     1247    10023    17880    22566    23209    19217    12663 
    7202     3539    -1298    -8140   -13107   -13406    -9197    -1244 
    7175    11203    10099     7264     5366     6068    10282    15178 
   15808     9930      369    -8247   -15037   -20293   -20848   -14131 
   -3195     6309    11337    12333    10806     6407    -1742   -12291 
  -21906   -27332   -29515   -31467   -32013   -29986   -28140   -27067 
  -24599   -21350   -19471   -19626   -20915   -19776   -12472     -540 
    9875    13015     8000      450    -3006    -1108     3245     6632 
    7576     7631     8077     6987     2654    -1979    -2012     3364 
   10999    18139    23495    24879    19823     9956     -135    -8850 
  -18007   -28414   -38627   -46750   -50457   -48374   -42086   -33365 
  -23396   -14828    -9435    -5667     -518     7381    15568    19279 
   18553    18887    22083    24857    24389    19962    12631     3083 
   -8592   -20143   -28620   -32333   -30339   -24408   -18597   -14258 
   -9466    -2907     4025     8236     8594     8068     9358    10089 
    6964     2540     1451     2786     3230     2570     1606     1630 
    4768     7754     3237    -7716   -16665   -19488   -15352    -4347 
    8560    17479    19909    15997     9400     4191      892    -1143 
    -822     3250     8823    10897     8097     2548    -5323   -15111 
  -22474   -21274   -11029    -1890    -2619    -6494    -4804     -993 
    1081     2766     4155     6304    10539    14881    20201    31158 
   45481    51416    40589    17633    -3888   -12675   -10620    -7591 
   -6691    -6511    -7739   -10812   -17231   -27675   -36429   -39737 
  -41661   -43911   -43779   -40725   -36433   -33438   -33573   -36707 
  -41168   -43927   -43251   -39731   -34682   -29639   -26180   -25959 
  -29096   -33203   -33432   -25253   -11152     1979    11037    15857 
   16926    16619    17682    20262    21624    18435    10062     -342 
   -9113   -14721   -16270   -14278   -12139   -12631   -16217   -21868 
  -27469   -32000   -35594   -36040   -31099   -26131   -27001   -28017 
  -23508   -17081   -11101    -5412    -1588     -229    -1463    -5339 
  -10297   -15060   -19917   -24883   -28335   -28537   -26010   -22986 
  -21224   -21478   -23116   -24159   -23375   -21177   -17973   -13734 
   -8714    -2824     3262     7784    10389    10538     7194     2662 
    -247    -2581    -5763    -8662    -9857    -9936   -11462   -15484 
  -20025   -23714   -25228   -21066    -9161     8293    26153    39958 
   48701    53092    54268    53751    51224    44872    34929    24223 
   15572    10031     6993     4747      186    -8700   -17302   -20561 
  -23238   -28992   -32413   -32034   -31568   -32356   -35062   -37748 
  -36151   -30960   -25994   -22210   -19111   -16841   -15619   -15125 
  -13529    -8951    -2247     3689     6652     6544     4525     2367 
    2990     9220    21474    36653    49670    56982    57739    52455 
   43293    34034    27345    23448    21771    22281    24244    24736 
   21232    14613     8631     7211    11118    18100    24792    27770 
   26126    21315    14918     8095     1317    -4423    -7708    -8149 
   -6664    -6170    -9633   -16587   -24379   -30539   -32201   -27884 
  -20309   -14305   -13312   -17170   -22833   -27804   -30441   -30137 
  -28156   -24340   -17890   -12008    -9836    -9721    -9844   -11047 
  -13254   -14350   -12933    -9036    -2957     3669     7947     9092 
    8465     6930     5329     4945     5913     7665     9267     8816 
    6432     5606     8889    15005    20892    25126    27993    28921 
   27241    24520    22238    19741    16063    10305     2070    -7366 
  -16366   -23076   -26019   -27268   -30141   -33787   -35640   -35226 
  -32657   -28846   -25240   -21456   -18253   -19084   -25523   -35199 
  -43582   -46449   -42903   -37509   -35411   -34659   -31587   -27259 
  -21936   -15645   -11441    -9479    -5890     1752    11516    18874 
