Origin Time       2024/01/01 16:10:00
Lat.              37.495
Long.             137.270
Depth. (km)       16
Mag.              7.6
Station Code      NIGH18
Station Lat.      36.9425
Station Long.     138.2594
Station Height(m) 130
Record Time       2024/01/01 16:08:45
Sampling Freq(Hz) 100Hz
Duration Time(s)  300
Dir.              3
Scale Factor      3923(gal)/8224838
Max. Acc. (gal)   35.724
Last Correction   2024/01/01 16:08:46
Memo.             
[...]
   -4131    -1682     -764     -700     -842     -580      247     1098 
    1502     1382      562     -945    -2458    -3238    -2836    -1007 
    1954     5255     7885     8981     8699     8229     8635     9798 
   10134     7993     3859      270     -464     1497     3784     5132 
    6052     6127     4561     1933    -1287    -5458    -9968   -13126 
  -13991   -12916   -10702    -8174    -6237    -5487    -5502    -5281 
   -4614    -4102    -3898    -3260    -1587      556     1946     2571 
    4444     9339    16020    21180    23228    23577    23631    22632 
   19314    13556     6258     -908    -6042    -7711    -5035     2007 
   11568    20129    24945    25589    22916    18123    12710     8087 
    5428     5046     5625     5873     5564     3846     -421    -6586 
  -12799   -18148   -22458   -24644   -23296   -18785   -13517    -9821 
   -7896    -6835    -7041    -9378   -12888   -15730   -16995   -16687 
  -15408   -13873   -11946    -8672    -3816     1289     5123     7217 
    7759     7384     6791     5530     3037      668      124     2053 
    6480    11384    13949    12842     6905    -3480   -14609   -22519 
  -25953   -25627   -22048   -15884    -8791    -2921     -789    -3627 
   -9814   -15394   -15888   -10257    -2278     4163     8564    11701 
   13155    12156     9202     5814     3654     4191     7591    11684 
   13657    12904    10821     8469     5503      650    -6502   -14162 
  -19552   -21254   -19738   -15530    -8765    -1034     5182     8318 
    7192     1809    -4980    -9737   -11435   -10883    -8658    -4614 
     997     7152    13419    19102    21706    20016    15623     9760 
    2878    -3843    -9463   -13510   -14366   -10822    -4664     1478 
    6547     9856    10450     8765     6284     2839    -1965    -5925 
   -7015    -5919    -3927    -1143     2322     4368     2803    -1375 
   -5911   -10037   -13478   -15512   -15587   -14378   -13242   -11920 
   -9772    -8907   -11219   -13602   -11009    -3289     4253     7515 
    8187     9702    11859    12345    10447     7407     5381     6816 
   13220    23214    31834    33426    26838    15954     4072    -7522 
  -15788   -16895   -10736    -2096     3254     3426     -159    -5853 
  -11680   -14705   -12650    -6219     1050     6161     8679     8919 
    5983    -1281   -11695   -21689   -28027   -29455   -26349   -19608 
  -10268      -58     8750    14065    14454     9586     1011    -7480 
  -12746   -15178   -15358   -11029     -919    11688    20580    20988 
   14102     5818     -653    -6421   -11410   -13467   -11592    -6791 
    -953     4835    10143    13861    15264    14785    12353     7944 
    3537     1513     1764     2312     2542     3989     7717    12447 
   15616    15406    11664     5841      681     -850     1979     6470 
    8789     6731      113    -9132   -16615   -17780   -11587    -1390 
    7815    13032    13776    10177     2631    -6875   -14728   -18227 
  -16723   -10527    -1903     4542     5713     2872     -318    -1472 
   -1237    -1571    -2632    -3040    -2702    -2992    -4714    -7628 
  -11091   -13922   -14424   -12357   -10218   -10276   -11323   -10222 
   -6181    -1826      720     2605     5127     6671     5417     2551 
     226    -1649    -3867    -5170    -4473    -3781    -5340    -7472 
   -6620    -2258     3265     8230    12347    14902    14656    12052 
    8884     6470     6172     8748    13251    18000    20337    18721 
   15381    12406     9055     4140    -2110    -7269    -8338    -5626 
   -3793    -7109   -14357   -20634   -22569   -20362   -16102   -10872 
   -4386     2655     7770     9228     8206     6554     3883    -1293 
   -9126   -17113   -21558   -21525   -18570   -13240    -5282     4448 
   13838    20668    22913    18790     9632      197    -6714   -11515 
  -13888   -12603    -7896    -1308     5443    10465    11422     6775 
   -1765    -9281   -12069   -10604    -6662    -1798     1034     -253 
   -5131   -12615   -21190   -27537   -27716   -19749    -5721     9147 
   19003    19364    10444    -2594   -14991   -24618   -29421   -27622 
  -19620    -6844     8364    20903    25330    20849    12067     4803 
    1251     -225    -1208    -1278      441     3890     7761     9425 
    7483     4506     3836     4900     4750     2340     -787    -2408 
   -1085     2835     7140     9616     9602     7033     1507    -6932 
  -16914   -25197   -27737   -22547   -11137     2255    12803    17664 
   16416    10030      464   -10131   -19730   -25378   -24456   -18014 
  -10291    -4148      838     5144     7101     5363      710    -5383 
  -11118   -13822   -11875    -6585     -625     4384     8263    11296 
   12868    11743     8243     3747     -745    -3084     -584     5946 
   12140    14513    12609     7341     -629   -10116   -18582   -23766 
  -24467   -19645    -9211     4074    14536    17026    11144      965 
   -9298   -17968   -24256   -26239   -22303   -13582    -3233     5273 
    8715     6818     3962     4257     7186     9953    10242     6777 
     449    -6480   -12321   -16013   -17570   -17209   -13281    -4938 
    4649    10397     9740     5335     2289     2365     3793     5277 
    6423     7110     8230     9579     9005     5926     2301      699 
    2123     4742     5869     4193      637    -2613    -5061    -7453 
  -10214   -13842   -16960   -16425   -11804    -5509      918     7647 
   14956    21946    26636    27292    24219    20179    17825    16939 
   15408    12707    10628    10673    12218    12712    10226     5687 
    1158    -2195    -4168    -5647    -6667    -4854      932     8301 
   13740    14696    10478     1971    -8413   -16675   -20092   -18438 
  -11985    -1233    11238    20070    21709    18665    14504     9113 
    2058    -5394   -11928   -16287   -16977   -13963    -9408    -4549 
    1506     7896    10917     8689     3870      249     -661     1620 
    7310    14242    18954    20217    18677    14683     7715    -2142 
  -11655   -16974   -18164   -16665   -12529    -7365    -4317    -4132 
   -5189    -6813   -10450   -16833   -23255   -26083   -24268   -18951 
  -12239    -5807      801     7948    12820    12016     5559    -3608 
  -12040   -16943   -17105   -13524    -8640    -4591    -2226    -2011 
   -4117    -7014    -8806    -9405    -9248    -8641    -8846   -10404 
  -11632   -11075    -9687    -9221    -9613    -8995    -5907    -1611 
     727      349      -89     1726     5223     7900     8012     6200 
    4726     4895     5506     4820     2994     2089     4255     9693 
   16726    22605    24278    21153    15881    11086     7682     5719 
    4787     4595     5711     8580    12287    14755    13606     8274 
     984    -5791   -10829   -13705   -14758   -14234   -11796    -7369 
   -1966     1957     2690     1548      549      284      776      845 
   -1680    -6582   -10547   -10959    -8851    -6797    -5190    -3021 
     121     4418     9104    11932    11491     8986     7256     8136 
   10480    11888    12118    12286    11750     8375     1282    -7364 
  -13784   -16121   -14505    -9405    -3501     -344     -109    -2016 
   -6916   -14426   -21624   -25255   -24101   -18740   -10062      -54 
    8256    13212    14072     9671     1329    -5931    -8316    -6616 
   -3680     -811     2849     7996    13176    15623    13824     9309 
    5572     4590     4891     3834      380    -4889   -10777   -16141 
  -20256   -22740   -23441   -22381   -19152   -13024    -5232      379 
      86    -6817   -16691   -24321   -27946   -29164   -28900   -26130 
  -20466   -13605    -7670    -4364    -4598    -6999    -8495    -7576 
   -5926    -5715    -6648    -7595    -8498    -8812    -7423    -3723 
    2558     9794    14966    17261    17381    15394    11191     4163 
   -4874   -11808   -14453   -14577   -13690   -12553   -10922    -6893 
     -85     6507     8900     5726     -908    -7280   -11126   -13899 
  -17890   -22323   -24683   -23843   -20422   -15105    -8388    -1802 
    2471     3657     2689     -503    -6359   -12114   -13959   -10800 
   -3917     3969    10088    13529    15161    15758    15410    14620 
   14442    15853    18979    22316    23792    22403    18038    10709 
     635   -10100   -16862   -16322   -10511    -4349     -286     2548 
    5259     7554     8360     6694     2949     -522    -1629     -747 
     213      -93     -395     3396    12704    22484    26180    20418 
    6143   -10265   -21845   -27290   -28071   -23959   -14517    -2486 
    6061     6482     -476   -10569   -19782   -26276   -31222   -36640 
  -42037   -45490   -45994   -43737   -39629   -33615   -24025   -10631 
    2277     9024     8934     4878    -1725    -9408   -14539   -13556 
   -6727      954     5632     8554    12263    17104    19750    15560 
    5521    -4110    -8550    -6536     -367     4734     6230     7653 
   12415    17173    15654     7157    -2959    -8858    -7165     1495 
   11875    17855    17760    15201    13424    10859     4468    -5089 
  -13618   -17878   -18115   -16158   -13539   -11186    -8932    -5760 
   -2149    -1652    -6890   -15021   -20100   -17899    -8268     5103 
   16933    22937    21864    15750     7878      627    -4264    -4375 
    1564    10762    18312    21085    18330    12156     7429     7044 
    8291     6192       64    -5224    -5794    -3184      240     5953 
   15934    29123    42137    49281    45229    30697    12634    -1559 
   -9096   -11562   -11604    -9455    -2582     8722    19033    22694 
   16627     1902   -15196   -27931   -33373   -31714   -25185   -16254 
   -6162     2833     7067     5780     1503    -3739    -7965    -7429 
     261    11776    19716    19606    13312     6458     4001     6615 
   12156    20529    32406    44180    49627    45522    33825    20137 
    9445     3689     2683     3576     2344    -1610    -5787    -8066 
   -7410    -3944      803     5302     7769     5013    -4853   -19994 
  -37050   -53138   -64594   -67590   -62257   -52412   -40277   -26563 
  -14350    -7246    -5703    -7430    -8949    -7079    -1742     3187 
    4680     4787     6462     7641     4336    -2185    -5788    -2813 
    4122    11597    20031    28510    31402    25284    13297      152 
  -10916   -16680   -16290   -12793    -7950     -263    10098    19064 
   21783    16810     7061    -4413   -16892   -28587   -35468   -34889 
  -28572   -20997   -13656    -4421     5170     8873     4552    -3789 
  -12926   -21315   -25420   -20902    -6775    12332    29347    39785 
   41999    36721    27868    19279    12725    10287    13049    19170 
   26083    30916    30254    22515     9639    -2516    -8039    -8127 
   -8699   -11318   -13473   -13452   -10287    -3878     2940     4928 
    -568    -9471   -14404   -12020    -6340    -3253    -2434     -207 
    3268     5443     4980     1710    -2917    -4558      -51     6637 
    9416     8229     6110     4946     5837     8017     8590     5821 
    2727     3755     7182     7692     5117     3213     3526     4834 
    4939     2947     1269     2937     7476    11765    13664    13435 
   12599    11044     6166    -2539   -10323   -11203    -4279     5278 
   11435    11223     5356    -1908    -7415   -13495   -22408   -29485 
  -27908   -18419    -8708    -4563    -6293   -11398   -16710   -19009 
  -17085   -13710   -11862   -10538    -8309    -7098    -9069   -13108 
  -16441   -18612   -21149   -22993   -20567   -12185      889    15098 
   24494    23986    14702     3434    -4664    -9458   -11218    -7630 
    3152    18655    31951    36069    29257    16032     2502    -8572 
  -16862   -21709   -22450   -19071   -12139    -3171     5202    10467 
   12663    13041     9904     2114    -5848    -9783   -10100    -7550 
   -3191     1421     6995    12810    14088     7573    -3630   -13311 
  -18495   -19596   -17726   -13732    -6960     3206    13466    17383 
   11225    -1992   -14620   -19608   -15300    -7341    -2685    -1863 
   -1325     -257     -552    -2758    -6029   -10210   -14466   -15935 
  -12201    -3651     6016    12043    13576    12645     9424     4630 
     757    -1487    -1993       -4     3381     5159     3272    -1440 
   -6594    -9871    -9686    -7550    -6967    -8633   -11211   -14376 
  -17436   -19323   -20248   -20811   -21243   -21400   -20977   -20358 
  -20152   -19071   -14770    -8484    -4579    -5004    -9359   -17840 
  -29778   -42850   -53966   -59675   -58645   -52540   -43131   -31234 
  -18692    -8154     -562     3577     3418     1192      477     1782 
    3981     6241     8592    11734    13292     9355     1607    -5532 
  -10952   -13392   -10478    -2627     8406    21265    33284    40657 
   40207    31143    16330      452   -12614   -20372   -22609   -20923 
  -16896   -13009   -12033   -13932   -17504   -22804   -28625   -31552 
  -29446   -23442   -16386   -10211    -4896     -243     2344      656 
   -6417   -16785   -24537   -24115   -16513    -8286    -3480     -664 
    2724     7092    10137     8988     5194     4284     9127    17624 
   25317    28607    26985    22086    16222    11145     6511     1861 
    -635     1524     7807    16236    25682    33939    37611    36094 
   31665    25532    17386     8086     -720    -8903   -15020   -14175 
   -4857     6825    13745    15325    16083    18276    21255    25393 
   30630    35251    37211    34974    29934    25444    23279    24553 
   29621    36460    43492    51671    61597    70603    74029    69249 
   58044    45220    34222    24205    13284     3113    -2467    -1787 
    3207     8278     9346     5297    -2123   -11200   -22017   -35079 
  -47520   -54112   -53455   -49054   -46033   -47900   -53943   -60241 
  -63528   -63528   -61044   -55256   -45285   -32637   -21173   -16075 
  -19897   -28401   -34641   -35808   -32825   -26017   -14330      797 
   13574    17365    10045    -2400   -10620   -11504    -8784    -5445 
     922    13821    30114    41609    43949    39164    31364    23526 
   16429     9174     2219     -916     2596     9718    13670    12800 
   12980    18202    24451    25570    19782    10112     1198    -4054 
   -4769    -2212      974     5047    12055    19785    23954    24208 
   22481    19561    15568    10188     2658    -6434   -14385   -18337 
  -17373   -12185    -3859     6525    17469    24850    23583    14227 
    3566    -2420    -4303    -5873    -6863    -4685      869     9134 
   18648    24922    23714    16501     8375     1134    -6824   -14790 
  -18014   -12972    -3287     3946     6767     7533     7269     5513 
    2347    -1857    -7429   -12703   -13252    -8445    -2870     -255 
   -1243    -4915    -9790   -13159   -11169    -2077    11395    23217 
   28439    26805    20494    11823     4536      862    -1890    -6436 
  -11421   -14897   -16799   -16915   -14233    -9553    -5602    -3623 
   -2251      -18     1417     -816    -5449    -8044    -6104     -994 
    4284     8075     9228     6270      510    -3449    -2628     2305 
   10222    18882    22559    17097     5098    -7604   -17622   -24725 
  -29015   -29201   -24538   -17064    -9829    -4918    -3994    -7071 
  -12274   -18567   -25201   -30094   -31477   -29262   -24363   -17529 
   -9633    -3149    -1264    -4827   -11608   -17801   -19326   -13995 
   -3384     8428    17527    21547    19137     9879    -3850   -17239 
  -25951   -28101   -24734   -18732   -13429   -10648    -9121    -7341 
   -5946    -5545    -5364    -3955    -1073      966     -492    -5660 
  -12204   -17482   -20538   -21563   -20957   -19299   -16896   -13770 
  -10771    -9355   -10062   -12305   -15095   -17533   -18346   -15195 
   -6706     4977    17078    29111    39753    45951    47054    45277 
   42757    40787    39681    38994    39009    39826    40096    38658 
   34333    25280    12946     3099     -314     1769     6667    12123 
   15817    16028    13585    10708     8212     5644     2164    -2574 
   -7387   -10681   -11226    -8397    -2952     4020    11855    19936 
   26905    29114    23673    13633     5370     1696      166    -2380 
   -5104    -5067    -1910     1827     3627     3600     3360     3072 
    2647     3157     4789     6771     8282     8189     7177     7458 
    9332    11898    14592    17541    21775    26958    30797    31340 
   27904    22175    17323    13184     7240      386    -3889    -3514 
    1263     8160    13182    13059     8518     3460      781     -184 
   -1605    -3834    -6621   -10110   -12815   -13529   -14121   -16117 
  -18119   -19165   -20509   -23052   -25456   -25346   -22239   -18011 
  -13957    -9612    -4882     -355     4675    10552    14864    15408 
   13377    11770    12040    13236    14188    14408    13639    12869 
   13224    13709    13227    12079    10593     9263     8056     6165 
    4187     2303     -369    -1938     -927     -985    -5706   -13325 
  -19305   -22075   -24356   -27951   -31546   -34061   -35052   -33428 
  -29485   -26065   -25478   -27467   -31371   -37381   -45150   -53523 
  -60569   -62970   -58752   -51182   -46020   -45640   -49154   -54415 
  -58666   -60912   -60818   -56307   -46678   -34808   -23681   -13522 
   -4016     3010     5293     3400      835     1237     5863    12729 
   18468    21940    24451    26109    24969    19506    10322      720 
   -4850    -4006     2165    10169    16968    21776    23662    20345 
   12017     2486    -5467   -11817   -15080   -12063    -3588     5236 
   10848    12679    10642     5073    -1999    -7318    -8182    -4232 
    1829     6529     9140    11217    13410    14326    12926    10777 
    9614     8834     7447     5798     5066     6349     9054    11188 
   12263    13236    14040    13833    11912     8526     5841     5173 
    4810     2880     -498    -4765    -9965   -15284   -18846   -20808 
  -23622   -27265   -28734   -26761   -23102   -20190   -18790   -17741 
  -16297   -14075    -9838    -4415    -1510    -2980    -6675    -9898 
  -12664   -15681   -17147   -14791    -9153    -2097     5994    15057 
   23174    28549    32146    35997    41075    47052    51885    53573 
   52296    48128    40009    28335    14299    -1622   -17460   -29493 
  -35391   -35615   -32676   -29212   -25529   -20962   -17135   -16187 
  -17450   -19229   -21394   -24044   -26468   -28263   -29749   -31618 
  -33740   -34896   -34504   -33164   -31618   -29720   -26940   -24386 
  -23986   -25609   -27777   -29324   -28460   -23909   -16231    -5341 
    8600    21833    30276    33130    31081    26850    24632    24174 
   21780    17683    15137    15334    17521    19371    18179    14544 
   11491    10670    10836     9082     4599      126     -932     1863 
    4311     1414    -6114   -12538   -14019   -12541   -12831   -16033 
  -18580   -17247   -12198    -5599        5     3073     4232     4818 
    5028     4298     2273     -700    -4033    -7176    -9205    -9207 
   -7068    -4286    -3337    -5595   -10636   -16923   -22815   -27699 
  -32105   -36423   -39835   -40464   -36765   -29011   -18968    -9310 
   -3202    -2623    -7674   -16812   -26550   -32798   -32913   -26870 
  -18231   -11882    -8811    -6276    -4256    -6008   -10639   -11985 
   -6852     2218    12472    21809    26914    26670    23745    21377 
