Origin Time       2024/01/01 16:10:00
Lat.              37.495
Long.             137.270
Depth. (km)       16
Mag.              7.6
Station Code      TYMH03
Station Lat.      36.7294
Station Long.     137.2627
Station Height(m) 8
Record Time       2024/01/01 16:08:52
Sampling Freq(Hz) 100Hz
Duration Time(s)  300
Dir.              4
Scale Factor      3920(gal)/6170801
Max. Acc. (gal)   201.025
Last Correction   2024/01/01 16:08:37
Memo.             
[...]
   17521     5483      434     3973    13970    25997    35571    40554 
   41540    39394    33347    23200    11678     2363    -2357    -1530 
    3888    11775    18504    19511    14205     6922     2015      571 
     759      216    -2686    -8765   -16966   -24730   -29620   -29762 
  -25690   -21683   -21219   -23475   -27019   -31625   -35409   -35415 
  -30485   -22386   -14775    -8786    -2171     6346    16576    27953 
   38411    44862    46047    44309    42941    42439    40631    36181 
   30473    24908    20206    18052    19193    22678    26593    27473 
   22952    14115     3370    -7484   -18089   -28483   -36114   -37509 
  -33264   -27588   -23236   -19743   -16706   -14332   -10095    -1477 
    9386    19473    28292    34785    36769    34782    31433    26175 
   16999     6209    -2549    -8264    -9133    -2746     7692    13583 
   10176     1442    -6243    -9515    -6634     2450    14763    25953 
   32731    33762    28656    18010     5486    -3359    -6315    -5765 
   -4585    -4400    -6532   -11728   -18747   -23799   -23837   -20504 
  -17600   -16496   -17311   -19773   -20438   -14628    -1682    13775 
   24322    24661    15694     3366    -5417    -6112      694     8807 
   10913     4097    -8594   -20310   -25561   -24108   -19072   -13234 
   -7886    -3394      186     2736     3615     1648    -3103    -7675 
   -7743      620    18269    38532    52576    57356    50673    30175 
    1064   -26021   -41871   -39630   -18428    10439    31533    39189 
   34690    19578     -191   -15099   -20459   -16453    -4285    11522 
   22426    20646     5367   -14684   -30492   -41044   -45127   -37878 
  -19560     4833    28529    41680    38754    22955      536   -19416 
  -25415   -12572    11693    33683    45938    47375    33749     4765 
  -26814   -46796   -51429   -45517   -33265   -13664    10432    29032 
   36618    34070    22701     6195    -8081   -11902     -855    20849 
   44359    63428    74389    75178    66690    52248    35600    21064 
   13826    13924    14197     9983     3292    -3569   -10870   -18766 
  -26514   -33622   -39201   -40418   -32246   -11357    15844    34388 
   36928    28041    11172   -10167   -27042   -33140   -25756    -6616 
   13393    24236    24127    15209     2131   -10222   -19423   -23715 
  -20558    -8669     8919    25104    31544    24534     9158    -5849 
  -13323    -9136     4497    20420    33780    42308    41635    31456 
   19961    12270     6541     2115      778     5321    17471    34085 
   49566    58902    57381    42975    18343    -9304   -28900   -32857 
  -25284   -15406    -7721    -6037   -16260   -36593   -54229   -60170 
  -57210   -48641   -36441   -26515   -18679    -5681    11418    25297 
   34424    38824    35592    24770    11999     4100      844    -3471 
   -8709   -11668   -13480   -14018   -11917   -10659   -14052   -20127 
  -23226   -19688    -9725     5420    23217    38313    46077    45640 
   37829    22654     2243   -14302   -17058    -7966     1770     5145 
    2238    -3848    -8691   -10270    -9785    -7914    -6484    -8262 
  -11257   -12618   -14497   -17622   -16563    -6255    10575    24551 
   30417    33885    40943    47005    45399    37580    29246    23590 
   19258    13524     8151     6492     6148     5222     9802    23531 
   40316    53981    61518    58203    43564    26857    17242    15104 
   17209    20716    20758    13497    -1357   -20836   -36544   -42088 
  -40194   -34027   -23387   -11677    -5162    -5587   -10567   -18694 
  -26760   -30029   -30438   -33273   -36468   -31296   -13663    10362 
   33037    48845    49625    31841     6376   -12002   -19880   -20601 
  -14604    -5226     -898    -3013    -5599    -9093   -19302   -34065 
  -45855   -52242   -52500   -43771   -25479    -2301    16197    22551 
   15477    -4693   -31703   -51249   -52913   -37164   -14285     2359 
    5695    -1800    -9142    -6751     2789    13577    25027    32362 
   27731    13474    -1718   -13647   -21013   -18791    -1654    23422 
   40029    41170    31159    13506    -5674   -13387    -6278     3995 
   11899    23312    37255    46471    52116    56728    52636    32742 
    1878   -29572   -52280   -57153   -38899    -3753    30582    49671 
   53921    48253    35216    22330    15633    12093     9624     9421 
    8429     2824    -4471    -8657   -12226   -20286   -32225   -44517 
  -53127   -49940   -26465    11179    41226    50715    44068    22627 
  -13672   -44602   -45108   -15903    24510    61279    86840    97896 
   93140    75219    52442    30220     8280    -8760   -13518   -10154 
   -9097    -9790    -7641   -10274   -24006   -38594   -43687   -38576 
  -23235    -2434    12055    12674    -1044   -23038   -43233   -57490 
  -63780   -55873   -37184   -20822   -10460    -4190    -5966   -14269 
  -18256   -12411     1342    19672    37313    48637    49039    37041 
   20031     8210     2424     -882      585     7337     9592    -1157 
  -22308   -47672   -73334   -95561  -109024  -107427   -86699   -48724 
   -2269    44036    86417   118477   133455   133376   120088    89444 
   43289    -6401   -46560   -69617   -74055   -63154   -43139   -20242 
    3000    26522    45182    51926    47833    37165    23106    13369 
   16215    33269    58347    80027    92028    95561    89935    76897 
   65418    58193    48134    29581     2112   -30236   -62160   -92454 
 -121909  -148787  -169726  -181439  -177229  -145100   -82043    -7295 
   56356   105194   140389   154978   150133   133085   104234    71677 
   50557    42039    41827    52401    69608    81887    83241    70013 
   41020     4281   -33007   -71767  -112612  -148370  -167192  -162139 
 -130444   -74115   -11118    36423    60630    57715    24285   -29919 
  -83891  -118120  -127309  -117741   -90528   -46271     6576    60014 
  103303   126158   129919   115390    81029    36137    -4546   -30189 
  -38715   -34484   -20610    -4151     3084    -3610   -20715   -43110 
  -65574   -83721   -94318   -94141   -84530   -70431   -52200   -31171 
  -13992    -1858    10300    24990    42144    64834    98187   137839 
  169876   185179   178535   141686    75704     2632   -51217   -76131 
  -74462   -54359   -29065    -6756    11321    23250    27595    26885 
   22225    12047     1045    -4389    -4454     1496    14605    29957 
   39473    34081    11725   -15064   -33803   -43042   -43822   -37936 
  -31793   -31528   -38159   -47329   -50342   -39819   -15560    15725 
   45634    72234    96252   112703   119750   121029   116736   105657 
   87885    66463    49624    44778    52301    66983    83323    94574 
   92586    77928    56246    27466    -4679   -31315   -50470   -62076 
  -65512   -64232   -58271   -46610   -33100   -19460    -7651     -696 
    2473     1543    -3786   -11713   -25506   -47205   -70134   -88918 
 -104156  -111958  -102816   -75016   -35411     9420    50408    79108 
   96480   104299   100312    89134    80405    77891    82913    95847 
  109806   115935   108210    83897    46089    -2448   -57677  -107275 
 -141247  -158038  -158696  -146160  -124212   -97071   -71217   -52425 
  -42828   -42096   -51782   -71137   -87264   -87484   -74745   -56210 
  -32543    -5021    19077    32945    37842    39647    42954    51759 
   67704    88229   110002   128982   141004   145158   140675   126689 
  107350    86587    63982    44856    41328    56545    80926   104518 
  119568   115696    86434    38426   -14888   -65610  -108928  -136765 
 -143866  -131715  -103529   -66026   -29062     4292    31138    41198 
   32528    14913    -2233   -10789    -6184     6769    17432    18199 
    8651    -8646   -28558   -42973   -50547   -55638   -59527   -65076 
  -74621   -83136   -87745   -90031   -86008   -69480   -41479    -9083 
   22344    52612    80491    99653   107305   107764   101976    85525 
   57697    23592   -10582   -41862   -68466   -83664   -81142   -66652 
  -54599   -53745   -62258   -74975   -86674   -87913   -69324   -32251 
   10259    45356    71996    92305   100351    93331    76551    54609 
   30139     3203   -23457   -41922   -52961   -61048   -62358   -55820 
  -43521   -23706     1306    23175    35210    37876    37228    38396 
   43445    51337    58381    62033    61877    58474    54793    53331 
   51454    44273    28112     3267   -21879   -36761   -39052   -32223 
  -17909     1514    20295    36167    51098    62817    65406    59167 
   50674    43759    38820    36177    33346    24772     7168   -19049 
  -51834   -86683  -117756  -143071  -163470  -175802  -173163  -152382 
 -116547   -70100   -17138    35180    78634   109144   127786   141418 
  156261   167889   169791   162470   144029   111948    75346    46215 
   25005     5621   -15709   -41320   -69707   -88824   -83248   -50768 
   -7625    25715    44184    50225    38438    13140    -7528   -17411 
  -20981   -18289   -10212    -3079    -3225   -12051   -27725   -48725 
  -71791   -91765  -103993  -102336   -80973   -42289     1921    39799 
   67326    84150    87802    79100    67097    62034    65139    68621 
   64876    51405    29856     3941   -24073   -49478   -63346   -64537 
  -56916   -38939   -13723     8314    18917    13835    -4575   -28064 
  -48078   -57435   -52376   -35074   -11067    15220    37907    47295 
   37892    12875   -20339   -52564   -76060   -87567   -83757   -62468 
  -31351    -1923    22498    41899    52035    51868    46906    41815 
   39870    41310    37646    20581    -5159   -30709   -57137   -84883 
 -103861  -106682   -94665   -70592   -38404    -3399    31747    64554 
   88560    97218    89756    73461    60060    56631    63435    78141 
   95988   109377   110052    92515    57431    10891   -39681   -86068 
 -118065  -129105  -122581  -107969   -93202   -82049   -74852   -68812 
  -58041   -37908   -12062    10847    30423    51426    68197    73559 
   72330    68389    58670    42261    21015      402   -11174   -10705 
   -1221    12441    23673    26806    21432    10639    -1871   -11913 
  -16855   -15878    -7592     8870    31670    54447    68005    68385 
   58393    42044    27114    25902    42630    67427    88430   102200 
  105798    89641    52809    11495   -20814   -42703   -48655   -28698 
   10441    48847    77011    95471   101566    90266    61313    21284 
  -19532   -51397   -68657   -71137   -59959   -34503     1666    38101 
   63510    70013    55695    24888   -16045   -60507   -99413  -122307 
 -125362  -111955   -85518   -53038   -23008     3334    22414    27156 
   21645    15672    12521    11868    15901    27720    43579    55472 
   60022    54806    37200    12046   -11886   -30154   -40991   -43313 
  -39014   -34888   -41634   -64331   -96204  -126440  -144689  -141866 
 -116489   -74281   -23895    24735    66003    99323   122976   134779 
  135195   125253   105607    77837    47747    25526    15533    14214 
   18076    23543    28059    29683    21912      570   -31658   -68616 
  -98904  -110710   -99127   -67048   -24352    21262    65595    96658 
  104554    93397    67859    31239    -7374   -47392   -95325  -142144 
 -174219  -188786  -180690  -151880  -119118   -88586   -60648   -44398 
  -39165   -32248   -14036    17948    57864   100441   145907   187230 
  214113   225760   222223   201053   167062   128316    86869    45564 
   16263     8811    21833    49063    80139   100772    99579    73623 
   34372    -2865   -33543   -53505   -55274   -38024    -7486    23762 
   41351    41316    26178    -4007   -47286   -93552  -126830  -139246 
 -140703  -141850  -141232  -138669  -137840  -137621  -134207  -124946 
 -112227  -102031   -92075   -73303   -48210   -28024   -13977    -3850 
    -290    -1442     -691     9147    31313    60455    88955   112218 
  129284   141438   147490   146303   138554   119622    81655    25270 
  -38379   -96827  -145726  -187556  -220374  -241283  -254660  -255216 
 -228154  -175256  -117707   -83986   -82624   -91227   -97939  -103379 
  -92034   -53070    11795    93295   167993   223817   264374   286165 
  288441   275868   250126   213071   162444   100786    44011     6315 
   -5617     4620    19518    24903    20152     8734    -5450   -14665 
   -9307    13110    44556    72100    82929    71344    40949     -430 
  -37300   -51780   -43371   -26009    -8591     8926    26718    37120 
   29167     2509   -32331   -63551   -79615   -68900   -23834    45252 
  110035   162693   216577   256552   260876   243891   217942   183031 
  154160   137447   123883   113550   103769    79687    36826   -11662 
  -56501   -99669  -139360  -166404  -177659  -178496  -170697  -154904 
 -136172  -115552   -95483   -84020   -81526   -84175   -92198  -102964 
 -107397   -93598   -58105   -10538    40194    90470   131708   151773 
  148647   129103    94294    46114    -3970   -48635   -84711  -104880 
 -107631   -97789   -79117   -55440   -28867     -934    25226    47197 
   59187    55745    40882    16936   -18618   -57034   -85078  -104439 
 -123282  -138332  -144920  -148749  -152844  -152597  -147178  -143470 
 -145297  -148275  -149327  -144856  -127052   -93553   -48594     4466 
   63511   123031   178010   226565   263579   285923   295735   292433 
  273314   236924   188287   137633    88290    41285     2390   -24779 
  -37055   -30348    -8109    19624    41648    45443    23120   -21901 
  -79259  -137730  -188735  -227590  -248071  -240291  -195555  -112696 
  -11818    79900   167940   255710   308628   319978   309322   268004 
  203933   145815    94188    46824    14134    -3530    -5631    11066 
   33458    45479    40706    16955   -17883   -53305   -85289  -110723 
 -126832  -132744  -131468  -125311  -111067   -88434   -62835   -39680 
  -24794   -23590   -35921   -56839   -80132   -99692  -110795  -110936 
  -98861   -74198   -38681     5833    56558   105934   145682   170127 
  177132   169775   150603   124425   105077   100604   107972   124877 
  141685   139311   109045    58004    -2016   -65207  -130759  -190688 
 -232550  -256123  -268572  -270928  -264489  -253860  -240970  -226305 
 -209779  -190080  -166199  -138669  -107097   -67624   -20474    27310 
   71786   110845   138769   152365   153312   146892   140530   136977 
  134563   131154   122876   108689    92659    77947    65672    57356 
   56082    62231    68841    66887    51531    24784    -7156   -40840 
  -74548  -103893  -122333  -125564  -114134   -90047   -57602   -23642 
    7907    30629    33500    12576   -28716   -81345  -127717  -154944 
 -162129  -150770  -123721   -87020   -46930    -9644    17847    29655 
   26488    15501     5834     7961    25862    53173    84953   118613 
  148985   173947   192249   199529   195637   185870   173754   161314 
  151019   138874   114364    74154    27819   -15633   -57991   -98363 
 -125242  -133240  -127127  -109545   -83817   -57588   -32427    -6824 
   12914    21627    20561    11695     1206    -2590     4020    19124 
   34044    39024    30929    12551   -10012   -28795   -38797   -41324 
  -36646   -24135   -13577   -13705   -19247   -26306   -36402   -48058 
  -58911   -64856   -64313   -61786   -59682   -59449   -63772   -70157 
  -71289   -62918   -50680   -42776   -36656   -26944   -15588    -2569 
   14544    31568    43729    52206    58778    63019    65156    66572 
   67160    64487    56822    46071    38709    42229    57513    78751 
   99683   115244   120431   108738    77130    35003    -4699   -40844 
  -77528  -110844  -133980  -145688  -145310  -131290  -108560   -87503 
  -75942   -76006   -84063   -92722   -97420   -98065   -95130   -89286 
  -82258   -77307   -75842   -74466   -71993   -71674   -74406   -76907 
  -73988   -62658   -43894   -18842    12790    51567    96671   143723 
  185785   216175   228978   220648   192754   148311    91499    34195 
  -13974   -57115   -98487  -128309  -134439  -114156   -72599   -18854 
   34338    76280   101841   111048   110513   105638    96988    87489 
   80526    77668    79808    85472    93363    99278    93915    74186 
   45995    17105    -5314   -16985   -15092     3496    34141    62809 
   81228    93614   100030    91746    68758    36600    -2865   -40703 
  -63320   -63981   -43921   -12723    16472    34410    36015    19567 
   -8229   -31234   -39012   -32932   -13249    15793    38405    48092 
   49461    38063    12731   -12555   -28206   -34896   -35124   -32931 
  -29678   -22259    -9645     5637    18240    24519    28539    33863 
   39236    46853    58724    71025    78458    75159    56979    26347 
   -9716   -43302   -67273   -76194   -70631   -61999   -62268   -70575 
  -82167   -98898  -118921  -133265  -138478  -136539  -128330  -116802 
 -105712   -93183   -71248   -32748    16608    59726    92807   128647 
  163579   178162   168649   137528    82318    16082   -41592   -90008 
 -135163  -169942  -184289  -177297  -148685  -101063   -50520   -11216 
   16219    31361    34548    36635    46976    63662    83422   104654 
  123593   137653   144408   139961   122115    89779    46689     5519 
  -20692   -28333   -21510    -3547    23335    51788    74146    89846 
  100689   106523   107609   106581   108409   116410   129258   143624 
  156690   166432   170410   165093   148497   121938    88403    52769 
   22796     4830    -1572    -2989    -6497   -15846   -31681   -50594 
  -65543   -71392   -69619   -68391   -76084   -92588  -111449  -127850 
 -139475  -145642  -148050  -148785  -147383  -140041  -122925   -97441 
  -68051   -36654    -7445    10842    14359     5264   -12348   -29103 
  -33704   -23494    -5368    11614    23559    32498    38716    40538 
   40464    39840    34700    21692     1149   -21540   -36479   -35899 
  -18555    10749    42666    66599    76454    73285    59360    33567 
   -3344   -44768   -82886  -114336  -139550  -157349  -164004  -161523 
 -156467  -146487  -127644  -104042   -74777   -37947     1934    44888 
   88388   122863   144494   155000   155935   146024   125276   102158 
   84719    73087    66374    64158    61054    50418    32837    10596 
  -16990   -44812   -62633   -64125   -49459   -22398     9534    35735 
   55694    73949    84021    81240    62950    24308   -22210   -62170 
  -96859  -124493  -142689  -154417  -154535  -136680  -105224   -66696 
  -23697    20334    58929    86300    99529    95213    73208    41729 
    9480   -15281   -22930   -10059    21988    64409   101341   130714 
  156617   168398   160002   140477   117853    96549    75347    50418 
   28040    16764    18303    29762    44542    59663    73289    76385 
   63932    41823    17886    -4190   -27141   -54790   -83334  -107724 
 -129735  -149035  -158245  -153952  -140045  -121087  -102120   -89148 
  -87458   -99389  -116635  -120518   -98096   -54035    -3062    47383 
  100183   152736   191758   208544   201842   167062   103679    26979 
  -44073  -105867  -160601  -196885  -206894  -199086  -178186  -148357 
 -120664   -95566   -67671   -38145    -7561    22836    49327    70419 
   83477    85316    77863    67183    58349    52521    51425    59449 
   75690    93733   109594   120347   124231   123980   118106   102788 
   84753    69304    51796    32566    14644    -1248    -9438    -8717 
   -7887   -14448   -28922   -46958   -63302   -72955   -69533   -47547 
