Origin Time       2024/01/01 16:10:00
Lat.              37.495
Long.             137.270
Depth. (km)       16
Mag.              7.6
Station Code      TYMH03
Station Lat.      36.7294
Station Long.     137.2627
Station Height(m) 8
Record Time       2024/01/01 16:08:52
Sampling Freq(Hz) 100Hz
Duration Time(s)  300
Dir.              5
Scale Factor      3920(gal)/6170801
Max. Acc. (gal)   165.085
Last Correction   2024/01/01 16:08:37
Memo.             
[...]
   -3050    -5879    -7869    -7338    -4349    -1465    -2897   -11122 
  -24041   -36413   -43453   -42966   -35482   -23952   -13803    -9552 
  -10002    -9418    -3407     6604    14505    15551    10770     5200 
    2540     2731     3791     3776     1259    -4247   -11113   -15682 
  -16140   -15953   -20132   -29250   -40018   -48193   -48422   -36882 
  -16311     5971    22874    28474    20803     5423    -7606   -11601 
   -8028    -3470    -3067    -6698   -11062   -14358   -16068   -16660 
  -19577   -26079   -30732   -27280   -14415     3321    17219    20451 
   12324    -2746   -16577   -22033   -18957   -11148    -1527     6841 
   10904    10544     8279     5480      371    -9918   -25407   -40850 
  -48312   -42937   -26061    -5078     9537    11920     5052    -4291 
   -9851    -7978     -708     6783    11077    11491     9864     9027 
    9714    10160     8932     6770     5414     5068     4073     1737 
    -166      423     3520     7643    11294    13356    13870    14790 
   17776    20324    17157     7160    -5120   -15910   -24692   -29920 
  -29599   -26395   -25467   -28490   -32676   -33358   -28304   -19735 
  -11517    -6772    -6415    -8452   -10161    -9464    -5725     -643 
    4133     7647     8176     5810     2490    -1980    -8093   -13662 
  -16905   -17953   -16867   -14154   -11387    -9518    -8390    -7338 
   -5797    -4473    -4439    -4754    -3329     1172     9620    21446 
   32763    38446    35531    24021     7503    -7574   -16398   -18538 
  -16467   -13872   -13615   -16757   -23991   -34409   -44067   -49307 
  -49818   -47242   -42506   -36276   -30017   -24243   -17691    -8571 
    3623    16571    26503    30308    26416    17017     7607     2822 
    4285     9152    11356     7988     1138    -5198    -6113      653 
   10661    17256    17048     9213    -3309   -12517   -11624     -580 
   13740    21693    19157     8293    -5964   -15798   -16823   -12861 
  -11621   -19273   -33021   -41712   -38112   -24676   -10516    -5633 
  -13811   -30366   -45353   -49954   -42755   -28119   -12079    -1686 
    -703    -6217   -12574   -15545   -13520    -7675     -753     4990 
    9259    13645    18334    20634    19057    14787    10071     7953 
   10219    15136    18590    17683    13098     7028      305    -7661 
  -17435   -27223   -32134   -28426   -17512    -4094     7162    13670 
   15889    15299    12318     6578     -798    -5128    -2498     5714 
   16868    29921    42144    46762    35578     8143   -23774   -47115 
  -56775   -52327   -37458   -21343   -13144   -17077   -28315   -34238 
  -27842   -13946     -756     6148     5326      679    -2711    -2945 
     426     4673     2083   -10727   -27551   -39879   -42332   -34003 
  -19637    -7112    -2923    -9618   -22534   -30068   -25804   -14009 
     596    13840    19902    20227    21653    25262    26059    19002 
    4884    -8994   -16344   -16081   -10289    -3214     2331     7501 
    9815     3152    -9583   -18697   -20757   -19552   -19291   -19559 
  -16054    -7152     2456     7552     8255     5057    -4619   -18810 
  -28924   -28665   -19625   -11172   -14754   -32882   -57760   -77889 
  -82664   -69476   -44382   -15162     9948    24330    26936    21495 
   14056     8565     4657      510    -5426   -13214   -19611   -20047 
  -13805    -5225      638      620    -6362   -17095   -23493   -19753 
   -8952     3233    14837    22640    22861    19292    19619    25149 
   30910    31278    23969    11574    -1095    -9775   -13787   -17631 
  -24531   -31802   -35727   -35227   -30097   -21532   -12408    -2388 
   10090    19697    18737     8348    -3567   -12483   -17112   -14827 
   -6748      998     5502     8109    10489    12984    12089     2782 
  -13549   -27083   -29250   -22575   -15375   -12419   -15152   -22561 
  -30179   -32882   -29187   -21472   -12695    -5222     -851      501 
     749     1705     4125     7253     6891    -2145   -16990   -26825 
  -26010   -17194    -3481     9307    10478    -5242   -29845   -46303 
  -42932   -23020     1594    19575    22901     8813   -16527   -39434 
  -49460   -45648   -33537   -21607   -15044   -11509    -6199     1412 
    7905    11789    14546    16665    17627    17100    14914    12346 
   11965    15498    20501    20760    14463     6394      -45    -6026 
  -13650   -22643   -31468   -38950   -41470   -35443   -23764   -12894 
   -7557    -9546   -16025   -22704   -27220   -25002   -13086     2208 
   11946    10476    -5109   -28298   -44378   -45153   -33478   -17679 
   -5424     1842     6705    12886    23029    32877    37921    41612 
   47216    53208    58842    65532    71150    68833    56466    38601 
   16795    -9705   -35839   -52679   -55388   -45331   -26420    -5250 
    9047    12673     8824     1747    -3420      -19    15701    39105 
   59063    68964    67558    51448    22886    -5035   -23730   -37160 
  -50256   -60356   -62177   -52498   -32524   -11786     -245      455 
   -8773   -23495   -32391   -29360   -16751     1880    18641    23226 
   11289   -13646   -38721   -49591   -44345   -31294   -19638   -16506 
  -24946   -42642   -63585   -80771   -89998   -93126   -94273   -93838 
  -90065   -80587   -62321   -36629   -11535     4729     9795     5513 
   -3939   -11016   -10566    -4218     3772     8303     5598    -2356 
   -9779   -12538   -11336   -10468   -12962   -17199   -17948   -13653 
  -10846   -14654   -22783   -32287   -41627   -50118   -58077   -62512 
  -60386   -53195   -43059   -33544   -28369   -24396   -17481    -9829 
   -2952     4547     9907     8510     2098     -427     9174    30941 
   59269    88271   112612   128086   132657   127849   117873   105583 
   90111    69007    43483    18635     -196    -7289      473    17757 
   31623    31156    18429     3072   -10185   -19796   -26797   -37557 
  -54006   -68985   -76301   -74463   -63407   -46361   -29518   -17292 
  -11406   -11359   -14368   -17857   -21733   -27440   -35875   -44632 
  -45161   -28566     2819    35696    58200    68511    71062    70544 
   71852    75787    75214    62813    37844     4715   -28191   -52602 
  -69399   -83898   -93847   -95227   -88705   -74220   -53722   -35631 
  -27066   -28538   -36314   -44692   -50353   -53152   -52307   -48150 
  -42164   -33154   -20236    -5222    10311    23031    26254    15599 
   -7393   -34771   -55069   -62127   -55425   -34047     -547    37607 
   73379   101246   118840   126540   121791    99757    60868    12876 
  -32281   -60419   -63054   -44516   -15283    14405    34537    38899 
   29212    13688      822    -4570     -680     8344    11667     4306 
   -4877    -5691     2980    19545    42234    64524    80624    91686 
   98608    97760    86203    62703    28227   -13105   -57356   -97448 
 -121251  -123780  -108727   -77081   -34543     2816    28422    50483 
   72127    81993    66153    22869   -37738   -96750  -131217  -132536 
 -110396   -78612   -50240   -36984   -44347   -65952   -85218   -90161 
  -82335   -67362   -47791   -25917    -2587    22574    47078    68608 
   88626   109679   131641   150512   160495   156983   137799   102266 
   49952   -16555   -86675  -145521  -183719  -198272  -189832  -163872 
 -127790   -88426   -51662   -20411     2822    15990    20696    19758 
   16763    16057    19902    29483    45058    64014    83102    98825 
  104106    93737    71394    43968    16751    -7253   -30054   -54875 
  -80734  -103446  -119901  -127552  -120413   -97051   -66204   -34720 
   -4293    20219    32772    31603    19108      829   -15713   -25868 
  -29952   -26115   -11703     6695    16915    12122    -5550   -27332 
  -41463   -39904   -24452     -838    26325    51494    70879    82238 
   84846    82509    78461    73182    67645    63239    61895    62872 
   59609    45199    17386   -21324   -64569  -104919  -134922  -149028 
 -147754  -133630  -109768   -85841   -72610   -72447   -80046   -87620 
  -88757   -81007   -67195   -52051   -38649   -28338   -18632    -4218 
   17135    42515    64543    74980    71522    59959    48788    42446 
   42069    46648    48725    40550    26401    18577    23147    35469 
   46591    49388    40580    21407    -2060   -22638   -38353   -50876 
  -62316   -75308   -86324   -87080   -76505   -58446   -37490   -23847 
  -26672   -44159   -65589   -77798   -74468   -58513   -35303   -12497 
    2084     7016     4857    -1295    -8330   -13761   -14076    -6232 
    9148    29617    51613    69690    79626    79080    69970    62238 
   63874    72478    81885    87218    83434    66487    40609    18650 
    8066     2596    -7645   -23346   -39399   -53224   -60797   -57912 
  -49631   -45702   -49368   -55672   -56416   -46728   -29399   -11820 
    2872    17384    31430    40731    46461    51264    48207    30298 
    3672   -19872   -35096   -43710   -49232   -55560   -64519   -72163 
  -72935   -64364   -48290   -31027   -18987   -16915   -26135   -39257 
  -46053   -44831   -42413   -46670   -59903   -76232   -84211   -74768 
  -50255   -22783    -3720     3718     5707     9627    14933    17009 
   15952    16160    20212    28214    39409    51454    61566    68076 
   71068    71442    69490    67246    66485    62325    47562    22294 
   -5420   -26590   -38317   -43943   -48646   -56091   -67135   -79036 
  -84473   -78071   -64094   -50612   -43356   -46536   -56874   -62093 
  -55309   -40137   -21968    -7059    -1239    -2621    -1781    10743 
   35105    62685    87129   106819   120426   126047   122524   112546 
  102243    93853    83492    68182    49082    29226    12158     -809 
  -12818   -28694   -51052   -78250  -103682  -118868  -119760  -109665 
  -94876   -79118   -66210   -63907   -76723   -98388  -117017  -123494 
 -113179   -86409   -50212   -14196    17918    47396    71802    86773 
   92050    91116    92510   103436   119183   128809   125403   109122 
   84844    57005    27281    -5428   -40883   -74644  -102198  -120150 
 -125325  -115214   -89280   -53718   -19304     6435    18131    11758 
   -8825   -32165   -47896   -52148   -45525   -31627   -19851   -18488 
  -25349   -33435   -35006   -24153    -6130    10935    29166    50490 
   68341    75234    64973    35351    -2949   -35296   -57842   -70120 
  -70382   -63972   -57927   -52599   -46942   -41882   -39658   -43433 
  -53132   -65602   -78618   -88899   -91164   -83495   -69988   -54990 
  -38022   -19649    -4551     4620     7097     2322    -8158   -21584 
  -33889   -40755   -39742   -30393   -16191    -1512    14748    35253 
   59065    84268   108408   128158   141464   147156   146207   142396 
  139212   139608   144106   147101   140962   123289   100270    82931 
   74099    62916    38423      849   -40601   -75274   -99703  -117117 
 -130193  -139614  -144271  -141839  -132541  -120917  -113634  -113696 
 -115333  -109247   -94226   -77104   -60659   -41733   -23216   -14645 
  -18772   -30477   -45327   -59539   -67175   -62118   -44918   -24707 
  -10329    -5539    -9558   -17801   -28007   -41777   -57279   -69877 
  -76613   -72427   -52198   -20341    11681    37507    57260    70123 
   77072    83174    88060    88185    84507    75705    59565    40031 
   19784    -1889   -23763   -45155   -65888   -83961   -96428   -97023 
  -79703   -47578   -11171    19388    39098    48050    49650    51005 
   57972    69764    81783    87091    76981    47775     6021   -35524 
  -66098   -79577   -73779   -55347   -36938   -23778   -14346    -5213 
   10651    35887    65010    90634   106987   115650   124539   136160 
  143639   138659   119883    93095    67816    52163    43818    32708 
   14270    -9074   -34083   -57585   -79044  -102451  -129345  -155296 
 -173389  -174732  -149794   -96557   -27984    37465    88613   114342 
  106556    74214    31590    -9192   -35412   -48192   -59209   -72303 
  -84801   -93904  -100150  -103574   -98103   -84108   -71308   -63287 
  -57880   -52383   -38908    -8399    38555    91047   137026   167412 
  173722   152678   113904    76567    52937    38389    21745    -4189 
  -36702   -63266   -79069   -88858   -94786   -99678  -100476   -86620 
  -56480   -14735    32199    70693    85497    67547    22963   -23706 
  -50516   -54684   -45062   -32696   -23376   -15567    -9820   -10862 
  -20598   -35924   -49247   -51552   -35909    -2216    39312    79514 
  117869   154581   185566   205608   215238   218257   215334   207321 
  196502   185301   176190   167767   153270   124536    76745    10878 
  -65513  -137547  -190325  -222369  -241833  -252885  -257640  -257182 
 -246608  -219980  -175072  -117985   -59550    -2556    47663    78929 
   92463    98211   102979   113969   128834   130897   106187    55149 
   -8848   -67604  -107955  -129107  -141816  -152716  -157495  -151456 
 -129859   -88184   -31389    25808    70678   104725   132596   149288 
  154704   152862   140088   118431    95001    69409    42139    16048 
  -10510   -41800   -81545  -130030  -180447  -220606  -245221  -255123 
 -245592  -216351  -176869  -135288   -99233   -77014   -72167   -78870 
  -81658   -67346   -31431    22594    80228   126883   154998   158048 
  138423   108039    74179    38508     2453   -30436   -53734   -64808 
  -66838   -57380   -32966    -1211    33277    70689   100959   116952 
  125172   129866   128117   120209   110321   101559    96264    94086 
   87618    68112    33699   -13226   -67437  -122227  -175884  -223790 
 -254979  -265880  -256057  -224830  -181270  -133213   -81670   -31002 
   17357    65867   109497   140487   159038   168433   164997   144662 
  113447    80777    54870    46206    60066    87197   107696   109413 
   98138    76233    38433    -4584   -38668   -63941   -79823   -82789 
  -77106   -70472   -65137   -58072   -45757   -27480    -7294     9215 
   18991    18198     3830   -20673   -51427   -85740  -115901  -137260 
 -152027  -159599  -158931  -150016  -129787  -101829   -76615   -58322 
  -46059   -37123   -24223    -2866    22395    46378    67910    83724 
   91368    97243   110678   133863   162382   185540   180485   126585 
   40028   -37112   -91478  -132225  -151991  -150868  -137612   -99486 
  -38619    18804    62872    91246    96924    80744    51875    23816 
    9071    10938    24597    44004    61983    74087    86561   105475 
  122351   124524   109366    81542    48047    16824    -7988   -30197 
  -55621   -82094  -102678  -112277  -105928   -82361   -48660   -17272 
   -1736   -10509   -40063   -74225   -97505  -108934  -110370   -95274 
  -62635   -21177    19788    49888    60638    50690    23124   -12350 
  -40531   -52517   -48453   -34108   -19078    -6276    11972    35653 
   52649    58631    54400    35499     6017   -23507   -50618   -74173 
  -91340  -104945  -118739  -130532  -138563  -146407  -155765  -163914 
 -166793  -158242  -135698  -104163   -69216   -38144   -20120   -15736 
  -21055   -34026   -47888   -55670   -56614   -49919   -33587    -9302 
   17343    40829    56543    60442    54217    45924    42802    46070 
   53242    64386    80197    98391   117664   135215   144015   142520 
  137252   134353   135806   136446   124602    95046    56620    20314 
  -11136   -34739   -45173   -46037   -43323   -34315   -17393      157 
    8893     4929    -7156   -19910   -32075   -47653   -68672   -92091 
 -111507  -119912  -112827   -93321   -70659   -52591   -42353   -36391 
  -25271    -3233    28008    63378    98224   132026   166245   196818 
  214941   214031   190543   145324    88265    32107   -17673   -59052 
  -88712  -109037  -125832  -139967  -151727  -159257  -154699  -133349 
  -99075   -63104   -36143   -18477    -7555    -6170   -12977   -19437 
  -19896   -14171    -3564    11436    30861    50349    62081    63652 
   58659    51062    43991    39958    39575    40480    38341    28714 
    9109   -16418   -39230   -56228   -69646   -79652   -84471   -81846 
  -69209   -48033   -26128   -11423    -6982   -13596   -30142   -50456 
  -64974   -68317   -64173   -58298   -52225   -48516   -50363   -55985 
  -63645   -75760   -94128  -115733  -132382  -136386  -127931  -111784 
  -89733   -63710   -39523   -19963    -1509    19804    45331    74031 
  101826   123574   137270   145350   150161   151489   150074   144538 
  130754   111516    95087    87693    90279    93848    87169    70733 
   52708    36462    18704    -3868   -31020   -61371   -91491  -112730 
 -117164  -105822   -87019   -70096   -61373   -60129   -57107   -44229 
  -26019   -12358    -6130    -9772   -27195   -50905   -68232   -73843 
  -66821   -50906   -32754   -14944     4007    25987    47016    58349 
   57038    46003    28903    13707    12360    30051    59162    87344 
  110762   134072   157013   173006   177401   163734   127090    78561 
   33796    -5748   -36188   -42848   -26761    -3602    16637    26169 
   20306     1493   -23796   -44519   -54141   -57140   -61182   -71669 
  -89555  -110466  -127827  -135784  -130834  -113048   -85657   -55162 
  -30210   -16489   -15619   -26945   -44892   -60763   -72054   -83760 
  -99280  -115781  -125527  -120065   -98351   -68797   -40914   -18062 
   -1108     5940     2193    -5636   -11700   -15073   -14077    -6843 
    1667     3944     -211    -6807   -13364   -18306   -23154   -31408 
  -41192   -47730   -50643   -50604   -47123   -43463   -44555   -50613 
  -57264   -59130   -52775   -39428   -25258   -14943    -5216     7615 
   19422    26101    27576    24539    21576    23779    31678    45369 
   62201    76014    84218    82704    66680    44284    26616    13632 
    2651    -8143   -20405   -29291   -28176   -18302    -7353    -2537 
   -4154    -7289    -8847    -8283    -6950    -8465   -15809   -27392 
  -36432   -36577   -29789   -25608   -30525   -43083   -58273   -70508 
  -76279   -75935   -69716   -55187   -31080     -270    32535    62532 
   84401    95710   100215   103793   109750   117432   120764   113273 
   95676    74454    58301    54386    61203    68569    67423    56536 
   39097    18599      287   -11485   -18906   -27219   -36584   -41074 
  -36299   -25138   -13466    -5847    -4897    -8150    -9877    -7837 
   -4994    -5791   -11671   -22499   -39126   -61119   -85551  -105959 
 -113476  -102959   -76606   -43499   -12908    12230    30588    42131 
   52454    65235    79304    94020   106386   108419    92511    60053 
   23345    -7130   -31604   -54713   -79249  -104409  -127982  -148555 
 -161509  -162600  -154313  -139602  -119755   -98435   -77787   -56520 
  -34127    -9800    17809    45184    67413    82965    89445    85355 
   72582    51987    22819   -15462   -59065   -98914  -126429  -137322 
 -134209  -119185   -90170   -52949   -15353    21152    52679    74995 
   87848    91476    87248    78648    70233    66005    68222    75525 
   83866    90906    94292    92143    84659    69725    47166    23293 
    5030    -6712   -16434   -22980   -20913   -13966    -9096    -8122 
  -10434   -11994   -11191   -13519   -21310   -31242   -40668   -47122 
  -49065   -47512   -43406   -38399   -33194   -22778    -3488    21089 
   46993    70638    87166    94681    94060    87808    76782    55258 
   17889   -30084   -76661  -112935  -133467  -135403  -123428  -106138 
  -89031   -75728   -66534   -58920   -53656   -50587   -43854   -28221 
