Origin Time       2024/01/01 16:10:00
Lat.              37.495
Long.             137.270
Depth. (km)       16
Mag.              7.6
Station Code      TYMH03
Station Lat.      36.7294
Station Long.     137.2627
Station Height(m) -572.5
Record Time       2024/01/01 16:08:52
Sampling Freq(Hz) 100Hz
Duration Time(s)  300
Dir.              1
Scale Factor      2940(gal)/6170270
Max. Acc. (gal)   60.586
Last Correction   2024/01/01 16:08:37
Memo.             
[...]
  156621   160496   165796   175717   187912   191174   185693   183010 
  180501   169880   162006   165961   169958   166341   161502   158044 
  153724   150931   152166   155626   161078   168583   174770   178060 
  179210   177446   172523   167507   165074   163167   159920   157964 
  159039   161638   164402   165884   165406   164760   163385   159522 
  155599   154653   157487   162613   168595   175909   181150   180446 
  176409   170760   160945   149456   146753   155031   162371   165026 
  168927   170432   165422   160436   159401   160219   162965   166961 
  167480   162464   157219   157185   162119   170332   177752   180626 
  182499   184014   181921   180322   180459   175209   164795   158973 
  159725   157235   150872   153906   167857   177455   175806   173360 
  177862   181581   177494   171614   169285   167636   166539   167217 
  165458   162259   163363   165878   163388   156310   150582   149395 
  149361   150155   157022   166018   166664   162020   160067   157957 
  156309   159584   161520   158496   157037   158157   157589   157734 
  163565   171585   176847   183615   193223   196246   190218   184444 
  180702   175356   172826   173080   170564   169164   172024   172296 
  166017   159621   160356   163765   161778   157869   158066   162332 
  170113   176299   174200   169845   171007   170654   163799   158672 
  157630   154240   149432   149989   155198   157939   159059   163944 
  168254   168151   167892   168704   170367   172572   170449   164946 
  163375   164571   164374   166346   171233   173098   170396   167599 
  166930   165255   160980   156337   152942   152719   156632   161286 
  163769   165418   166951   166597   165633   168968   174665   172189 
  162260   159146   164418   167338   166692   166488   166363   166694 
  166950   163705   157238   152581   153727   158407   162745   168601 
  175206   176397   174970   178450   180524   172488   165063   168128 
  170128   164496   161141   164542   169807   171893   169834   165747 
  162791   165373   170140   168165   164167   167013   170133   165229 
  156660   154877   163812   172425   169118   160411   157755   158965 
  156439   151028   148682   151934   157390   158986   157454   157664 
  158913   160711   162778   161165   157071   155253   157935   164451 
  168344   166728   166250   168268   167883   165093   160318   153784 
  150455   153718   162913   173753   179387   178829   175956   172605 
  168959   166741   169547   172040   163494   154291   161460   173254 
  174276   172503   173414   171711   169219   170629   173841   176308 
  178595   179140   176183   171825   168881   169395   171522   170262 
  168021   168981   167132   158082   149879   151191   158084   161845 
  164781   169829   169189   164282   164703   165272   158165   149327 
  146910   149896   152388   154107   159457   169269   181161   192090 
  196153   186988   167213   151657   153175   164804   170615   171116 
  176013   181554   178562   169120   158503   151543   154009   160024 
  162597   164180   161443   156342   160966   172000   177952   179461 
  181162   181932   181620   184411   186800   180711   169789   164054 
  167200   174450   177503   172141   161229   152886   154241   162145 
  163822   157039   157913   171897   180604   173828   165791   167306 
  170507   168497   164498   160307   154031   149376   152705   159204 
  157739   148114   142503   148082   156343   161372   166685   169132 
  166462   165394   168897   170811   163673   153934   156356   167782 
  172743   167695   158056   149976   151947   163875   170955   164366 
  155623   157367   161077   154311   149228   159494   170816   169423 
  161919   155228   155434   166244   171501   162028   160466   174959 
  182094   177536   176634   175521   169198   168776   170738   165460 
  163389   168455   169466   166720   166519   165629   163440   165764 
  167424   161134   155519   156790   160924   166575   170186   170022 
  172027   177163   182983   186610   183473   179841   183634   185544 
  177168   168459   166262   160886   150669   147059   150428   157132 
  168127   173391   169350   169009   171288   170505   174279   178028 
  174357   174343   178505   174144   165764   162475   160541   161389 
  168550   170920   162671   155241   157769   166841   171381   168185 
  163278   154246   146931   157506   170370   163575   152554   151509 
  154592   162037   172752   175466   167101   161547   168587   173548 
  165377   159646   163760   166936   168414   170700   167812   159014 
  147593   138557   143773   158507   162982   161320   165598   165418 
  155271   149406   152053   152287   150948   156753   164457   170181 
  182716   193171   182939   169454   174235   179428   174656   172684 
  171689   166228   160431   156301   152507   147808   146698   150800 
  154887   161215   168835   169615   167453   168198   170173   172946 
  174147   172251   171491   175816   182828   184374   176797   163891 
  149442   136489   132884   140052   143730   145952   162612   178110 
  173929   166963   169193   169250   163587   158948   160374   172305 
  188944   196884   194055   188652   185374   179916   172523   169350 
  164998   156451   152248   151434   146969   141258   143375   157345 
  173427   182688   188510   187999   175857   162125   153019   144379 
  139484   142395   149970   157544   159114   155685   156630   160625 
  162861   168405   175429   176844   172244   164679   162979   169921 
  175952   180327   184594   179082   164835   156255   157153   158474 
  154609   151789   152049   148888   149521   156918   155914   154310 
  166587   170205   153128   142169   149022   160522   170247   178772 
  186549   187528   178100   169026   161442   152765   155235   164859 
  165092   156293   148707   152190   161639   168447   180952   191324 
  184548   173509   166802   162887   168204   178356   181575   179912 
  184115   192614   194455   191181   184149   167065   148872   138051 
  124933   107787    98498   104175   122464   142583   154946   165575 
  181676   191103   186188   181984   186150   186528   176769   165578 
  160505   158851   159558   163893   161590   151596   151753   164497 
  176415   178947   174029   175673   183717   176605   155076   144271 
  148323   153272   158572   168688   176224   169806   151620   139950 
  140301   139024   140910   156373   165061   158913   162498   176829 
  180536   175537   178010   189250   198593   197825   186031   173672 
  170340   169494   163523   150590   138094   148660   178127   185193 
  161191   142072   140001   140412   148182   164608   175867   186745 
  195131   182000   155169   138267   137074   147159   164649   179429 
  181390   179904   188447   196785   195758   195656   192150   175377 
  158172   139659   109771    96960   124392   162866   184834   199167 
  209753   201185   175092   153084   142119   134668   131481   136293 
  144494   151659   161403   176091   189710   195821   189148   168109 
  148678   147722   156605   163694   170420   171067   164900   167269 
  175219   171686   162296   163061   174309   183363   181651   174911 
  171197   173641   182816   190392   190269   190340   192036   185586 
  168452   146437   133586   139239   149130   153712   159649   161829 
  158358   161864   171027   178075   186281   192685   192061   187027 
  176473   166800   163093   150290   134689   141188   158139   160750 
  150530   140391   138221   138001   135607   151485   193218   231391 
  238637   213271   179559   163572   162363   163657   164584   164698 
  166398   173232   185721   200051   212169   215415   199602   174920 
  168312   176794   173193   159456   155668   158041   153183   143590 
  138074   137061   137480   136726   129286   117554   119109   143257 
  167381   169279   167799   182996   196784   195171   188930   182626 
  177616   176399   166038   139960   119869   130568   164786   193375 
  207221   215943   229755   250278   253022   224145   188697   166561 
  163515   174236   175720   167810   166381   163505   153145   143760 
  140637   146186   151123   143290   132096   132397   141924   149626 
  152001   152077   151499   154182   160293   162245   159179   154905 
  152362   156820   162651   159090   153922   162047   182118   196069 
  196429   198863   201841   187533   165625   150122   137692   131952 
  134925   139021   145310   154762   156315   149184   149618   158602 
  159574   153314   156840   171344   179668   174527   167608   168908 
  176722   188813   202917   208473   195964   167434   139149   131121 
  142894   162325   182390   198710   215083   225374   212464   186671 
  167840   155348   146337   139656   134781   136542   141367   144915 
  152359   163672   181094   202426   206332   191729   176089   161062 
  152032   148487   135755   124470   130806   146115   164047   181390 
  186375   185451   194475   201799   195559   189612   188941   181202 
  167635   163262   167057   165987   166585   180832   197353   198658 
  185331   175194   178740   181232   174349   172742   179195   182512 
  180127   174422   166826   158851   155644   158568   154518   140682 
  137035   148808   156804   154718   156864   166666   173034   173642 
  171258   168254   172693   181445   179105   165438   156736   159795 
  157736   141520   134649   144963   151704   158797   178967   196583 
  196974   187497   182331   183124   180273   174298   169676   158570 
  138901   125346   129261   143609   151549   151132   156082   164224 
  163624   161033   163078   164021   164265   166820   168928   166346 
  160211   158925   164590   167601   161073   154692   163674   183024 
  197166   201269   196892   196627   210759   219347   206126   182972 
  160637   143375   129808   116208   112778   124035   137580   151985 
  173849   191691   193562   192301   198995   200985   192178   186671 
  185256   178956   177028   179272   169535   154681   149061   142814 
  125498   112762   123267   149548   176582   199476   205545   185894 
  159786   143630   135386   137985   145737   140818   126245   115808 
  108802   109842   128782   152370   165566   170544   168162   164593 
  167408   171781   179646   188968   186591   183410   189122   179405 
  151348   137671   143477   149697   154230   155021   146175   141552 
  152972   167631   174199   180089   191106   197673   188737   171403 
  163175   162359   156097   147796   143114   145467   161938   177712 
  174649   162007   154829   166151   189305   193275   180451   179654 
  190000   191353   179315   168929   162890   150948   144364   153454 
  171046   190139   197587   190625   179595   161182   139819   135924 
  148920   157612   155248   154998   163387   171882   175346   178085 
  182936   186943   187063   185947   188772   198326   211884   218846 
  212556   198877   186725   174317   152775   136398   144279   153662 
  146698   145185   156452   170712   191177   217985   237813   233123 
  202918   171366   155374   145992   131388   116825   114775   124273 
  131018   127247   122927   127911   139876   154325   163850   165582 
  167540   177083   200097   224532   223823   205068   195790   195006 
  186527   167466   148805   143403   145997   137999   119985   109872 
  111602   118059   130484   145426   152709   157014   164376   172449 
  182067   182916   167562   163058   184811   199178   187200   175006 
  182586   203709   216896   208640   193186   186525   189065   190622 
  179846   167007   167536   171936   164610   148296   135961   128858 
  120134   115937   126453   152251   188799   220683   227553   206699 
  176761   160793   155585   135763   106173    98878   107800    94090 
   64622    68288   111892   158466   185117   188788   181173   184277 
  201459   216737   215315   203335   212687   246575   258493   228120 
  190326   167907   146792   125757   117850   113385   107704   117108 
  139768   167091   194180   201062   195557   205743   220548   226755 
  222588   197907   172108   160268   140157   123292   143592   177841 
  188647   189000   188158   172434   157013   154539   151986   156173 
  173379   184320   180400   168737   160271   163578   166711   154617 
  135736   128241   141237   172491   211680   238765   234476   203366 
  168432   148347   141843   132052   117360   109052   103989   101422 
  112569   133057   150860   170593   199681   224646   208953   148388 
  104691   107504   118466   131504   161116   181798   181490   175644 
  163250   139223   114048   106924   123140   139888   140467   138392 
  149874   163140   161732   169584   200926   221930   226927   230413 
  216607   187264   166303   166515   176091   161757   139183   160097 
  211933   245712   245070   224562   211295   206941   181939   133245 
   95909    86294    89095    91811    90932    92516   106146   129784 
  160647   184004   182040   174215   180961   195059   200311   177495 
  139120   123129   138351   164185   176049   174826   182884   197761 
  205700   215160   232118   242327   234541   220300   206981   177009 
  136467   124856   149510   172650   166938   158304   183652   217975 
  218334   194633   174326   163645   156838   150823   146444   133569 
  111815   103605   110884   121870   140172   164060   181381   178288 
  162715   168467   188737   190353   191523   211822   222035   208972 
  192143   185849   195717   205782   194448   173094   150821   114607 
   68443    38574    47330    85499   124153   158779   197018   229305 
  242025   229035   196732   158736   119970    89968    83208    90543 
  100576   125562   163039   182292   165058   130801   120478   142034 
  163379   171193   167384   151470   144773   152909   153658   158853 
  186276   209436   211941   209253   205285   201133   203760   195876 
  172055   172034   196219   197830   184652   180540   170779   163246 
  166354   157433   144754   154312   173197   175437   168779   179089 
  194319   179604   149702   148031   169690   173761   152391   136173 
  141085   164285   204681   240357   243199   214988   172638   133207 
  102641    86144    99074   125957   144759   160718   162732   154213 
  169183   193977   194586   182792   161579   114481    75733    83156 
  117174   160864   211205   248091   268685   286094   286566   250525 
  198305   165492   147231   112300    66378    61581   118963   180355 
  201746   219659   251598   263451   257399   252741   239119   212628 
  175166   126925    90056    91418   124598   146103   135941   128444 
  145773   178371   209299   207054   167322   129424   114163   111861 
  106020    88907    77280    91392   129736   169152   185533   187567 
  199180   213836   216090   214681   208712   186681   171242   177395 
  179131   176709   193862   208432   187742   155256   150418   169094 
  186128   189326   172875   149486   145112   144598   128122   126724 
  145976   148622   132852   119557   116964   130513   149200   148077 
  130537   126418   150100   189594   219654   230739   243880   260661 
  244754   192121   144162   120476   112552   115116   120304   123453 
  131443   145107   154148   149693   141596   148858   164504   168246 
  155390   129334   110168   123818   148206   139800   115272   123275 
  162515   196512   206451   200788   198332   198580   183936   160870 
  162161   186437   192449   179540   170053   146481   118098   129038 
  164939   184958   190763   193457   192973   190803   181952   171365 
  178386   199482   213898   207376   178504   148887   132900   119826 
  109811   107233   102739    98957   102521   109969   129156   157554 
  170882   171180   178677   191739   199918   207221   230008   255278 
  234503   174411   139453   135951   125995   116603   124163   140480 
  170398   203059   199988   166781   143397   143254   157887   175303 
  184656   182073   167307   135869    91044    58629    63332    95750 
  124724   137121   142998   155985   180049   202528   215093   224164 
  228880   229107   233891   236299   221509   198138   186274   188024 
  193977   199600   190528   155700   126202   128215   139822   149857 
  166118   175671   174878   171579   156166   137561   138456   144201 
  136080   127048   129516   136309   128888   101881    80916    89966 
  119019   147121   169768   186148   187974   178455   173847   168713 
  151869   155221   190707   201607   172936   155078   150711   136286 
  133848   148777   149973   137576   131558   136156   148134   162716 
  182830   202926   200667   181761   168521   161987   161748   162682 
  149974   128759   120353   132027   147358   156662   171370   189490 
  199013   198553   182164   153760   137425   142433   158272   175449 
  183157   169132   147208   149651   167977   173817   180061   194268 
  194564   185633   176340   149207   115878   113715   135264   150679 
  165510   184975   193410   195190   203925   210146   197417   175392 
  174681   197795   211712   199055   170758   140789   129421   150710 
  175469   172283   160869   157063   143671   131227   144477   173399 
  201142   215009   209443   201228   193731   181670   175565   175502 
  180773   188369   176342   152974   148458   152802   151244   155369 
  160411   157403   159915   169805   172514   168018   167809   172263 
  175228   185770   206439   214169   206344   199741   186859   174079 
  182305   181741   143078    99714    88149    99635   107709   111970 
  125416   142032   157041   165522   152247   132241   139260   159152 
  155600   142772   140383   128540   111091   109788   116868   129486 
  146618   150490   146829   149339   147959   146476   161493   175391 
  167189   164853   190336   218107   233045   236635   227177   223039 
  228223   219644   206134   201687   188434   175027   182942   190498 
  183099   171561   157225   155872   176808   193119   203444   224434 
  241658   247984   243705   217825   182735   153850   119710    76154 
   44902    47650    80843   127087   170056   189657   179226   163283 
  168286   175240   149947   116350   108320   113481   131049   162015 
  176416   170683   158197   134568   113895   113476   126973   154154 
  185858   192645   182333   188492   200739   199022   200271   209196 
  217391   237152   256970   247714   220594   196599   175028   153577 
  128318   102571   100424   131629   165544   175387   174601   177418 
  177544   179985   189462   191344   184684   181406   180203   179611 
  175724   163172   165082   196525   217134   196502   172306   174994 
  169429   130922    94868    92804   115834   147258   173280   181004 
  174374   168107   171535   183322   194621   200917   198601   192664 
  197644   198169   172658   148312   157733   179820   178656   173156 
  191480   200832   184130   166476   138478   103404    99297   119704 
  136391   141449   135036   124976   115073   113666   137132   169322 
  183958   193702   208795   208390   187717   164626   152820   160416 
  174113   177305   188929   211555   215163   204801   192537   168912 
  156878   173530   183093   171118   170363   189524   198422   183038 
  160603   152371   165138   179177   176592   169371   164991   165731 
  178419   187944   188668   192842   192527   191890   206922   212265 
  182260   138397   104055    82813    75987    76782    85379   116791 
